{
"type": "FeatureCollection",
"name": "Transportasi 2024",
"crs": { "type": "name", "properties": { "name": "urn:ogc:def:crs:OGC:1.3:CRS84" } },
"features": [
{ "type": "Feature", "properties": { "moda": "KRL", "nama_stasi": "Cakung", "latitude": -6.219081, "longitude": 106.9524791 }, "geometry": { "type": "Point", "coordinates": [ 106.9524791, -6.219081 ] } },
{ "type": "Feature", "properties": { "moda": "KRL", "nama_stasi": "Rawa Buaya", "latitude": -6.1601253, "longitude": 106.7363799 }, "geometry": { "type": "Point", "coordinates": [ 106.7363799, -6.1601253 ] } },
{ "type": "Feature", "properties": { "moda": "KRL", "nama_stasi": "Bojong Indah", "latitude": -6.1601252, "longitude": 106.7363799 }, "geometry": { "type": "Point", "coordinates": [ 106.7363799, -6.1601252 ] } },
{ "type": "Feature", "properties": { "moda": "KRL", "nama_stasi": "Klender Baru", "latitude": -6.2176591, "longitude": 106.9401833 }, "geometry": { "type": "Point", "coordinates": [ 106.9401833, -6.2176591 ] } },
{ "type": "Feature", "properties": { "moda": "KRL", "nama_stasi": "Buaran", "latitude": -6.2156064, "longitude": 106.92316 }, "geometry": { "type": "Point", "coordinates": [ 106.92316, -6.2156064 ] } },
{ "type": "Feature", "properties": { "moda": "KRL", "nama_stasi": "Klender", "latitude": -6.2133188, "longitude": 106.8994133 }, "geometry": { "type": "Point", "coordinates": [ 106.8994133, -6.2133188 ] } },
{ "type": "Feature", "properties": { "moda": "KRL", "nama_stasi": "Juanda", "latitude": -6.1666746, "longitude": 106.8304609 }, "geometry": { "type": "Point", "coordinates": [ 106.8304609, -6.1666746 ] } },
{ "type": "Feature", "properties": { "moda": "KRL", "nama_stasi": "Grogol", "latitude": -6.162035, "longitude": 106.7896101 }, "geometry": { "type": "Point", "coordinates": [ 106.7896101, -6.162035 ] } },
{ "type": "Feature", "properties": { "moda": "KRL", "nama_stasi": "Universitas Pancasila", "latitude": -6.3392369, "longitude": 106.8339314 }, "geometry": { "type": "Point", "coordinates": [ 106.8339314, -6.3392369 ] } },
{ "type": "Feature", "properties": { "moda": "KRL", "nama_stasi": "Lenteng Agung", "latitude": -6.3303079, "longitude": 106.8346791 }, "geometry": { "type": "Point", "coordinates": [ 106.8346791, -6.3303079 ] } },
{ "type": "Feature", "properties": { "moda": "KRL", "nama_stasi": "Tanjung Barat", "latitude": -6.3080407, "longitude": 106.8389492 }, "geometry": { "type": "Point", "coordinates": [ 106.8389492, -6.3080407 ] } },
{ "type": "Feature", "properties": { "moda": "KRL", "nama_stasi": "Jatinegara", "latitude": -6.2154315, "longitude": 106.8693599 }, "geometry": { "type": "Point", "coordinates": [ 106.8693599, -6.2154315 ] } },
{ "type": "Feature", "properties": { "moda": "KRL", "nama_stasi": "Kalideres", "latitude": -6.1659662, "longitude": 106.7037283 }, "geometry": { "type": "Point", "coordinates": [ 106.7037283, -6.1659662 ] } },
{ "type": "Feature", "properties": { "moda": "KRL", "nama_stasi": "Kebayoran", "latitude": -6.23723, "longitude": 106.7825345 }, "geometry": { "type": "Point", "coordinates": [ 106.7825345, -6.23723 ] } },
{ "type": "Feature", "properties": { "moda": "KRL", "nama_stasi": "Pesing", "latitude": -6.1612525, "longitude": 106.7719077 }, "geometry": { "type": "Point", "coordinates": [ 106.7719077, -6.1612525 ] } },
{ "type": "Feature", "properties": { "moda": "KRL", "nama_stasi": "Kemayoran", "latitude": -6.1617033, "longitude": 106.8414012 }, "geometry": { "type": "Point", "coordinates": [ 106.8414012, -6.1617033 ] } },
{ "type": "Feature", "properties": { "moda": "KRL", "nama_stasi": "Taman Kota", "latitude": -6.158627, "longitude": 106.7565728 }, "geometry": { "type": "Point", "coordinates": [ 106.7565728, -6.158627 ] } },
{ "type": "Feature", "properties": { "moda": "KRL", "nama_stasi": "Cawang", "latitude": -6.2425517, "longitude": 106.8586903 }, "geometry": { "type": "Point", "coordinates": [ 106.8586903, -6.2425517 ] } },
{ "type": "Feature", "properties": { "moda": "KRL", "nama_stasi": "Matraman", "latitude": -6.2124236, "longitude": 106.8575674 }, "geometry": { "type": "Point", "coordinates": [ 106.8575674, -6.2124236 ] } },
{ "type": "Feature", "properties": { "moda": "KRL", "nama_stasi": "Pondok Jati", "latitude": -6.2114424, "longitude": 106.8577391 }, "geometry": { "type": "Point", "coordinates": [ 106.8577391, -6.2114424 ] } },
{ "type": "Feature", "properties": { "moda": "KRL", "nama_stasi": "Cikini", "latitude": -6.1985052, "longitude": 106.8412799 }, "geometry": { "type": "Point", "coordinates": [ 106.8412799, -6.1985052 ] } },
{ "type": "Feature", "properties": { "moda": "KRL", "nama_stasi": "Gondangdia", "latitude": -6.1859806, "longitude": 106.830022 }, "geometry": { "type": "Point", "coordinates": [ 106.830022, -6.1859806 ] } },
{ "type": "Feature", "properties": { "moda": "KRL", "nama_stasi": "Sudirman", "latitude": -6.2025162, "longitude": 106.8236386 }, "geometry": { "type": "Point", "coordinates": [ 106.8236386, -6.2025162 ] } },
{ "type": "Feature", "properties": { "moda": "KRL", "nama_stasi": "Kampung Bandan", "latitude": -6.1334715, "longitude": 106.8265531 }, "geometry": { "type": "Point", "coordinates": [ 106.8265531, -6.1334715 ] } },
{ "type": "Feature", "properties": { "moda": "KRL", "nama_stasi": "Ancol", "latitude": -6.128115, "longitude": 106.8451374 }, "geometry": { "type": "Point", "coordinates": [ 106.8451374, -6.128115 ] } },
{ "type": "Feature", "properties": { "moda": "KRL", "nama_stasi": "Palmerah", "latitude": -6.2078448, "longitude": 106.7922081 }, "geometry": { "type": "Point", "coordinates": [ 106.7922081, -6.2078448 ] } },
{ "type": "Feature", "properties": { "moda": "KRL", "nama_stasi": "Duren Kalibata", "latitude": -6.2552012, "longitude": 106.8551672 }, "geometry": { "type": "Point", "coordinates": [ 106.8551672, -6.2552012 ] } },
{ "type": "Feature", "properties": { "moda": "KRL", "nama_stasi": "Pasar Minggu", "latitude": -6.2833322, "longitude": 106.8448558 }, "geometry": { "type": "Point", "coordinates": [ 106.8448558, -6.2833322 ] } },
{ "type": "Feature", "properties": { "moda": "KRL", "nama_stasi": "Pasar Minggu Baru", "latitude": -6.2626599, "longitude": 106.8517685 }, "geometry": { "type": "Point", "coordinates": [ 106.8517685, -6.2626599 ] } },
{ "type": "Feature", "properties": { "moda": "KRL", "nama_stasi": "Sawah Besar", "latitude": -6.1606672, "longitude": 106.8276549 }, "geometry": { "type": "Point", "coordinates": [ 106.8276549, -6.1606672 ] } },
{ "type": "Feature", "properties": { "moda": "KRL", "nama_stasi": "Mangga Besar", "latitude": -6.1504698, "longitude": 106.82507 }, "geometry": { "type": "Point", "coordinates": [ 106.82507, -6.1504698 ] } },
{ "type": "Feature", "properties": { "moda": "KRL", "nama_stasi": "Pasar Senen", "latitude": -6.1746947, "longitude": 106.8417751 }, "geometry": { "type": "Point", "coordinates": [ 106.8417751, -6.1746947 ] } },
{ "type": "Feature", "properties": { "moda": "KRL", "nama_stasi": "Gang Sentiong", "latitude": -6.1861531, "longitude": 106.8508709 }, "geometry": { "type": "Point", "coordinates": [ 106.8508709, -6.1861531 ] } },
{ "type": "Feature", "properties": { "moda": "KRL", "nama_stasi": "Kramat", "latitude": -6.1933001, "longitude": 106.85388 }, "geometry": { "type": "Point", "coordinates": [ 106.85388, -6.1933001 ] } },
{ "type": "Feature", "properties": { "moda": "KRL", "nama_stasi": "Jayakarta", "latitude": -6.1412999, "longitude": 106.8231322 }, "geometry": { "type": "Point", "coordinates": [ 106.8231322, -6.1412999 ] } },
{ "type": "Feature", "properties": { "moda": "KRL", "nama_stasi": "Jakarta Kota", "latitude": -6.1375828, "longitude": 106.8146203 }, "geometry": { "type": "Point", "coordinates": [ 106.8146203, -6.1375828 ] } },
{ "type": "Feature", "properties": { "moda": "KRL", "nama_stasi": "Duri", "latitude": -6.1552809, "longitude": 106.8013247 }, "geometry": { "type": "Point", "coordinates": [ 106.8013247, -6.1552809 ] } },
{ "type": "Feature", "properties": { "moda": "KRL", "nama_stasi": "Angke", "latitude": -6.1447372, "longitude": 106.8007792 }, "geometry": { "type": "Point", "coordinates": [ 106.8007792, -6.1447372 ] } },
{ "type": "Feature", "properties": { "moda": "KRL", "nama_stasi": "BNI City", "latitude": -6.20158, "longitude": 106.8171263 }, "geometry": { "type": "Point", "coordinates": [ 106.8171263, -6.20158 ] } },
{ "type": "Feature", "properties": { "moda": "KRL", "nama_stasi": "Karet", "latitude": -6.2008717, "longitude": 106.8160024 }, "geometry": { "type": "Point", "coordinates": [ 106.8160024, -6.2008717 ] } },
{ "type": "Feature", "properties": { "moda": "KRL", "nama_stasi": "Tanah Abang", "latitude": -6.185703, "longitude": 106.8083263 }, "geometry": { "type": "Point", "coordinates": [ 106.8083263, -6.185703 ] } },
{ "type": "Feature", "properties": { "moda": "KRL", "nama_stasi": "Tanjung Priok", "latitude": -6.1106914, "longitude": 106.8814984 }, "geometry": { "type": "Point", "coordinates": [ 106.8814984, -6.1106914 ] } },
{ "type": "Feature", "properties": { "moda": "KRL", "nama_stasi": "Tebet", "latitude": -6.2263977, "longitude": 106.8584389 }, "geometry": { "type": "Point", "coordinates": [ 106.8584389, -6.2263977 ] } },
{ "type": "Feature", "properties": { "moda": "KRL", "nama_stasi": "Manggarai", "latitude": -6.2101704, "longitude": 106.849935 }, "geometry": { "type": "Point", "coordinates": [ 106.849935, -6.2101704 ] } },
{ "type": "Feature", "properties": { "moda": "LRT Jakarta", "nama_stasi": "Pegangsaan Dua", "latitude": -6.1570452, "longitude": 106.9138073 }, "geometry": { "type": "Point", "coordinates": [ 106.9138073, -6.1570452 ] } },
{ "type": "Feature", "properties": { "moda": "LRT Jakarta", "nama_stasi": "Boulevard Utara", "latitude": -6.1599025, "longitude": 106.9053457 }, "geometry": { "type": "Point", "coordinates": [ 106.9053457, -6.1599025 ] } },
{ "type": "Feature", "properties": { "moda": "LRT Jakarta", "nama_stasi": "Boulevard Selatan", "latitude": -6.1690896, "longitude": 106.8986062 }, "geometry": { "type": "Point", "coordinates": [ 106.8986062, -6.1690896 ] } },
{ "type": "Feature", "properties": { "moda": "LRT Jakarta", "nama_stasi": "Pulomas", "latitude": -6.1771986, "longitude": 106.8934327 }, "geometry": { "type": "Point", "coordinates": [ 106.8934327, -6.1771986 ] } },
{ "type": "Feature", "properties": { "moda": "LRT Jakarta", "nama_stasi": "Equestrian", "latitude": -6.1838143, "longitude": 106.8908465 }, "geometry": { "type": "Point", "coordinates": [ 106.8908465, -6.1838143 ] } },
{ "type": "Feature", "properties": { "moda": "LRT Jakarta", "nama_stasi": "Velodrome", "latitude": -6.1920632, "longitude": 106.8911549 }, "geometry": { "type": "Point", "coordinates": [ 106.8911549, -6.1920632 ] } },
{ "type": "Feature", "properties": { "moda": "LRT Jabodebek", "nama_stasi": "TMII", "latitude": -6.2926483, "longitude": 106.8775021 }, "geometry": { "type": "Point", "coordinates": [ 106.8775021, -6.2926483 ] } },
{ "type": "Feature", "properties": { "moda": "LRT Jabodebek", "nama_stasi": "Kampung Rambutan", "latitude": -6.3092447, "longitude": 106.8843321 }, "geometry": { "type": "Point", "coordinates": [ 106.8843321, -6.3092447 ] } },
{ "type": "Feature", "properties": { "moda": "LRT Jabodebek", "nama_stasi": "Ciracas", "latitude": -6.3092447, "longitude": 106.8843321 }, "geometry": { "type": "Point", "coordinates": [ 106.8843321, -6.3092447 ] } },
{ "type": "Feature", "properties": { "moda": "LRT Jabodebek", "nama_stasi": "Ciliwung", "latitude": -6.2434347, "longitude": 106.8612951 }, "geometry": { "type": "Point", "coordinates": [ 106.8612951, -6.2434347 ] } },
{ "type": "Feature", "properties": { "moda": "LRT Jabodebek", "nama_stasi": "Cawang", "latitude": -6.2458446, "longitude": 106.8701919 }, "geometry": { "type": "Point", "coordinates": [ 106.8701919, -6.2458446 ] } },
{ "type": "Feature", "properties": { "moda": "LRT Jabodebek", "nama_stasi": "Halim", "latitude": -6.2458373, "longitude": 106.8871116 }, "geometry": { "type": "Point", "coordinates": [ 106.8871116, -6.2458373 ] } },
{ "type": "Feature", "properties": { "moda": "LRT Jabodebek", "nama_stasi": "Pancoran", "latitude": -6.2421352, "longitude": 106.838501 }, "geometry": { "type": "Point", "coordinates": [ 106.838501, -6.2421352 ] } },
{ "type": "Feature", "properties": { "moda": "LRT Jabodebek", "nama_stasi": "Cikoko", "latitude": -6.2434805, "longitude": 106.857066 }, "geometry": { "type": "Point", "coordinates": [ 106.857066, -6.2434805 ] } },
{ "type": "Feature", "properties": { "moda": "LRT Jabodebek", "nama_stasi": "Dukuh Atas", "latitude": -6.2048548, "longitude": 106.8256329 }, "geometry": { "type": "Point", "coordinates": [ 106.8256329, -6.2048548 ] } },
{ "type": "Feature", "properties": { "moda": "LRT Jabodebek", "nama_stasi": "Setiabudi", "latitude": -6.2092645, "longitude": 106.8302128 }, "geometry": { "type": "Point", "coordinates": [ 106.8302128, -6.2092645 ] } },
{ "type": "Feature", "properties": { "moda": "LRT Jabodebek", "nama_stasi": "Rasuna Said", "latitude": -6.2216811, "longitude": 106.8322654 }, "geometry": { "type": "Point", "coordinates": [ 106.8322654, -6.2216811 ] } },
{ "type": "Feature", "properties": { "moda": "LRT Jabodebek", "nama_stasi": "Kuningan", "latitude": -6.228851, "longitude": 106.8332187 }, "geometry": { "type": "Point", "coordinates": [ 106.8332187, -6.228851 ] } },
{ "type": "Feature", "properties": { "moda": "MRT", "nama_stasi": "Lebak Bulus Grab", "latitude": -6.2892775, "longitude": 106.7724157 }, "geometry": { "type": "Point", "coordinates": [ 106.7724157, -6.2892775 ] } },
{ "type": "Feature", "properties": { "moda": "MRT", "nama_stasi": "Fatmawati Indomaret", "latitude": -6.2924668, "longitude": 106.7924543 }, "geometry": { "type": "Point", "coordinates": [ 106.7924543, -6.2924668 ] } },
{ "type": "Feature", "properties": { "moda": "MRT", "nama_stasi": "Cipete Raya", "latitude": -6.2783417, "longitude": 106.7973264 }, "geometry": { "type": "Point", "coordinates": [ 106.7973264, -6.2783417 ] } },
{ "type": "Feature", "properties": { "moda": "MRT", "nama_stasi": "Haji Nawi", "latitude": -6.2666358, "longitude": 106.797331 }, "geometry": { "type": "Point", "coordinates": [ 106.797331, -6.2666358 ] } },
{ "type": "Feature", "properties": { "moda": "MRT", "nama_stasi": "Blok A", "latitude": -6.2557327, "longitude": 106.7971492 }, "geometry": { "type": "Point", "coordinates": [ 106.7971492, -6.2557327 ] } },
{ "type": "Feature", "properties": { "moda": "MRT", "nama_stasi": "Blok M BCA", "latitude": -6.244444, "longitude": 106.7981194 }, "geometry": { "type": "Point", "coordinates": [ 106.7981194, -6.244444 ] } },
{ "type": "Feature", "properties": { "moda": "MRT", "nama_stasi": "ASEAN", "latitude": -6.2389211, "longitude": 106.7984458 }, "geometry": { "type": "Point", "coordinates": [ 106.7984458, -6.2389211 ] } },
{ "type": "Feature", "properties": { "moda": "MRT", "nama_stasi": "Senayan Mastercard", "latitude": -6.2267337, "longitude": 106.8024926 }, "geometry": { "type": "Point", "coordinates": [ 106.8024926, -6.2267337 ] } },
{ "type": "Feature", "properties": { "moda": "MRT", "nama_stasi": "Dukuh Atas BNI", "latitude": -6.2007781, "longitude": 106.8217383 }, "geometry": { "type": "Point", "coordinates": [ 106.8217383, -6.2007781 ] } },
{ "type": "Feature", "properties": { "moda": "MRT", "nama_stasi": "Bundaran HI", "latitude": -6.1918644, "longitude": 106.8230084 }, "geometry": { "type": "Point", "coordinates": [ 106.8230084, -6.1918644 ] } },
{ "type": "Feature", "properties": { "moda": "MRT", "nama_stasi": "Setiabudi Astra", "latitude": -6.2090648, "longitude": 106.8216945 }, "geometry": { "type": "Point", "coordinates": [ 106.8216945, -6.2090648 ] } },
{ "type": "Feature", "properties": { "moda": "MRT", "nama_stasi": "Istora Mandiri", "latitude": -6.22239, "longitude": 106.8086229 }, "geometry": { "type": "Point", "coordinates": [ 106.8086229, -6.22239 ] } },
{ "type": "Feature", "properties": { "moda": "MRT", "nama_stasi": "Bendungan Hilir", "latitude": -6.2150263, "longitude": 106.8179484 }, "geometry": { "type": "Point", "coordinates": [ 106.8179484, -6.2150263 ] } },
{ "type": "Feature", "properties": { "moda": "BRT Transjakarta", "nama_stasi": "Pasar Pulo Gadung", "latitude": -6.187416, "longitude": 106.9059327 }, "geometry": { "type": "Point", "coordinates": [ 106.9059327, -6.187416 ] } },
{ "type": "Feature", "properties": { "moda": "BRT Transjakarta", "nama_stasi": "Pulo Gebang (Terminal)", "latitude": -6.2117493, "longitude": 106.9523981 }, "geometry": { "type": "Point", "coordinates": [ 106.9523981, -6.2117493 ] } },
{ "type": "Feature", "properties": { "moda": "BRT Transjakarta", "nama_stasi": "Walikota Jakarta Timur", "latitude": -6.2124858, "longitude": 106.9453986 }, "geometry": { "type": "Point", "coordinates": [ 106.9453986, -6.2124858 ] } },
{ "type": "Feature", "properties": { "moda": "BRT Transjakarta", "nama_stasi": "Buaran", "latitude": -6.2151454, "longitude": 106.9177161 }, "geometry": { "type": "Point", "coordinates": [ 106.9177161, -6.2151454 ] } },
{ "type": "Feature", "properties": { "moda": "BRT Transjakarta", "nama_stasi": "Klender", "latitude": -6.2136032, "longitude": 106.9030255 }, "geometry": { "type": "Point", "coordinates": [ 106.9030255, -6.2136032 ] } },
{ "type": "Feature", "properties": { "moda": "BRT Transjakarta", "nama_stasi": "Penggilingan", "latitude": -6.2166987, "longitude": 106.930515 }, "geometry": { "type": "Point", "coordinates": [ 106.930515, -6.2166987 ] } },
{ "type": "Feature", "properties": { "moda": "BRT Transjakarta", "nama_stasi": "Flyover Pondok Kopi", "latitude": -6.2166987, "longitude": 106.930515 }, "geometry": { "type": "Point", "coordinates": [ 106.930515, -6.2166987 ] } },
{ "type": "Feature", "properties": { "moda": "BRT Transjakarta", "nama_stasi": "Kampung Sumur", "latitude": -6.2143965, "longitude": 106.9118444 }, "geometry": { "type": "Point", "coordinates": [ 106.9118444, -6.2143965 ] } },
{ "type": "Feature", "properties": { "moda": "BRT Transjakarta", "nama_stasi": "Simpang Pramuka", "latitude": -6.1921766, "longitude": 106.8740181 }, "geometry": { "type": "Point", "coordinates": [ 106.8740181, -6.1921766 ] } },
{ "type": "Feature", "properties": { "moda": "BRT Transjakarta", "nama_stasi": "Pasar Cempaka Putih", "latitude": -6.1723225, "longitude": 106.8624605 }, "geometry": { "type": "Point", "coordinates": [ 106.8624605, -6.1723225 ] } },
{ "type": "Feature", "properties": { "moda": "BRT Transjakarta", "nama_stasi": "Rawa Selatan", "latitude": -6.1739174, "longitude": 106.8581019 }, "geometry": { "type": "Point", "coordinates": [ 106.8581019, -6.1739174 ] } },
{ "type": "Feature", "properties": { "moda": "BRT Transjakarta", "nama_stasi": "Utan Kayu", "latitude": -6.1927457, "longitude": 106.864553 }, "geometry": { "type": "Point", "coordinates": [ 106.864553, -6.1927457 ] } },
{ "type": "Feature", "properties": { "moda": "BRT Transjakarta", "nama_stasi": "Cempaka Putih", "latitude": -6.1811867, "longitude": 106.8757711 }, "geometry": { "type": "Point", "coordinates": [ 106.8757711, -6.1811867 ] } },
{ "type": "Feature", "properties": { "moda": "BRT Transjakarta", "nama_stasi": "Cempaka Mas", "latitude": -6.166561, "longitude": 106.875979 }, "geometry": { "type": "Point", "coordinates": [ 106.875979, -6.166561 ] } },
{ "type": "Feature", "properties": { "moda": "BRT Transjakarta", "nama_stasi": "Rawa Buaya", "latitude": -6.1538943, "longitude": 106.7261915 }, "geometry": { "type": "Point", "coordinates": [ 106.7261915, -6.1538943 ] } },
{ "type": "Feature", "properties": { "moda": "BRT Transjakarta", "nama_stasi": "Sumur Bor", "latitude": -6.1530337, "longitude": 106.7193387 }, "geometry": { "type": "Point", "coordinates": [ 106.7193387, -6.1530337 ] } },
{ "type": "Feature", "properties": { "moda": "BRT Transjakarta", "nama_stasi": "Taman Kota", "latitude": -6.1571488, "longitude": 106.7578769 }, "geometry": { "type": "Point", "coordinates": [ 106.7578769, -6.1571488 ] } },
{ "type": "Feature", "properties": { "moda": "BRT Transjakarta", "nama_stasi": "Pulo Nangka", "latitude": -6.1546093, "longitude": 106.7381079 }, "geometry": { "type": "Point", "coordinates": [ 106.7381079, -6.1546093 ] } },
{ "type": "Feature", "properties": { "moda": "BRT Transjakarta", "nama_stasi": "Jembatan Baru", "latitude": -6.1547937, "longitude": 106.7304222 }, "geometry": { "type": "Point", "coordinates": [ 106.7304222, -6.1547937 ] } },
{ "type": "Feature", "properties": { "moda": "BRT Transjakarta", "nama_stasi": "Jembatan Gantung", "latitude": -6.155468, "longitude": 106.7493554 }, "geometry": { "type": "Point", "coordinates": [ 106.7493554, -6.155468 ] } },
{ "type": "Feature", "properties": { "moda": "BRT Transjakarta", "nama_stasi": "Lebak Bulus", "latitude": -6.3016717, "longitude": 106.779691 }, "geometry": { "type": "Point", "coordinates": [ 106.779691, -6.3016717 ] } },
{ "type": "Feature", "properties": { "moda": "BRT Transjakarta", "nama_stasi": "Trikora", "latitude": -6.3019387, "longitude": 106.868043 }, "geometry": { "type": "Point", "coordinates": [ 106.868043, -6.3019387 ] } },
{ "type": "Feature", "properties": { "moda": "BRT Transjakarta", "nama_stasi": "Tanah Merdeka", "latitude": -6.31338, "longitude": 106.87959 }, "geometry": { "type": "Point", "coordinates": [ 106.87959, -6.31338 ] } },
{ "type": "Feature", "properties": { "moda": "BRT Transjakarta", "nama_stasi": "Flyover Raya Bogor", "latitude": -6.3065257, "longitude": 106.8657507 }, "geometry": { "type": "Point", "coordinates": [ 106.8657507, -6.3065257 ] } },
{ "type": "Feature", "properties": { "moda": "BRT Transjakarta", "nama_stasi": "Kampung Rambutan", "latitude": -6.3092078, "longitude": 106.8816804 }, "geometry": { "type": "Point", "coordinates": [ 106.8816804, -6.3092078 ] } },
{ "type": "Feature", "properties": { "moda": "BRT Transjakarta", "nama_stasi": "Stasiun Klender", "latitude": -6.2135381, "longitude": 106.8986502 }, "geometry": { "type": "Point", "coordinates": [ 106.8986502, -6.2135381 ] } },
{ "type": "Feature", "properties": { "moda": "BRT Transjakarta", "nama_stasi": "Simpang Buaran", "latitude": -6.2159855, "longitude": 106.9243543 }, "geometry": { "type": "Point", "coordinates": [ 106.9243543, -6.2159855 ] } },
{ "type": "Feature", "properties": { "moda": "BRT Transjakarta", "nama_stasi": "Tarakan", "latitude": -6.1711552, "longitude": 106.8101239 }, "geometry": { "type": "Point", "coordinates": [ 106.8101239, -6.1711552 ] } },
{ "type": "Feature", "properties": { "moda": "BRT Transjakarta", "nama_stasi": "Sawah Besar", "latitude": -6.1601812, "longitude": 106.8192259 }, "geometry": { "type": "Point", "coordinates": [ 106.8192259, -6.1601812 ] } },
{ "type": "Feature", "properties": { "moda": "BRT Transjakarta", "nama_stasi": "Balai Kota", "latitude": -6.1804942, "longitude": 106.8262475 }, "geometry": { "type": "Point", "coordinates": [ 106.8262475, -6.1804942 ] } },
{ "type": "Feature", "properties": { "moda": "BRT Transjakarta", "nama_stasi": "Kebon Sirih", "latitude": -6.1754024, "longitude": 106.8271692 }, "geometry": { "type": "Point", "coordinates": [ 106.8271692, -6.1754024 ] } },
{ "type": "Feature", "properties": { "moda": "BRT Transjakarta", "nama_stasi": "Gambir", "latitude": -6.1745883, "longitude": 106.8304074 }, "geometry": { "type": "Point", "coordinates": [ 106.8304074, -6.1745883 ] } },
{ "type": "Feature", "properties": { "moda": "BRT Transjakarta", "nama_stasi": "Gambir 2", "latitude": -6.1789241, "longitude": 106.831085 }, "geometry": { "type": "Point", "coordinates": [ 106.831085, -6.1789241 ] } },
{ "type": "Feature", "properties": { "moda": "BRT Transjakarta", "nama_stasi": "Monumen Nasional", "latitude": -6.1762176, "longitude": 106.8228666 }, "geometry": { "type": "Point", "coordinates": [ 106.8228666, -6.1762176 ] } },
{ "type": "Feature", "properties": { "moda": "BRT Transjakarta", "nama_stasi": "Pecenongan", "latitude": -6.1677221, "longitude": 106.8282105 }, "geometry": { "type": "Point", "coordinates": [ 106.8282105, -6.1677221 ] } },
{ "type": "Feature", "properties": { "moda": "BRT Transjakarta", "nama_stasi": "Petojo", "latitude": -6.169989, "longitude": 106.8170022 }, "geometry": { "type": "Point", "coordinates": [ 106.8170022, -6.169989 ] } },
{ "type": "Feature", "properties": { "moda": "BRT Transjakarta", "nama_stasi": "Harmoni", "latitude": -6.1661975, "longitude": 106.8203827 }, "geometry": { "type": "Point", "coordinates": [ 106.8203827, -6.1661975 ] } },
{ "type": "Feature", "properties": { "moda": "BRT Transjakarta", "nama_stasi": "Istiqlal", "latitude": -6.1722328, "longitude": 106.8309177 }, "geometry": { "type": "Point", "coordinates": [ 106.8309177, -6.1722328 ] } },
{ "type": "Feature", "properties": { "moda": "BRT Transjakarta", "nama_stasi": "Grogol", "latitude": -6.1668312, "longitude": 106.7895067 }, "geometry": { "type": "Point", "coordinates": [ 106.7895067, -6.1668312 ] } },
{ "type": "Feature", "properties": { "moda": "BRT Transjakarta", "nama_stasi": "Roxy", "latitude": -6.1662874, "longitude": 106.7967716 }, "geometry": { "type": "Point", "coordinates": [ 106.7967716, -6.1662874 ] } },
{ "type": "Feature", "properties": { "moda": "BRT Transjakarta", "nama_stasi": "Tanjung Duren", "latitude": -6.1725815, "longitude": 106.7884577 }, "geometry": { "type": "Point", "coordinates": [ 106.7884577, -6.1725815 ] } },
{ "type": "Feature", "properties": { "moda": "BRT Transjakarta", "nama_stasi": "Tomang Raya", "latitude": -6.1768638, "longitude": 106.8004248 }, "geometry": { "type": "Point", "coordinates": [ 106.8004248, -6.1768638 ] } },
{ "type": "Feature", "properties": { "moda": "BRT Transjakarta", "nama_stasi": "Kali Grogol", "latitude": -6.1514664, "longitude": 106.7928714 }, "geometry": { "type": "Point", "coordinates": [ 106.7928714, -6.1514664 ] } },
{ "type": "Feature", "properties": { "moda": "BRT Transjakarta", "nama_stasi": "Grogol Reformasi", "latitude": -6.1673317, "longitude": 106.7882638 }, "geometry": { "type": "Point", "coordinates": [ 106.7882638, -6.1673317 ] } },
{ "type": "Feature", "properties": { "moda": "BRT Transjakarta", "nama_stasi": "Jelambar", "latitude": -6.1665366, "longitude": 106.7865376 }, "geometry": { "type": "Point", "coordinates": [ 106.7865376, -6.1665366 ] } },
{ "type": "Feature", "properties": { "moda": "BRT Transjakarta", "nama_stasi": "Stasiun Jatinegara", "latitude": -6.2154622, "longitude": 106.8691435 }, "geometry": { "type": "Point", "coordinates": [ 106.8691435, -6.2154622 ] } },
{ "type": "Feature", "properties": { "moda": "BRT Transjakarta", "nama_stasi": "Bidara Cina", "latitude": -6.2297611, "longitude": 106.8672297 }, "geometry": { "type": "Point", "coordinates": [ 106.8672297, -6.2297611 ] } },
{ "type": "Feature", "properties": { "moda": "BRT Transjakarta", "nama_stasi": "Ciliwung", "latitude": -6.2389594, "longitude": 106.8630351 }, "geometry": { "type": "Point", "coordinates": [ 106.8630351, -6.2389594 ] } },
{ "type": "Feature", "properties": { "moda": "BRT Transjakarta", "nama_stasi": "Cawang Baru", "latitude": -6.2436398, "longitude": 106.8687729 }, "geometry": { "type": "Point", "coordinates": [ 106.8687729, -6.2436398 ] } },
{ "type": "Feature", "properties": { "moda": "BRT Transjakarta", "nama_stasi": "Simpang Cawang", "latitude": -6.2447363, "longitude": 106.8759872 }, "geometry": { "type": "Point", "coordinates": [ 106.8759872, -6.2447363 ] } },
{ "type": "Feature", "properties": { "moda": "BRT Transjakarta", "nama_stasi": "Kebon Nanas", "latitude": -6.2329322, "longitude": 106.8767311 }, "geometry": { "type": "Point", "coordinates": [ 106.8767311, -6.2329322 ] } },
{ "type": "Feature", "properties": { "moda": "BRT Transjakarta", "nama_stasi": "Flyover Jatinegara", "latitude": -6.2151677, "longitude": 106.8735451 }, "geometry": { "type": "Point", "coordinates": [ 106.8735451, -6.2151677 ] } },
{ "type": "Feature", "properties": { "moda": "BRT Transjakarta", "nama_stasi": "Gelanggang Remaja", "latitude": -6.2354339, "longitude": 106.8679509 }, "geometry": { "type": "Point", "coordinates": [ 106.8679509, -6.2354339 ] } },
{ "type": "Feature", "properties": { "moda": "BRT Transjakarta", "nama_stasi": "Matraman Baru", "latitude": -6.2155557, "longitude": 106.8740908 }, "geometry": { "type": "Point", "coordinates": [ 106.8740908, -6.2155557 ] } },
{ "type": "Feature", "properties": { "moda": "BRT Transjakarta", "nama_stasi": "Pasar Enjo", "latitude": -6.2148604, "longitude": 106.8783454 }, "geometry": { "type": "Point", "coordinates": [ 106.8783454, -6.2148604 ] } },
{ "type": "Feature", "properties": { "moda": "BRT Transjakarta", "nama_stasi": "Bali Mester", "latitude": -6.2157276, "longitude": 106.8663211 }, "geometry": { "type": "Point", "coordinates": [ 106.8663211, -6.2157276 ] } },
{ "type": "Feature", "properties": { "moda": "BRT Transjakarta", "nama_stasi": "Pedati Perumpung", "latitude": -6.22179, "longitude": 106.8718351 }, "geometry": { "type": "Point", "coordinates": [ 106.8718351, -6.22179 ] } },
{ "type": "Feature", "properties": { "moda": "BRT Transjakarta", "nama_stasi": "Halim", "latitude": -6.2390597, "longitude": 106.878113 }, "geometry": { "type": "Point", "coordinates": [ 106.878113, -6.2390597 ] } },
{ "type": "Feature", "properties": { "moda": "BRT Transjakarta", "nama_stasi": "Jatinegara", "latitude": -6.2214393, "longitude": 106.8680893 }, "geometry": { "type": "Point", "coordinates": [ 106.8680893, -6.2214393 ] } },
{ "type": "Feature", "properties": { "moda": "BRT Transjakarta", "nama_stasi": "Kampung Melayu", "latitude": -6.2184933, "longitude": 106.8629903 }, "geometry": { "type": "Point", "coordinates": [ 106.8629903, -6.2184933 ] } },
{ "type": "Feature", "properties": { "moda": "BRT Transjakarta", "nama_stasi": "Galur", "latitude": -6.1744145, "longitude": 106.8547027 }, "geometry": { "type": "Point", "coordinates": [ 106.8547027, -6.1744145 ] } },
{ "type": "Feature", "properties": { "moda": "BRT Transjakarta", "nama_stasi": "Pesakih", "latitude": -6.1548127, "longitude": 106.7152323 }, "geometry": { "type": "Point", "coordinates": [ 106.7152323, -6.1548127 ] } },
{ "type": "Feature", "properties": { "moda": "BRT Transjakarta", "nama_stasi": "Kalideres", "latitude": -6.1659662, "longitude": 106.7037283 }, "geometry": { "type": "Point", "coordinates": [ 106.7037283, -6.1659662 ] } },
{ "type": "Feature", "properties": { "moda": "BRT Transjakarta", "nama_stasi": "Rawa Barat", "latitude": -6.2388874, "longitude": 106.8162259 }, "geometry": { "type": "Point", "coordinates": [ 106.8162259, -6.2388874 ] } },
{ "type": "Feature", "properties": { "moda": "BRT Transjakarta", "nama_stasi": "Pasar Santa", "latitude": -6.2391947, "longitude": 106.8077672 }, "geometry": { "type": "Point", "coordinates": [ 106.8077672, -6.2391947 ] } },
{ "type": "Feature", "properties": { "moda": "BRT Transjakarta", "nama_stasi": "Velbak", "latitude": -6.2394096, "longitude": 106.7854972 }, "geometry": { "type": "Point", "coordinates": [ 106.7854972, -6.2394096 ] } },
{ "type": "Feature", "properties": { "moda": "BRT Transjakarta", "nama_stasi": "ASEAN", "latitude": -6.2399162, "longitude": 106.7991046 }, "geometry": { "type": "Point", "coordinates": [ 106.7991046, -6.2399162 ] } },
{ "type": "Feature", "properties": { "moda": "BRT Transjakarta", "nama_stasi": "Blok M", "latitude": -6.2448705, "longitude": 106.8009281 }, "geometry": { "type": "Point", "coordinates": [ 106.8009281, -6.2448705 ] } },
{ "type": "Feature", "properties": { "moda": "BRT Transjakarta", "nama_stasi": "Bundaran Senayan", "latitude": -6.2278789, "longitude": 106.8009787 }, "geometry": { "type": "Point", "coordinates": [ 106.8009787, -6.2278789 ] } },
{ "type": "Feature", "properties": { "moda": "BRT Transjakarta", "nama_stasi": "CSW", "latitude": -6.2398875, "longitude": 106.79791 }, "geometry": { "type": "Point", "coordinates": [ 106.79791, -6.2398875 ] } },
{ "type": "Feature", "properties": { "moda": "BRT Transjakarta", "nama_stasi": "Masjid Agung", "latitude": -6.2364337, "longitude": 106.7984502 }, "geometry": { "type": "Point", "coordinates": [ 106.7984502, -6.2364337 ] } },
{ "type": "Feature", "properties": { "moda": "BRT Transjakarta", "nama_stasi": "Mayestik", "latitude": -6.2418931, "longitude": 106.7907262 }, "geometry": { "type": "Point", "coordinates": [ 106.7907262, -6.2418931 ] } },
{ "type": "Feature", "properties": { "moda": "BRT Transjakarta", "nama_stasi": "Polda Metro Jaya", "latitude": -6.2228924, "longitude": 106.8124802 }, "geometry": { "type": "Point", "coordinates": [ 106.8124802, -6.2228924 ] } },
{ "type": "Feature", "properties": { "moda": "BRT Transjakarta", "nama_stasi": "Kejaksaan Agung", "latitude": -6.2404546, "longitude": 106.7984459 }, "geometry": { "type": "Point", "coordinates": [ 106.7984459, -6.2404546 ] } },
{ "type": "Feature", "properties": { "moda": "BRT Transjakarta", "nama_stasi": "Kebayoran", "latitude": -6.23723, "longitude": 106.7825345 }, "geometry": { "type": "Point", "coordinates": [ 106.7825345, -6.23723 ] } },
{ "type": "Feature", "properties": { "moda": "BRT Transjakarta", "nama_stasi": "Seskoal", "latitude": -6.2380278, "longitude": 106.7711815 }, "geometry": { "type": "Point", "coordinates": [ 106.7711815, -6.2380278 ] } },
{ "type": "Feature", "properties": { "moda": "BRT Transjakarta", "nama_stasi": "Setiabudi", "latitude": -6.2073266, "longitude": 106.8256107 }, "geometry": { "type": "Point", "coordinates": [ 106.8256107, -6.2073266 ] } },
{ "type": "Feature", "properties": { "moda": "BRT Transjakarta", "nama_stasi": "Simprug", "latitude": -6.2339046, "longitude": 106.7865331 }, "geometry": { "type": "Point", "coordinates": [ 106.7865331, -6.2339046 ] } },
{ "type": "Feature", "properties": { "moda": "BRT Transjakarta", "nama_stasi": "Tanah Kusir", "latitude": -6.2569704, "longitude": 106.7816931 }, "geometry": { "type": "Point", "coordinates": [ 106.7816931, -6.2569704 ] } },
{ "type": "Feature", "properties": { "moda": "BRT Transjakarta", "nama_stasi": "Cipulir", "latitude": -6.2378032, "longitude": 106.7653382 }, "geometry": { "type": "Point", "coordinates": [ 106.7653382, -6.2378032 ] } },
{ "type": "Feature", "properties": { "moda": "BRT Transjakarta", "nama_stasi": "Permata Hijau", "latitude": -6.2214026, "longitude": 106.7832002 }, "geometry": { "type": "Point", "coordinates": [ 106.7832002, -6.2214026 ] } },
{ "type": "Feature", "properties": { "moda": "BRT Transjakarta", "nama_stasi": "Underpass Lebak Bulus", "latitude": -6.28674, "longitude": 106.7800013 }, "geometry": { "type": "Point", "coordinates": [ 106.7800013, -6.28674 ] } },
{ "type": "Feature", "properties": { "moda": "BRT Transjakarta", "nama_stasi": "Pondok Indah", "latitude": -6.2756433, "longitude": 106.7828144 }, "geometry": { "type": "Point", "coordinates": [ 106.7828144, -6.2756433 ] } },
{ "type": "Feature", "properties": { "moda": "BRT Transjakarta", "nama_stasi": "Pondok Pinang", "latitude": -6.2736372, "longitude": 106.7789504 }, "geometry": { "type": "Point", "coordinates": [ 106.7789504, -6.2736372 ] } },
{ "type": "Feature", "properties": { "moda": "BRT Transjakarta", "nama_stasi": "Kebayoran Lama", "latitude": -6.2383222, "longitude": 106.777582 }, "geometry": { "type": "Point", "coordinates": [ 106.777582, -6.2383222 ] } },
{ "type": "Feature", "properties": { "moda": "BRT Transjakarta", "nama_stasi": "Bungur", "latitude": -6.2526691, "longitude": 106.7816459 }, "geometry": { "type": "Point", "coordinates": [ 106.7816459, -6.2526691 ] } },
{ "type": "Feature", "properties": { "moda": "BRT Transjakarta", "nama_stasi": "Pos Pengumben", "latitude": -6.2129286, "longitude": 106.7722506 }, "geometry": { "type": "Point", "coordinates": [ 106.7722506, -6.2129286 ] } },
{ "type": "Feature", "properties": { "moda": "BRT Transjakarta", "nama_stasi": "Duri Kepa", "latitude": -6.18527, "longitude": 106.76843 }, "geometry": { "type": "Point", "coordinates": [ 106.76843, -6.18527 ] } },
{ "type": "Feature", "properties": { "moda": "BRT Transjakarta", "nama_stasi": "Arteri", "latitude": -6.2214026, "longitude": 106.7832002 }, "geometry": { "type": "Point", "coordinates": [ 106.7832002, -6.2214026 ] } },
{ "type": "Feature", "properties": { "moda": "BRT Transjakarta", "nama_stasi": "Damai", "latitude": -6.1633408, "longitude": 106.7751187 }, "geometry": { "type": "Point", "coordinates": [ 106.7751187, -6.1633408 ] } },
{ "type": "Feature", "properties": { "moda": "BRT Transjakarta", "nama_stasi": "Kebon Jeruk", "latitude": -6.194299, "longitude": 106.7688843 }, "geometry": { "type": "Point", "coordinates": [ 106.7688843, -6.194299 ] } },
{ "type": "Feature", "properties": { "moda": "BRT Transjakarta", "nama_stasi": "Kedoya Panjang", "latitude": -6.1745047, "longitude": 106.7658827 }, "geometry": { "type": "Point", "coordinates": [ 106.7658827, -6.1745047 ] } },
{ "type": "Feature", "properties": { "moda": "BRT Transjakarta", "nama_stasi": "Kedoya", "latitude": -6.1644509, "longitude": 106.7630398 }, "geometry": { "type": "Point", "coordinates": [ 106.7630398, -6.1644509 ] } },
{ "type": "Feature", "properties": { "moda": "BRT Transjakarta", "nama_stasi": "Kelapa Dua Sasak", "latitude": -6.2055515, "longitude": 106.7695334 }, "geometry": { "type": "Point", "coordinates": [ 106.7695334, -6.2055515 ] } },
{ "type": "Feature", "properties": { "moda": "BRT Transjakarta", "nama_stasi": "Sunter Boulevard Barat", "latitude": -6.1496239, "longitude": 106.8889878 }, "geometry": { "type": "Point", "coordinates": [ 106.8889878, -6.1496239 ] } },
{ "type": "Feature", "properties": { "moda": "BRT Transjakarta", "nama_stasi": "Kodamar", "latitude": -6.1643351, "longitude": 106.8822539 }, "geometry": { "type": "Point", "coordinates": [ 106.8822539, -6.1643351 ] } },
{ "type": "Feature", "properties": { "moda": "BRT Transjakarta", "nama_stasi": "Simpang Cempaka", "latitude": -6.1657558, "longitude": 106.8792834 }, "geometry": { "type": "Point", "coordinates": [ 106.8792834, -6.1657558 ] } },
{ "type": "Feature", "properties": { "moda": "BRT Transjakarta", "nama_stasi": "Pedongkelan", "latitude": -6.1679878, "longitude": 106.8825254 }, "geometry": { "type": "Point", "coordinates": [ 106.8825254, -6.1679878 ] } },
{ "type": "Feature", "properties": { "moda": "BRT Transjakarta", "nama_stasi": "Sumur Batu", "latitude": -6.1686305, "longitude": 106.8703831 }, "geometry": { "type": "Point", "coordinates": [ 106.8703831, -6.1686305 ] } },
{ "type": "Feature", "properties": { "moda": "BRT Transjakarta", "nama_stasi": "Kemayoran", "latitude": -6.1617033, "longitude": 106.8414012 }, "geometry": { "type": "Point", "coordinates": [ 106.8414012, -6.1617033 ] } },
{ "type": "Feature", "properties": { "moda": "BRT Transjakarta", "nama_stasi": "Lapangan Banteng", "latitude": -6.166018, "longitude": 106.8390671 }, "geometry": { "type": "Point", "coordinates": [ 106.8390671, -6.166018 ] } },
{ "type": "Feature", "properties": { "moda": "BRT Transjakarta", "nama_stasi": "Cempaka Baru", "latitude": -6.1703834, "longitude": 106.8666248 }, "geometry": { "type": "Point", "coordinates": [ 106.8666248, -6.1703834 ] } },
{ "type": "Feature", "properties": { "moda": "BRT Transjakarta", "nama_stasi": "Pasar Baru Timur", "latitude": -6.1623288, "longitude": 106.8381416 }, "geometry": { "type": "Point", "coordinates": [ 106.8381416, -6.1623288 ] } },
{ "type": "Feature", "properties": { "moda": "BRT Transjakarta", "nama_stasi": "Landasan Pacu", "latitude": -6.1521691, "longitude": 106.8542492 }, "geometry": { "type": "Point", "coordinates": [ 106.8542492, -6.1521691 ] } },
{ "type": "Feature", "properties": { "moda": "BRT Transjakarta", "nama_stasi": "Pasar Induk", "latitude": -6.2942226, "longitude": 106.8720505 }, "geometry": { "type": "Point", "coordinates": [ 106.8720505, -6.2942226 ] } },
{ "type": "Feature", "properties": { "moda": "BRT Transjakarta", "nama_stasi": "Kramat Jati", "latitude": -6.2688138, "longitude": 106.8666337 }, "geometry": { "type": "Point", "coordinates": [ 106.8666337, -6.2688138 ] } },
{ "type": "Feature", "properties": { "moda": "BRT Transjakarta", "nama_stasi": "Cawang Cililitan", "latitude": -6.257742, "longitude": 106.869998 }, "geometry": { "type": "Point", "coordinates": [ 106.869998, -6.257742 ] } },
{ "type": "Feature", "properties": { "moda": "BRT Transjakarta", "nama_stasi": "Cawang", "latitude": -6.245907, "longitude": 106.8712296 }, "geometry": { "type": "Point", "coordinates": [ 106.8712296, -6.245907 ] } },
{ "type": "Feature", "properties": { "moda": "BRT Transjakarta", "nama_stasi": "Cawang Sentral", "latitude": -6.2496657, "longitude": 106.8736251 }, "geometry": { "type": "Point", "coordinates": [ 106.8736251, -6.2496657 ] } },
{ "type": "Feature", "properties": { "moda": "BRT Transjakarta", "nama_stasi": "Cililitan", "latitude": -6.2624687, "longitude": 106.86381 }, "geometry": { "type": "Point", "coordinates": [ 106.86381, -6.2624687 ] } },
{ "type": "Feature", "properties": { "moda": "BRT Transjakarta", "nama_stasi": "PGC", "latitude": -6.2624252, "longitude": 106.8664105 }, "geometry": { "type": "Point", "coordinates": [ 106.8664105, -6.2624252 ] } },
{ "type": "Feature", "properties": { "moda": "BRT Transjakarta", "nama_stasi": "Makasar", "latitude": -6.275002, "longitude": 106.8774146 }, "geometry": { "type": "Point", "coordinates": [ 106.8774146, -6.275002 ] } },
{ "type": "Feature", "properties": { "moda": "BRT Transjakarta", "nama_stasi": "Pinang Ranti", "latitude": -6.2884275, "longitude": 106.8833312 }, "geometry": { "type": "Point", "coordinates": [ 106.8833312, -6.2884275 ] } },
{ "type": "Feature", "properties": { "moda": "BRT Transjakarta", "nama_stasi": "Tegal Mampang (Tendean)", "latitude": -6.2401791, "longitude": 106.8309123 }, "geometry": { "type": "Point", "coordinates": [ 106.8309123, -6.2401791 ] } },
{ "type": "Feature", "properties": { "moda": "BRT Transjakarta", "nama_stasi": "Mampang Prapatan", "latitude": -6.2426316, "longitude": 106.8257257 }, "geometry": { "type": "Point", "coordinates": [ 106.8257257, -6.2426316 ] } },
{ "type": "Feature", "properties": { "moda": "BRT Transjakarta", "nama_stasi": "Pramuka Sari", "latitude": -6.1922273, "longitude": 106.8685697 }, "geometry": { "type": "Point", "coordinates": [ 106.8685697, -6.1922273 ] } },
{ "type": "Feature", "properties": { "moda": "BRT Transjakarta", "nama_stasi": "Kesatrian", "latitude": -6.208554, "longitude": 106.8593038 }, "geometry": { "type": "Point", "coordinates": [ 106.8593038, -6.208554 ] } },
{ "type": "Feature", "properties": { "moda": "BRT Transjakarta", "nama_stasi": "Tegalan", "latitude": -6.203086, "longitude": 106.8571609 }, "geometry": { "type": "Point", "coordinates": [ 106.8571609, -6.203086 ] } },
{ "type": "Feature", "properties": { "moda": "BRT Transjakarta", "nama_stasi": "Matraman", "latitude": -6.2155557, "longitude": 106.8740908 }, "geometry": { "type": "Point", "coordinates": [ 106.8740908, -6.2155557 ] } },
{ "type": "Feature", "properties": { "moda": "BRT Transjakarta", "nama_stasi": "Pasar Genjing", "latitude": -6.1944442, "longitude": 106.8609221 }, "geometry": { "type": "Point", "coordinates": [ 106.8609221, -6.1944442 ] } },
{ "type": "Feature", "properties": { "moda": "BRT Transjakarta", "nama_stasi": "Tosari", "latitude": -6.1965226, "longitude": 106.8231026 }, "geometry": { "type": "Point", "coordinates": [ 106.8231026, -6.1965226 ] } },
{ "type": "Feature", "properties": { "moda": "BRT Transjakarta", "nama_stasi": "Bundaran HI ASTRA", "latitude": -6.1934397, "longitude": 106.823026 }, "geometry": { "type": "Point", "coordinates": [ 106.823026, -6.1934397 ] } },
{ "type": "Feature", "properties": { "moda": "BRT Transjakarta", "nama_stasi": "Flyover Kuningan", "latitude": -6.202838, "longitude": 106.8276831 }, "geometry": { "type": "Point", "coordinates": [ 106.8276831, -6.202838 ] } },
{ "type": "Feature", "properties": { "moda": "BRT Transjakarta", "nama_stasi": "MH Thamrin", "latitude": -6.1840909, "longitude": 106.8226902 }, "geometry": { "type": "Point", "coordinates": [ 106.8226902, -6.1840909 ] } },
{ "type": "Feature", "properties": { "moda": "BRT Transjakarta", "nama_stasi": "Ancol", "latitude": -6.128115, "longitude": 106.8451374 }, "geometry": { "type": "Point", "coordinates": [ 106.8451374, -6.128115 ] } },
{ "type": "Feature", "properties": { "moda": "BRT Transjakarta", "nama_stasi": "Pademangan", "latitude": -6.1337269, "longitude": 106.8316573 }, "geometry": { "type": "Point", "coordinates": [ 106.8316573, -6.1337269 ] } },
{ "type": "Feature", "properties": { "moda": "BRT Transjakarta", "nama_stasi": "Gunung Sahari", "latitude": -6.1367857, "longitude": 106.8323729 }, "geometry": { "type": "Point", "coordinates": [ 106.8323729, -6.1367857 ] } },
{ "type": "Feature", "properties": { "moda": "BRT Transjakarta", "nama_stasi": "Mangga Dua", "latitude": -6.1361354, "longitude": 106.8261314 }, "geometry": { "type": "Point", "coordinates": [ 106.8261314, -6.1361354 ] } },
{ "type": "Feature", "properties": { "moda": "BRT Transjakarta", "nama_stasi": "Kota Bambu", "latitude": -6.1844436, "longitude": 106.7969941 }, "geometry": { "type": "Point", "coordinates": [ 106.7969941, -6.1844436 ] } },
{ "type": "Feature", "properties": { "moda": "BRT Transjakarta", "nama_stasi": "Kemanggisan", "latitude": -6.1896703, "longitude": 106.7908831 }, "geometry": { "type": "Point", "coordinates": [ 106.7908831, -6.1896703 ] } },
{ "type": "Feature", "properties": { "moda": "BRT Transjakarta", "nama_stasi": "Warung Jati", "latitude": -6.262337, "longitude": 106.8297841 }, "geometry": { "type": "Point", "coordinates": [ 106.8297841, -6.262337 ] } },
{ "type": "Feature", "properties": { "moda": "BRT Transjakarta", "nama_stasi": "Buncit Indah", "latitude": -6.2743241, "longitude": 106.8303138 }, "geometry": { "type": "Point", "coordinates": [ 106.8303138, -6.2743241 ] } },
{ "type": "Feature", "properties": { "moda": "BRT Transjakarta", "nama_stasi": "Duren Tiga", "latitude": -6.252375, "longitude": 106.8270029 }, "geometry": { "type": "Point", "coordinates": [ 106.8270029, -6.252375 ] } },
{ "type": "Feature", "properties": { "moda": "BRT Transjakarta", "nama_stasi": "Warung Buncit", "latitude": -6.2569778, "longitude": 106.8281107 }, "geometry": { "type": "Point", "coordinates": [ 106.8281107, -6.2569778 ] } },
{ "type": "Feature", "properties": { "moda": "BRT Transjakarta", "nama_stasi": "Ragunan", "latitude": -6.2968821, "longitude": 106.8210113 }, "geometry": { "type": "Point", "coordinates": [ 106.8210113, -6.2968821 ] } },
{ "type": "Feature", "properties": { "moda": "BRT Transjakarta", "nama_stasi": "Jati Barat", "latitude": -6.2854542, "longitude": 106.826248 }, "geometry": { "type": "Point", "coordinates": [ 106.826248, -6.2854542 ] } },
{ "type": "Feature", "properties": { "moda": "BRT Transjakarta", "nama_stasi": "Simpang Ragunan", "latitude": -6.2946199, "longitude": 106.8221238 }, "geometry": { "type": "Point", "coordinates": [ 106.8221238, -6.2946199 ] } },
{ "type": "Feature", "properties": { "moda": "BRT Transjakarta", "nama_stasi": "Pejaten", "latitude": -6.2784107, "longitude": 106.8297531 }, "geometry": { "type": "Point", "coordinates": [ 106.8297531, -6.2784107 ] } },
{ "type": "Feature", "properties": { "moda": "BRT Transjakarta", "nama_stasi": "Jati Padang", "latitude": -6.2854542, "longitude": 106.826248 }, "geometry": { "type": "Point", "coordinates": [ 106.826248, -6.2854542 ] } },
{ "type": "Feature", "properties": { "moda": "BRT Transjakarta", "nama_stasi": "Pluit Selatan", "latitude": -6.1252848, "longitude": 106.7997085 }, "geometry": { "type": "Point", "coordinates": [ 106.7997085, -6.1252848 ] } },
{ "type": "Feature", "properties": { "moda": "BRT Transjakarta", "nama_stasi": "Pakin", "latitude": -6.1274536, "longitude": 106.8046181 }, "geometry": { "type": "Point", "coordinates": [ 106.8046181, -6.1274536 ] } },
{ "type": "Feature", "properties": { "moda": "BRT Transjakarta", "nama_stasi": "Penjaringan", "latitude": -6.1333558, "longitude": 106.7926786 }, "geometry": { "type": "Point", "coordinates": [ 106.7926786, -6.1333558 ] } },
{ "type": "Feature", "properties": { "moda": "BRT Transjakarta", "nama_stasi": "Pluit", "latitude": -6.1252848, "longitude": 106.7997085 }, "geometry": { "type": "Point", "coordinates": [ 106.7997085, -6.1252848 ] } },
{ "type": "Feature", "properties": { "moda": "BRT Transjakarta", "nama_stasi": "Jembatan Tiga", "latitude": -6.1333558, "longitude": 106.7926786 }, "geometry": { "type": "Point", "coordinates": [ 106.7926786, -6.1333558 ] } },
{ "type": "Feature", "properties": { "moda": "BRT Transjakarta", "nama_stasi": "Swadarma", "latitude": -6.2362799, "longitude": 106.7599267 }, "geometry": { "type": "Point", "coordinates": [ 106.7599267, -6.2362799 ] } },
{ "type": "Feature", "properties": { "moda": "BRT Transjakarta", "nama_stasi": "Petukangan Utara", "latitude": -6.2362034, "longitude": 106.7548043 }, "geometry": { "type": "Point", "coordinates": [ 106.7548043, -6.2362034 ] } },
{ "type": "Feature", "properties": { "moda": "BRT Transjakarta", "nama_stasi": "JORR", "latitude": -6.2362033, "longitude": 106.7548043 }, "geometry": { "type": "Point", "coordinates": [ 106.7548043, -6.2362033 ] } },
{ "type": "Feature", "properties": { "moda": "BRT Transjakarta", "nama_stasi": "Pulo Mas", "latitude": -6.1746049, "longitude": 106.8926092 }, "geometry": { "type": "Point", "coordinates": [ 106.8926092, -6.1746049 ] } },
{ "type": "Feature", "properties": { "moda": "BRT Transjakarta", "nama_stasi": "Pulo Gadung", "latitude": -6.1911085, "longitude": 106.8906053 }, "geometry": { "type": "Point", "coordinates": [ 106.8906053, -6.1911085 ] } },
{ "type": "Feature", "properties": { "moda": "BRT Transjakarta", "nama_stasi": "Pulomas Bypass", "latitude": -6.1769076, "longitude": 106.8760214 }, "geometry": { "type": "Point", "coordinates": [ 106.8760214, -6.1769076 ] } },
{ "type": "Feature", "properties": { "moda": "BRT Transjakarta", "nama_stasi": "Kayu Jati", "latitude": -6.1932535, "longitude": 106.8836909 }, "geometry": { "type": "Point", "coordinates": [ 106.8836909, -6.1932535 ] } },
{ "type": "Feature", "properties": { "moda": "BRT Transjakarta", "nama_stasi": "Pemuda Merdeka", "latitude": -6.1924141, "longitude": 106.9048502 }, "geometry": { "type": "Point", "coordinates": [ 106.9048502, -6.1924141 ] } },
{ "type": "Feature", "properties": { "moda": "BRT Transjakarta", "nama_stasi": "Rawamangun", "latitude": -6.192915, "longitude": 106.8803212 }, "geometry": { "type": "Point", "coordinates": [ 106.8803212, -6.192915 ] } },
{ "type": "Feature", "properties": { "moda": "BRT Transjakarta", "nama_stasi": "Utan Kayu Rawamangun", "latitude": -6.1975227, "longitude": 106.8740602 }, "geometry": { "type": "Point", "coordinates": [ 106.8740602, -6.1975227 ] } },
{ "type": "Feature", "properties": { "moda": "BRT Transjakarta", "nama_stasi": "Velodrome", "latitude": -6.1934481, "longitude": 106.8882686 }, "geometry": { "type": "Point", "coordinates": [ 106.8882686, -6.1934481 ] } },
{ "type": "Feature", "properties": { "moda": "BRT Transjakarta", "nama_stasi": "Pisangan", "latitude": -6.2054846, "longitude": 106.873776 }, "geometry": { "type": "Point", "coordinates": [ 106.873776, -6.2054846 ] } },
{ "type": "Feature", "properties": { "moda": "BRT Transjakarta", "nama_stasi": "Perintis Kemerdekaan", "latitude": -6.1717015, "longitude": 106.8886304 }, "geometry": { "type": "Point", "coordinates": [ 106.8886304, -6.1717015 ] } },
{ "type": "Feature", "properties": { "moda": "BRT Transjakarta", "nama_stasi": "Bermis", "latitude": -6.178191, "longitude": 106.8985521 }, "geometry": { "type": "Point", "coordinates": [ 106.8985521, -6.178191 ] } },
{ "type": "Feature", "properties": { "moda": "BRT Transjakarta", "nama_stasi": "Cipinang", "latitude": -6.2137654, "longitude": 106.8895099 }, "geometry": { "type": "Point", "coordinates": [ 106.8895099, -6.2137654 ] } },
{ "type": "Feature", "properties": { "moda": "BRT Transjakarta", "nama_stasi": "Layur", "latitude": -6.1935317, "longitude": 106.8990974 }, "geometry": { "type": "Point", "coordinates": [ 106.8990974, -6.1935317 ] } },
{ "type": "Feature", "properties": { "moda": "BRT Transjakarta", "nama_stasi": "Pemuda Pramuka", "latitude": -6.1930162, "longitude": 106.8749252 }, "geometry": { "type": "Point", "coordinates": [ 106.8749252, -6.1930162 ] } },
{ "type": "Feature", "properties": { "moda": "BRT Transjakarta", "nama_stasi": "Pemuda Rawamangun", "latitude": -6.192915, "longitude": 106.8803212 }, "geometry": { "type": "Point", "coordinates": [ 106.8803212, -6.192915 ] } },
{ "type": "Feature", "properties": { "moda": "BRT Transjakarta", "nama_stasi": "Flyover Cipinang", "latitude": -6.2146154, "longitude": 106.8823609 }, "geometry": { "type": "Point", "coordinates": [ 106.8823609, -6.2146154 ] } },
{ "type": "Feature", "properties": { "moda": "BRT Transjakarta", "nama_stasi": "Kayu Putih Rawasari", "latitude": -6.1874784, "longitude": 106.8754231 }, "geometry": { "type": "Point", "coordinates": [ 106.8754231, -6.1874784 ] } },
{ "type": "Feature", "properties": { "moda": "BRT Transjakarta", "nama_stasi": "RSPAD", "latitude": -6.1754867, "longitude": 106.836786 }, "geometry": { "type": "Point", "coordinates": [ 106.836786, -6.1754867 ] } },
{ "type": "Feature", "properties": { "moda": "BRT Transjakarta", "nama_stasi": "Pejambon", "latitude": -6.1735286, "longitude": 106.8347407 }, "geometry": { "type": "Point", "coordinates": [ 106.8347407, -6.1735286 ] } },
{ "type": "Feature", "properties": { "moda": "BRT Transjakarta", "nama_stasi": "Pasar Baru", "latitude": -6.165709, "longitude": 106.8346417 }, "geometry": { "type": "Point", "coordinates": [ 106.8346417, -6.165709 ] } },
{ "type": "Feature", "properties": { "moda": "BRT Transjakarta", "nama_stasi": "Jembatan Merah", "latitude": -6.1467403, "longitude": 106.8342812 }, "geometry": { "type": "Point", "coordinates": [ 106.8342812, -6.1467403 ] } },
{ "type": "Feature", "properties": { "moda": "BRT Transjakarta", "nama_stasi": "Juanda", "latitude": -6.1681982, "longitude": 106.8309214 }, "geometry": { "type": "Point", "coordinates": [ 106.8309214, -6.1681982 ] } },
{ "type": "Feature", "properties": { "moda": "BRT Transjakarta", "nama_stasi": "Paseban", "latitude": -6.1967667, "longitude": 106.8510433 }, "geometry": { "type": "Point", "coordinates": [ 106.8510433, -6.1967667 ] } },
{ "type": "Feature", "properties": { "moda": "BRT Transjakarta", "nama_stasi": "Salemba", "latitude": -6.1933715, "longitude": 106.8489304 }, "geometry": { "type": "Point", "coordinates": [ 106.8489304, -6.1933715 ] } },
{ "type": "Feature", "properties": { "moda": "BRT Transjakarta", "nama_stasi": "Pasar Senen", "latitude": -6.1744233, "longitude": 106.8445744 }, "geometry": { "type": "Point", "coordinates": [ 106.8445744, -6.1744233 ] } },
{ "type": "Feature", "properties": { "moda": "BRT Transjakarta", "nama_stasi": "Senen Sentral", "latitude": -6.1781673, "longitude": 106.8420387 }, "geometry": { "type": "Point", "coordinates": [ 106.8420387, -6.1781673 ] } },
{ "type": "Feature", "properties": { "moda": "BRT Transjakarta", "nama_stasi": "Tanah Tinggi", "latitude": -6.1712184, "longitude": 106.8522123 }, "geometry": { "type": "Point", "coordinates": [ 106.8522123, -6.1712184 ] } },
{ "type": "Feature", "properties": { "moda": "BRT Transjakarta", "nama_stasi": "Senen Raya", "latitude": -6.1762277, "longitude": 106.8402206 }, "geometry": { "type": "Point", "coordinates": [ 106.8402206, -6.1762277 ] } },
{ "type": "Feature", "properties": { "moda": "BRT Transjakarta", "nama_stasi": "Kwitang", "latitude": -6.1812218, "longitude": 106.8384103 }, "geometry": { "type": "Point", "coordinates": [ 106.8384103, -6.1812218 ] } },
{ "type": "Feature", "properties": { "moda": "BRT Transjakarta", "nama_stasi": "Flyover Pramuka", "latitude": -6.1989121, "longitude": 106.8544815 }, "geometry": { "type": "Point", "coordinates": [ 106.8544815, -6.1989121 ] } },
{ "type": "Feature", "properties": { "moda": "BRT Transjakarta", "nama_stasi": "Pal Putih", "latitude": -6.1816483, "longitude": 106.8428742 }, "geometry": { "type": "Point", "coordinates": [ 106.8428742, -6.1816483 ] } },
{ "type": "Feature", "properties": { "moda": "BRT Transjakarta", "nama_stasi": "Kramat Sentiong", "latitude": -6.1879586, "longitude": 106.8459591 }, "geometry": { "type": "Point", "coordinates": [ 106.8459591, -6.1879586 ] } },
{ "type": "Feature", "properties": { "moda": "BRT Transjakarta", "nama_stasi": "Tegal Parang", "latitude": -6.2388255, "longitude": 106.8301976 }, "geometry": { "type": "Point", "coordinates": [ 106.8301976, -6.2388255 ] } },
{ "type": "Feature", "properties": { "moda": "BRT Transjakarta", "nama_stasi": "Kuningan", "latitude": -6.2287727, "longitude": 106.8332031 }, "geometry": { "type": "Point", "coordinates": [ 106.8332031, -6.2287727 ] } },
{ "type": "Feature", "properties": { "moda": "BRT Transjakarta", "nama_stasi": "Dukuh Atas", "latitude": -6.204828, "longitude": 106.8255301 }, "geometry": { "type": "Point", "coordinates": [ 106.8255301, -6.204828 ] } },
{ "type": "Feature", "properties": { "moda": "BRT Transjakarta", "nama_stasi": "Galunggung", "latitude": -6.2043967, "longitude": 106.8234017 }, "geometry": { "type": "Point", "coordinates": [ 106.8234017, -6.2043967 ] } },
{ "type": "Feature", "properties": { "moda": "BRT Transjakarta", "nama_stasi": "Denpasar", "latitude": -6.2327132, "longitude": 106.8217333 }, "geometry": { "type": "Point", "coordinates": [ 106.8217333, -6.2327132 ] } },
{ "type": "Feature", "properties": { "moda": "BRT Transjakarta", "nama_stasi": "Widya Chandra", "latitude": -6.2266759, "longitude": 106.8175202 }, "geometry": { "type": "Point", "coordinates": [ 106.8175202, -6.2266759 ] } },
{ "type": "Feature", "properties": { "moda": "BRT Transjakarta", "nama_stasi": "Manggarai", "latitude": -6.2088818, "longitude": 106.8473951 }, "geometry": { "type": "Point", "coordinates": [ 106.8473951, -6.2088818 ] } },
{ "type": "Feature", "properties": { "moda": "BRT Transjakarta", "nama_stasi": "Pasar Rumput", "latitude": -6.2071167, "longitude": 106.8411223 }, "geometry": { "type": "Point", "coordinates": [ 106.8411223, -6.2071167 ] } },
{ "type": "Feature", "properties": { "moda": "BRT Transjakarta", "nama_stasi": "Patra Kuningan", "latitude": -6.2327037, "longitude": 106.8320428 }, "geometry": { "type": "Point", "coordinates": [ 106.8320428, -6.2327037 ] } },
{ "type": "Feature", "properties": { "moda": "BRT Transjakarta", "nama_stasi": "Rasuna Said", "latitude": -6.2216089, "longitude": 106.8322373 }, "geometry": { "type": "Point", "coordinates": [ 106.8322373, -6.2216089 ] } },
{ "type": "Feature", "properties": { "moda": "BRT Transjakarta", "nama_stasi": "Halimun", "latitude": -6.2051184, "longitude": 106.833362 }, "geometry": { "type": "Point", "coordinates": [ 106.833362, -6.2051184 ] } },
{ "type": "Feature", "properties": { "moda": "BRT Transjakarta", "nama_stasi": "Karet Kuningan", "latitude": -6.2209099, "longitude": 106.8287267 }, "geometry": { "type": "Point", "coordinates": [ 106.8287267, -6.2209099 ] } },
{ "type": "Feature", "properties": { "moda": "BRT Transjakarta", "nama_stasi": "Karet", "latitude": -6.213546, "longitude": 106.8270569 }, "geometry": { "type": "Point", "coordinates": [ 106.8270569, -6.213546 ] } },
{ "type": "Feature", "properties": { "moda": "BRT Transjakarta", "nama_stasi": "Simpang Kuningan", "latitude": -6.2372022, "longitude": 106.8281008 }, "geometry": { "type": "Point", "coordinates": [ 106.8281008, -6.2372022 ] } },
{ "type": "Feature", "properties": { "moda": "BRT Transjakarta", "nama_stasi": "Kuningan Madya", "latitude": -6.2131726, "longitude": 106.8304739 }, "geometry": { "type": "Point", "coordinates": [ 106.8304739, -6.2131726 ] } },
{ "type": "Feature", "properties": { "moda": "BRT Transjakarta", "nama_stasi": "Underpass Kuningan", "latitude": -6.2349258, "longitude": 106.8287948 }, "geometry": { "type": "Point", "coordinates": [ 106.8287948, -6.2349258 ] } },
{ "type": "Feature", "properties": { "moda": "BRT Transjakarta", "nama_stasi": "Mangga Besar", "latitude": -6.1498037, "longitude": 106.8269826 }, "geometry": { "type": "Point", "coordinates": [ 106.8269826, -6.1498037 ] } },
{ "type": "Feature", "properties": { "moda": "BRT Transjakarta", "nama_stasi": "Museum Sejarah Jakarta", "latitude": -6.1339155, "longitude": 106.812137 }, "geometry": { "type": "Point", "coordinates": [ 106.812137, -6.1339155 ] } },
{ "type": "Feature", "properties": { "moda": "BRT Transjakarta", "nama_stasi": "Taman Sari", "latitude": -6.1558531, "longitude": 106.8244003 }, "geometry": { "type": "Point", "coordinates": [ 106.8244003, -6.1558531 ] } },
{ "type": "Feature", "properties": { "moda": "BRT Transjakarta", "nama_stasi": "Mangga Dua Raya", "latitude": -6.1376209, "longitude": 106.8177691 }, "geometry": { "type": "Point", "coordinates": [ 106.8177691, -6.1376209 ] } },
{ "type": "Feature", "properties": { "moda": "BRT Transjakarta", "nama_stasi": "Glodok", "latitude": -6.1448405, "longitude": 106.8131866 }, "geometry": { "type": "Point", "coordinates": [ 106.8131866, -6.1448405 ] } },
{ "type": "Feature", "properties": { "moda": "BRT Transjakarta", "nama_stasi": "Kota", "latitude": -6.1368624, "longitude": 106.8150708 }, "geometry": { "type": "Point", "coordinates": [ 106.8150708, -6.1368624 ] } },
{ "type": "Feature", "properties": { "moda": "BRT Transjakarta", "nama_stasi": "Bandengan", "latitude": -6.1362966, "longitude": 106.8035213 }, "geometry": { "type": "Point", "coordinates": [ 106.8035213, -6.1362966 ] } },
{ "type": "Feature", "properties": { "moda": "BRT Transjakarta", "nama_stasi": "Gedong Panjang", "latitude": -6.1326095, "longitude": 106.8059749 }, "geometry": { "type": "Point", "coordinates": [ 106.8059749, -6.1326095 ] } },
{ "type": "Feature", "properties": { "moda": "BRT Transjakarta", "nama_stasi": "Jembatan Besi", "latitude": -6.1516382, "longitude": 106.7975286 }, "geometry": { "type": "Point", "coordinates": [ 106.7975286, -6.1516382 ] } },
{ "type": "Feature", "properties": { "moda": "BRT Transjakarta", "nama_stasi": "Jembatan Dua", "latitude": -6.14327, "longitude": 106.7935204 }, "geometry": { "type": "Point", "coordinates": [ 106.7935204, -6.14327 ] } },
{ "type": "Feature", "properties": { "moda": "BRT Transjakarta", "nama_stasi": "Kali Besar", "latitude": -6.1353362, "longitude": 106.811452 }, "geometry": { "type": "Point", "coordinates": [ 106.811452, -6.1353362 ] } },
{ "type": "Feature", "properties": { "moda": "BRT Transjakarta", "nama_stasi": "Semanggi", "latitude": -6.2205538, "longitude": 106.8130017 }, "geometry": { "type": "Point", "coordinates": [ 106.8130017, -6.2205538 ] } },
{ "type": "Feature", "properties": { "moda": "BRT Transjakarta", "nama_stasi": "Petamburan", "latitude": -6.1953983, "longitude": 106.8068864 }, "geometry": { "type": "Point", "coordinates": [ 106.8068864, -6.1953983 ] } },
{ "type": "Feature", "properties": { "moda": "BRT Transjakarta", "nama_stasi": "Bendungan Hilir", "latitude": -6.2087254, "longitude": 106.8086398 }, "geometry": { "type": "Point", "coordinates": [ 106.8086398, -6.2087254 ] } },
{ "type": "Feature", "properties": { "moda": "BRT Transjakarta", "nama_stasi": "Gelora Bung Karno", "latitude": -6.2242253, "longitude": 106.8032171 }, "geometry": { "type": "Point", "coordinates": [ 106.8032171, -6.2242253 ] } },
{ "type": "Feature", "properties": { "moda": "BRT Transjakarta", "nama_stasi": "Senayan", "latitude": -6.213842, "longitude": 106.8083747 }, "geometry": { "type": "Point", "coordinates": [ 106.8083747, -6.213842 ] } },
{ "type": "Feature", "properties": { "moda": "BRT Transjakarta", "nama_stasi": "Sunter Utara", "latitude": -6.1397505, "longitude": 106.859142 }, "geometry": { "type": "Point", "coordinates": [ 106.859142, -6.1397505 ] } },
{ "type": "Feature", "properties": { "moda": "BRT Transjakarta", "nama_stasi": "Sunter Karya", "latitude": -6.1376063, "longitude": 106.8708489 }, "geometry": { "type": "Point", "coordinates": [ 106.8708489, -6.1376063 ] } },
{ "type": "Feature", "properties": { "moda": "BRT Transjakarta", "nama_stasi": "Sunter Kelapa Gading", "latitude": -6.1495523, "longitude": 106.8895179 }, "geometry": { "type": "Point", "coordinates": [ 106.8895179, -6.1495523 ] } },
{ "type": "Feature", "properties": { "moda": "BRT Transjakarta", "nama_stasi": "Jakarta International Stadium", "latitude": -6.1267682, "longitude": 106.8555536 }, "geometry": { "type": "Point", "coordinates": [ 106.8555536, -6.1267682 ] } },
{ "type": "Feature", "properties": { "moda": "BRT Transjakarta", "nama_stasi": "Tanjung Priok", "latitude": -6.1443986, "longitude": 106.8904332 }, "geometry": { "type": "Point", "coordinates": [ 106.8904332, -6.1443986 ] } },
{ "type": "Feature", "properties": { "moda": "BRT Transjakarta", "nama_stasi": "Walikota Jakarta Utara", "latitude": -6.1201816, "longitude": 106.8918439 }, "geometry": { "type": "Point", "coordinates": [ 106.8918439, -6.1201816 ] } },
{ "type": "Feature", "properties": { "moda": "BRT Transjakarta", "nama_stasi": "Danau Agung", "latitude": -6.1467553, "longitude": 106.8580473 }, "geometry": { "type": "Point", "coordinates": [ 106.8580473, -6.1467553 ] } },
{ "type": "Feature", "properties": { "moda": "BRT Transjakarta", "nama_stasi": "Danau Sunter", "latitude": -6.1409759, "longitude": 106.8569971 }, "geometry": { "type": "Point", "coordinates": [ 106.8569971, -6.1409759 ] } },
{ "type": "Feature", "properties": { "moda": "BRT Transjakarta", "nama_stasi": "Jembatan Item", "latitude": -6.1309282, "longitude": 106.8551857 }, "geometry": { "type": "Point", "coordinates": [ 106.8551857, -6.1309282 ] } },
{ "type": "Feature", "properties": { "moda": "BRT Transjakarta", "nama_stasi": "Mambo", "latitude": -6.1101641, "longitude": 106.8917689 }, "geometry": { "type": "Point", "coordinates": [ 106.8917689, -6.1101641 ] } },
{ "type": "Feature", "properties": { "moda": "BRT Transjakarta", "nama_stasi": "Koja", "latitude": -6.12075, "longitude": 106.9073669 }, "geometry": { "type": "Point", "coordinates": [ 106.9073669, -6.12075 ] } },
{ "type": "Feature", "properties": { "moda": "BRT Transjakarta", "nama_stasi": "Plumpang", "latitude": -6.128381, "longitude": 106.8936822 }, "geometry": { "type": "Point", "coordinates": [ 106.8936822, -6.128381 ] } },
{ "type": "Feature", "properties": { "moda": "BRT Transjakarta", "nama_stasi": "Tebet Eco Park", "latitude": -6.2403737, "longitude": 106.8524328 }, "geometry": { "type": "Point", "coordinates": [ 106.8524328, -6.2403737 ] } },
{ "type": "Feature", "properties": { "moda": "BRT Transjakarta", "nama_stasi": "Cikoko", "latitude": -6.2434846, "longitude": 106.8570718 }, "geometry": { "type": "Point", "coordinates": [ 106.8570718, -6.2434846 ] } },
{ "type": "Feature", "properties": { "moda": "BRT Transjakarta", "nama_stasi": "Pancoran", "latitude": -6.2416652, "longitude": 106.8372746 }, "geometry": { "type": "Point", "coordinates": [ 106.8372746, -6.2416652 ] } },
{ "type": "Feature", "properties": { "moda": "BRT Transjakarta", "nama_stasi": "Pancoran Tugu", "latitude": -6.2431035, "longitude": 106.8439732 }, "geometry": { "type": "Point", "coordinates": [ 106.8439732, -6.2431035 ] } }
]
}
