{
"type": "FeatureCollection",
"name": "Hunian vertikal 2024",
"crs": { "type": "name", "properties": { "name": "urn:ogc:def:crs:OGC:1.3:CRS84" } },
"features": [
{ "type": "Feature", "properties": { "Nama Apartemen": "Rumah Susun Penjaringan", "Latitude": -6.1306186, "Longitude": 106.7949213, "Kelurahan": "Penjaringan", "Kecamatan": "Penjaringan", "Kota Administrasi": "Jakarta Utara", "Tahun Berdiri": 1970, "Jenis Apartemen/Rusun": "Rusunawa" }, "geometry": { "type": "Point", "coordinates": [ 106.7949213, -6.1306186 ] } },
{ "type": "Feature", "properties": { "Nama Apartemen": "Pangeran Jayakarta Apartment (Apartemen Ibis Mangga Dua)", "Latitude": -6.138528, "Longitude": 106.8180411, "Kelurahan": "Mangga Dua Selatan", "Kecamatan": "Sawah Besar", "Kota Administrasi": "Jakarta Pusat", "Tahun Berdiri": 1978, "Jenis Apartemen/Rusun": "Apartemen Kelas Menengah" }, "geometry": { "type": "Point", "coordinates": [ 106.8180411, -6.138528 ] } },
{ "type": "Feature", "properties": { "Nama Apartemen": "Apartemen Ratu Plaza", "Latitude": -6.2267056, "Longitude": 106.7964171, "Kelurahan": "Gelora", "Kecamatan": "Tanah Abang", "Kota Administrasi": "Jakarta Pusat", "Tahun Berdiri": 1980, "Jenis Apartemen/Rusun": "Apartemen Kelas Menengah" }, "geometry": { "type": "Point", "coordinates": [ 106.7964171, -6.2267056 ] } },
{ "type": "Feature", "properties": { "Nama Apartemen": "Rumah Susun Cipinang Besar Selatan", "Latitude": -6.231675, "Longitude": 106.8800876, "Kelurahan": "Cipinang Besar Selatan", "Kecamatan": "Jatinegara", "Kota Administrasi": "Jakarta Timur", "Tahun Berdiri": 1980, "Jenis Apartemen/Rusun": "Rusunawa" }, "geometry": { "type": "Point", "coordinates": [ 106.8800876, -6.231675 ] } },
{ "type": "Feature", "properties": { "Nama Apartemen": "Rumah Susun Kebon Melati Jati Bunder", "Latitude": -6.1907562, "Longitude": 106.8099211, "Kelurahan": "Kebon Kacang", "Kecamatan": "Tanah Abang", "Kota Administrasi": "Jakarta Pusat", "Tahun Berdiri": 1984, "Jenis Apartemen/Rusun": "Rusunami" }, "geometry": { "type": "Point", "coordinates": [ 106.8099211, -6.1907562 ] } },
{ "type": "Feature", "properties": { "Nama Apartemen": "Ascott Sudirman Jakarta", "Latitude": -6.2226071, "Longitude": 106.8198907, "Kelurahan": "Karet Semanggi", "Kecamatan": "Setia Budi", "Kota Administrasi": "Jakarta Selatan", "Tahun Berdiri": 1985, "Jenis Apartemen/Rusun": "Apartemen Mewah" }, "geometry": { "type": "Point", "coordinates": [ 106.8198907, -6.2226071 ] } },
{ "type": "Feature", "properties": { "Nama Apartemen": "Rumah Susun Karang Anyar", "Latitude": -6.1533024, "Longitude": 106.8297546, "Kelurahan": "Karang Anyar", "Kecamatan": "Sawah Besar", "Kota Administrasi": "Jakarta Pusat", "Tahun Berdiri": 1987, "Jenis Apartemen/Rusun": "Rusunawa" }, "geometry": { "type": "Point", "coordinates": [ 106.8297546, -6.1533024 ] } },
{ "type": "Feature", "properties": { "Nama Apartemen": "Rumah Susun Cipinang Besar Utara", "Latitude": -6.2179109, "Longitude": 106.8830299, "Kelurahan": "Cipinang Besar Utara", "Kecamatan": "Jatinegara", "Kota Administrasi": "Jakarta Timur", "Tahun Berdiri": 1987, "Jenis Apartemen/Rusun": "Rusunawa" }, "geometry": { "type": "Point", "coordinates": [ 106.8830299, -6.2179109 ] } },
{ "type": "Feature", "properties": { "Nama Apartemen": "Ambassador Apartment", "Latitude": -6.2233062, "Longitude": 106.8242871, "Kelurahan": "Karet Kuningan", "Kecamatan": "Setia Budi", "Kota Administrasi": "Jakarta Selatan", "Tahun Berdiri": 1990, "Jenis Apartemen/Rusun": "Apartemen Kelas Menengah" }, "geometry": { "type": "Point", "coordinates": [ 106.8242871, -6.2233062 ] } },
{ "type": "Feature", "properties": { "Nama Apartemen": "Apartemen Bukit Golf", "Latitude": -6.2752687, "Longitude": 106.7825093, "Kelurahan": "Pondok Pinang", "Kecamatan": "Kebayoran Lama", "Kota Administrasi": "Jakarta Selatan", "Tahun Berdiri": 1990, "Jenis Apartemen/Rusun": "Apartemen Mewah" }, "geometry": { "type": "Point", "coordinates": [ 106.7825093, -6.2752687 ] } },
{ "type": "Feature", "properties": { "Nama Apartemen": "Pondok Klub Villa Apartment", "Latitude": -6.2944769, "Longitude": 106.7834933, "Kelurahan": "Cilandak Barat", "Kecamatan": "Cilandak", "Kota Administrasi": "Jakarta Selatan", "Tahun Berdiri": 1990, "Jenis Apartemen/Rusun": "Apartemen Kelas Menengah" }, "geometry": { "type": "Point", "coordinates": [ 106.7834933, -6.2944769 ] } },
{ "type": "Feature", "properties": { "Nama Apartemen": "Rumah Susun Pengadegan", "Latitude": -6.250571, "Longitude": 106.8591173, "Kelurahan": "Pengadegan", "Kecamatan": "Pancoran", "Kota Administrasi": "Jakarta Selatan", "Tahun Berdiri": 1990, "Jenis Apartemen/Rusun": "Rusunawa" }, "geometry": { "type": "Point", "coordinates": [ 106.8591173, -6.250571 ] } },
{ "type": "Feature", "properties": { "Nama Apartemen": "Apartemen Slipi", "Latitude": -6.2006159, "Longitude": 106.7979651, "Kelurahan": "Palmerah", "Kecamatan": "Palmerah", "Kota Administrasi": "Jakarta Barat", "Tahun Berdiri": 1991, "Jenis Apartemen/Rusun": "Apartemen Kelas Menengah" }, "geometry": { "type": "Point", "coordinates": [ 106.7979651, -6.2006159 ] } },
{ "type": "Feature", "properties": { "Nama Apartemen": "Apartment Talang Betutu", "Latitude": -6.2016458, "Longitude": 106.8192993, "Kelurahan": "Kebon Melati", "Kecamatan": "Tanah Abang", "Kota Administrasi": "Jakarta Pusat", "Tahun Berdiri": 1992, "Jenis Apartemen/Rusun": "Apartemen Kelas Menengah" }, "geometry": { "type": "Point", "coordinates": [ 106.8192993, -6.2016458 ] } },
{ "type": "Feature", "properties": { "Nama Apartemen": "Prapanca Apartment by Pudjiadi Prestige", "Latitude": -6.263207, "Longitude": 106.8059816, "Kelurahan": "Cipete Selatan", "Kecamatan": "Cilandak", "Kota Administrasi": "Jakarta Selatan", "Tahun Berdiri": 1992, "Jenis Apartemen/Rusun": "Apartemen Mewah" }, "geometry": { "type": "Point", "coordinates": [ 106.8059816, -6.263207 ] } },
{ "type": "Feature", "properties": { "Nama Apartemen": "Harmoni Palace Apartment", "Latitude": -6.1680034, "Longitude": 106.8143862, "Kelurahan": "Petojo Utara", "Kecamatan": "Gambir", "Kota Administrasi": "Jakarta Pusat", "Tahun Berdiri": 1993, "Jenis Apartemen/Rusun": "Apartemen Kelas Menengah" }, "geometry": { "type": "Point", "coordinates": [ 106.8143862, -6.1680034 ] } },
{ "type": "Feature", "properties": { "Nama Apartemen": "Hayam Wuruk Apartment", "Latitude": -6.1516523, "Longitude": 106.8188157, "Kelurahan": "Maphar", "Kecamatan": "Taman Sari", "Kota Administrasi": "Jakarta Barat", "Tahun Berdiri": 1994, "Jenis Apartemen/Rusun": "Apartemen Kelas Menengah" }, "geometry": { "type": "Point", "coordinates": [ 106.8188157, -6.1516523 ] } },
{ "type": "Feature", "properties": { "Nama Apartemen": "Ascott Jakarta", "Latitude": -6.2226071, "Longitude": 106.8198907, "Kelurahan": "Kebon Melati", "Kecamatan": "Tanah Abang", "Kota Administrasi": "Jakarta Pusat", "Tahun Berdiri": 1994, "Jenis Apartemen/Rusun": "Apartemen Kelas Menengah" }, "geometry": { "type": "Point", "coordinates": [ 106.8198907, -6.2226071 ] } },
{ "type": "Feature", "properties": { "Nama Apartemen": "Rumah Susun Benhil 2", "Latitude": -6.2003619, "Longitude": 106.8035184, "Kelurahan": "Bendungan Hilir", "Kecamatan": "Tanah Abang", "Kota Administrasi": "Jakarta Pusat", "Tahun Berdiri": 1994, "Jenis Apartemen/Rusun": "Rusunami" }, "geometry": { "type": "Point", "coordinates": [ 106.8035184, -6.2003619 ] } },
{ "type": "Feature", "properties": { "Nama Apartemen": "Apartemen Kemang Jaya Taman", "Latitude": -6.264857, "Longitude": 106.8106267, "Kelurahan": "Bangka", "Kecamatan": "Mampang Prapatan", "Kota Administrasi": "Jakarta Selatan", "Tahun Berdiri": 1994, "Jenis Apartemen/Rusun": "Apartemen Mewah" }, "geometry": { "type": "Point", "coordinates": [ 106.8106267, -6.264857 ] } },
{ "type": "Feature", "properties": { "Nama Apartemen": "Apartemen Nuansa Hijau", "Latitude": -6.2804991, "Longitude": 106.786269, "Kelurahan": "Pondok Pinang", "Kecamatan": "Kebayoran Lama", "Kota Administrasi": "Jakarta Selatan", "Tahun Berdiri": 1994, "Jenis Apartemen/Rusun": "Apartemen Kelas Menengah" }, "geometry": { "type": "Point", "coordinates": [ 106.786269, -6.2804991 ] } },
{ "type": "Feature", "properties": { "Nama Apartemen": "Apartemen Parama", "Latitude": -6.2915323, "Longitude": 106.7846573, "Kelurahan": "Cilandak Barat", "Kecamatan": "Cilandak", "Kota Administrasi": "Jakarta Selatan", "Tahun Berdiri": 1994, "Jenis Apartemen/Rusun": "Apartemen Kelas Menengah" }, "geometry": { "type": "Point", "coordinates": [ 106.7846573, -6.2915323 ] } },
{ "type": "Feature", "properties": { "Nama Apartemen": "Apartemen ITC Roxy Mas", "Latitude": -6.1664235, "Longitude": 106.7976794, "Kelurahan": "Cideng", "Kecamatan": "Gambir", "Kota Administrasi": "Jakarta Pusat", "Tahun Berdiri": 1995, "Jenis Apartemen/Rusun": "Apartemen Kelas Menengah" }, "geometry": { "type": "Point", "coordinates": [ 106.7976794, -6.1664235 ] } },
{ "type": "Feature", "properties": { "Nama Apartemen": "Kondominium Apartemen Juanda", "Latitude": -6.1655249, "Longitude": 106.8265784, "Kelurahan": "Kebon Kelapa", "Kecamatan": "Gambir", "Kota Administrasi": "Jakarta Pusat", "Tahun Berdiri": 1995, "Jenis Apartemen/Rusun": "Apartemen Kelas Menengah" }, "geometry": { "type": "Point", "coordinates": [ 106.8265784, -6.1655249 ] } },
{ "type": "Feature", "properties": { "Nama Apartemen": "Park Royale Executive Suites", "Latitude": -6.2138149, "Longitude": 106.8065393, "Kelurahan": "Bendungan Hilir", "Kecamatan": "Tanah Abang", "Kota Administrasi": "Jakarta Pusat", "Tahun Berdiri": 1995, "Jenis Apartemen/Rusun": "Apartemen Kelas Menengah" }, "geometry": { "type": "Point", "coordinates": [ 106.8065393, -6.2138149 ] } },
{ "type": "Feature", "properties": { "Nama Apartemen": "Apartemen Bona Vista", "Latitude": -6.2997933, "Longitude": 106.7852507, "Kelurahan": "Lebak Bulus", "Kecamatan": "Cilandak", "Kota Administrasi": "Jakarta Selatan", "Tahun Berdiri": 1995, "Jenis Apartemen/Rusun": "Apartemen Mewah" }, "geometry": { "type": "Point", "coordinates": [ 106.7852507, -6.2997933 ] } },
{ "type": "Feature", "properties": { "Nama Apartemen": "Fountain Park Apartment", "Latitude": -6.2453069, "Longitude": 106.8437754, "Kelurahan": "Pancoran", "Kecamatan": "Pancoran", "Kota Administrasi": "Jakarta Selatan", "Tahun Berdiri": 1995, "Jenis Apartemen/Rusun": "Apartemen Kelas Menengah" }, "geometry": { "type": "Point", "coordinates": [ 106.8437754, -6.2453069 ] } },
{ "type": "Feature", "properties": { "Nama Apartemen": "Somerset Grand Citra Jakarta", "Latitude": -6.2248852, "Longitude": 106.8247329, "Kelurahan": "Karet Kuningan", "Kecamatan": "Setia Budi", "Kota Administrasi": "Jakarta Selatan", "Tahun Berdiri": 1995, "Jenis Apartemen/Rusun": "Apartemen Mewah" }, "geometry": { "type": "Point", "coordinates": [ 106.8247329, -6.2248852 ] } },
{ "type": "Feature", "properties": { "Nama Apartemen": "Rumah Susun Bidara Cina", "Latitude": -6.2412822, "Longitude": 106.8682859, "Kelurahan": "Bidara Cina", "Kecamatan": "Jatinegara", "Kota Administrasi": "Jakarta Timur", "Tahun Berdiri": 1995, "Jenis Apartemen/Rusun": "Rusunami" }, "geometry": { "type": "Point", "coordinates": [ 106.8682859, -6.2412822 ] } },
{ "type": "Feature", "properties": { "Nama Apartemen": "Apartemen Metro Sunter", "Latitude": -6.1342051, "Longitude": 106.8727978, "Kelurahan": "Papanggo", "Kecamatan": "Tanjung Priok", "Kota Administrasi": "Jakarta Utara", "Tahun Berdiri": 1995, "Jenis Apartemen/Rusun": "Apartemen Kelas Menengah" }, "geometry": { "type": "Point", "coordinates": [ 106.8727978, -6.1342051 ] } },
{ "type": "Feature", "properties": { "Nama Apartemen": "Apartemen Kedoya Elok", "Latitude": -6.1883235, "Longitude": 106.7679297, "Kelurahan": "Kedoya Selatan", "Kecamatan": "Kebon Jeruk", "Kota Administrasi": "Jakarta Barat", "Tahun Berdiri": 1996, "Jenis Apartemen/Rusun": "Apartemen Kelas Menengah" }, "geometry": { "type": "Point", "coordinates": [ 106.7679297, -6.1883235 ] } },
{ "type": "Feature", "properties": { "Nama Apartemen": "Rumah Susun Berlian Tebet", "Latitude": -6.2304175, "Longitude": 106.8490747, "Kelurahan": "Tegal Alur", "Kecamatan": "Kali Deres", "Kota Administrasi": "Jakarta Barat", "Tahun Berdiri": 1996, "Jenis Apartemen/Rusun": "Rusunami" }, "geometry": { "type": "Point", "coordinates": [ 106.8490747, -6.2304175 ] } },
{ "type": "Feature", "properties": { "Nama Apartemen": "Rumah Susun Flamboyan", "Latitude": -6.1318002, "Longitude": 106.7242906, "Kelurahan": "Cengkareng Barat", "Kecamatan": "Cengkareng", "Kota Administrasi": "Jakarta Barat", "Tahun Berdiri": 1996, "Jenis Apartemen/Rusun": "Rusunawa" }, "geometry": { "type": "Point", "coordinates": [ 106.7242906, -6.1318002 ] } },
{ "type": "Feature", "properties": { "Nama Apartemen": "Apartment Semanggi", "Latitude": -6.2266116, "Longitude": 106.8192137, "Kelurahan": "Petamburan", "Kecamatan": "Tanah Abang", "Kota Administrasi": "Jakarta Pusat", "Tahun Berdiri": 1996, "Jenis Apartemen/Rusun": "Apartemen Kelas Menengah" }, "geometry": { "type": "Point", "coordinates": [ 106.8192137, -6.2266116 ] } },
{ "type": "Feature", "properties": { "Nama Apartemen": "Pesona Bahari Apartment", "Latitude": -6.1397504, "Longitude": 106.825637, "Kelurahan": "Mangga Dua Selatan", "Kecamatan": "Sawah Besar", "Kota Administrasi": "Jakarta Pusat", "Tahun Berdiri": 1996, "Jenis Apartemen/Rusun": "Apartemen Kelas Menengah" }, "geometry": { "type": "Point", "coordinates": [ 106.825637, -6.1397504 ] } },
{ "type": "Feature", "properties": { "Nama Apartemen": "Rumah Susun Karet Tengsin 1", "Latitude": -6.2013561, "Longitude": 106.8080091, "Kelurahan": "Karet Tengsin", "Kecamatan": "Tanah Abang", "Kota Administrasi": "Jakarta Pusat", "Tahun Berdiri": 1996, "Jenis Apartemen/Rusun": "Rusunami" }, "geometry": { "type": "Point", "coordinates": [ 106.8080091, -6.2013561 ] } },
{ "type": "Feature", "properties": { "Nama Apartemen": "Rumah Susun Karet Tengsin 2", "Latitude": -6.2052313, "Longitude": 106.809882, "Kelurahan": "Karet Tengsin", "Kecamatan": "Tanah Abang", "Kota Administrasi": "Jakarta Pusat", "Tahun Berdiri": 1996, "Jenis Apartemen/Rusun": "Rusunami" }, "geometry": { "type": "Point", "coordinates": [ 106.809882, -6.2052313 ] } },
{ "type": "Feature", "properties": { "Nama Apartemen": "Apartemen Casablanca", "Latitude": -6.2233248, "Longitude": 106.8454024, "Kelurahan": "Menteng Dalam", "Kecamatan": "Tebet", "Kota Administrasi": "Jakarta Selatan", "Tahun Berdiri": 1996, "Jenis Apartemen/Rusun": "Apartemen Kelas Menengah" }, "geometry": { "type": "Point", "coordinates": [ 106.8454024, -6.2233248 ] } },
{ "type": "Feature", "properties": { "Nama Apartemen": "Rumah Susun Harum Tebet", "Latitude": -6.2343542, "Longitude": 106.8517535, "Kelurahan": "Tebet Barat", "Kecamatan": "Tebet", "Kota Administrasi": "Jakarta Selatan", "Tahun Berdiri": 1996, "Jenis Apartemen/Rusun": "Rusunami" }, "geometry": { "type": "Point", "coordinates": [ 106.8517535, -6.2343542 ] } },
{ "type": "Feature", "properties": { "Nama Apartemen": "Apartemen Mitra Sunter", "Latitude": -6.1500125, "Longitude": 106.8857215, "Kelurahan": "Sunter Jaya", "Kecamatan": "Tanjung Priok", "Kota Administrasi": "Jakarta Utara", "Tahun Berdiri": 1996, "Jenis Apartemen/Rusun": "Apartemen Kelas Menengah" }, "geometry": { "type": "Point", "coordinates": [ 106.8857215, -6.1500125 ] } },
{ "type": "Feature", "properties": { "Nama Apartemen": "Rumah Susun Sukapura", "Latitude": -6.1550975, "Longitude": 106.9251828, "Kelurahan": "Angke", "Kecamatan": "Tambora", "Kota Administrasi": "Jakarta Barat", "Tahun Berdiri": 1997, "Jenis Apartemen/Rusun": "Rusunawa" }, "geometry": { "type": "Point", "coordinates": [ 106.9251828, -6.1550975 ] } },
{ "type": "Feature", "properties": { "Nama Apartemen": "Apartemen Oasis Mitra Sarana", "Latitude": 6.1736509, "Longitude": 106.8371355, "Kelurahan": "Senen", "Kecamatan": "Senen", "Kota Administrasi": "Jakarta Pusat", "Tahun Berdiri": 1997, "Jenis Apartemen/Rusun": "Apartemen Kelas Menengah" }, "geometry": { "type": "Point", "coordinates": [ 106.8371355, 6.1736509 ] } },
{ "type": "Feature", "properties": { "Nama Apartemen": "Istana Sahid", "Latitude": -6.2101061, "Longitude": 106.8185095, "Kelurahan": "Karet Tengsin", "Kecamatan": "Tanah Abang", "Kota Administrasi": "Jakarta Pusat", "Tahun Berdiri": 1997, "Jenis Apartemen/Rusun": "Apartemen Mewah" }, "geometry": { "type": "Point", "coordinates": [ 106.8185095, -6.2101061 ] } },
{ "type": "Feature", "properties": { "Nama Apartemen": "Menteng Regency", "Latitude": -6.1886728, "Longitude": 106.8356152, "Kelurahan": "Cikini", "Kecamatan": "Menteng", "Kota Administrasi": "Jakarta Pusat", "Tahun Berdiri": 1997, "Jenis Apartemen/Rusun": "Apartemen Mewah" }, "geometry": { "type": "Point", "coordinates": [ 106.8356152, -6.1886728 ] } },
{ "type": "Feature", "properties": { "Nama Apartemen": "Rumah Susun Petamburan", "Latitude": -6.1983468, "Longitude": 106.8088378, "Kelurahan": "Petamburan", "Kecamatan": "Tanah Abang", "Kota Administrasi": "Jakarta Pusat", "Tahun Berdiri": 1997, "Jenis Apartemen/Rusun": "Rusunami" }, "geometry": { "type": "Point", "coordinates": [ 106.8088378, -6.1983468 ] } },
{ "type": "Feature", "properties": { "Nama Apartemen": "Tower E2 Apartemen Graha Cempaka Mas", "Latitude": -6.1638305, "Longitude": 106.8757774, "Kelurahan": "Sumur Batu", "Kecamatan": "Kemayoran", "Kota Administrasi": "Jakarta Pusat", "Tahun Berdiri": 1997, "Jenis Apartemen/Rusun": "Apartemen Kelas Menengah" }, "geometry": { "type": "Point", "coordinates": [ 106.8757774, -6.1638305 ] } },
{ "type": "Feature", "properties": { "Nama Apartemen": "Apartemen Permata Gandaria", "Latitude": -6.245111, "Longitude": 106.7869726, "Kelurahan": "Kramat Pela", "Kecamatan": "Kebayoran Baru", "Kota Administrasi": "Jakarta Selatan", "Tahun Berdiri": 1997, "Jenis Apartemen/Rusun": "Apartemen Kelas Menengah" }, "geometry": { "type": "Point", "coordinates": [ 106.7869726, -6.245111 ] } },
{ "type": "Feature", "properties": { "Nama Apartemen": "Apartment Simprug Indah", "Latitude": -6.2339988, "Longitude": 106.7846808, "Kelurahan": "Grogol Selatan", "Kecamatan": "Kebayoran Lama", "Kota Administrasi": "Jakarta Selatan", "Tahun Berdiri": 1997, "Jenis Apartemen/Rusun": "Apartemen Mewah" }, "geometry": { "type": "Point", "coordinates": [ 106.7846808, -6.2339988 ] } },
{ "type": "Feature", "properties": { "Nama Apartemen": "Simprug Park Residences", "Latitude": -6.2276279, "Longitude": 106.7905104, "Kelurahan": "Grogol Selatan", "Kecamatan": "Kebayoran Lama", "Kota Administrasi": "Jakarta Selatan", "Tahun Berdiri": 1997, "Jenis Apartemen/Rusun": "Apartemen Mewah" }, "geometry": { "type": "Point", "coordinates": [ 106.7905104, -6.2276279 ] } },
{ "type": "Feature", "properties": { "Nama Apartemen": "Taman Rasuna Apartment", "Latitude": -6.2198016, "Longitude": 106.8364386, "Kelurahan": "Menteng Atas", "Kecamatan": "Setia Budi", "Kota Administrasi": "Jakarta Selatan", "Tahun Berdiri": 1997, "Jenis Apartemen/Rusun": "Apartemen Kelas Menengah" }, "geometry": { "type": "Point", "coordinates": [ 106.8364386, -6.2198016 ] } },
{ "type": "Feature", "properties": { "Nama Apartemen": "Apartemen Eksekutif Menteng", "Latitude": -6.1985099, "Longitude": 106.8405133, "Kelurahan": "Menteng", "Kecamatan": "Menteng", "Kota Administrasi": "Jakarta Pusat", "Tahun Berdiri": 1998, "Jenis Apartemen/Rusun": "Apartemen Mewah" }, "geometry": { "type": "Point", "coordinates": [ 106.8405133, -6.1985099 ] } },
{ "type": "Feature", "properties": { "Nama Apartemen": "The apartment Plaza Senayan", "Latitude": -6.2236515, "Longitude": 106.7980332, "Kelurahan": "Gelora", "Kecamatan": "Tanah Abang", "Kota Administrasi": "Jakarta Pusat", "Tahun Berdiri": 1998, "Jenis Apartemen/Rusun": "Apartemen Kelas Menengah" }, "geometry": { "type": "Point", "coordinates": [ 106.7980332, -6.2236515 ] } },
{ "type": "Feature", "properties": { "Nama Apartemen": "Apartemen Kusuma Candra", "Latitude": -6.2270547, "Longitude": 106.8121618, "Kelurahan": "Senayan", "Kecamatan": "Kebayoran Baru", "Kota Administrasi": "Jakarta Selatan", "Tahun Berdiri": 1998, "Jenis Apartemen/Rusun": "Apartemen Mewah" }, "geometry": { "type": "Point", "coordinates": [ 106.8121618, -6.2270547 ] } },
{ "type": "Feature", "properties": { "Nama Apartemen": "Puri Casablanca", "Latitude": -6.2250767, "Longitude": 106.8384446, "Kelurahan": "Menteng Dalam", "Kecamatan": "Tebet", "Kota Administrasi": "Jakarta Selatan", "Tahun Berdiri": 1998, "Jenis Apartemen/Rusun": "Apartemen Kelas Menengah" }, "geometry": { "type": "Point", "coordinates": [ 106.8384446, -6.2250767 ] } },
{ "type": "Feature", "properties": { "Nama Apartemen": "Puri Imperium", "Latitude": -6.2093007, "Longitude": 106.8325393, "Kelurahan": "Guntur", "Kecamatan": "Setia Budi", "Kota Administrasi": "Jakarta Selatan", "Tahun Berdiri": 1998, "Jenis Apartemen/Rusun": "Apartemen Kelas Menengah" }, "geometry": { "type": "Point", "coordinates": [ 106.8325393, -6.2093007 ] } },
{ "type": "Feature", "properties": { "Nama Apartemen": "Apartemen Permata Surya 1", "Latitude": -6.1334384, "Longitude": 106.7056506, "Kelurahan": "Pegadungan", "Kecamatan": "Kali Deres", "Kota Administrasi": "Jakarta Barat", "Tahun Berdiri": 2001, "Jenis Apartemen/Rusun": "Apartemen Kelas Menengah" }, "geometry": { "type": "Point", "coordinates": [ 106.7056506, -6.1334384 ] } },
{ "type": "Feature", "properties": { "Nama Apartemen": "Sailendra Apartment", "Latitude": -6.2269216, "Longitude": 106.8244394, "Kelurahan": "Kuningan Timur", "Kecamatan": "Setia Budi", "Kota Administrasi": "Jakarta Selatan", "Tahun Berdiri": 2001, "Jenis Apartemen/Rusun": "Apartemen Luxury" }, "geometry": { "type": "Point", "coordinates": [ 106.8244394, -6.2269216 ] } },
{ "type": "Feature", "properties": { "Nama Apartemen": "Rumah Susun Tanah Tinggi I", "Latitude": -6.1765091, "Longitude": 106.8470723, "Kelurahan": "Tebet Barat", "Kecamatan": "Tebet", "Kota Administrasi": "Jakarta Selatan", "Tahun Berdiri": 2002, "Jenis Apartemen/Rusun": "Rusunami" }, "geometry": { "type": "Point", "coordinates": [ 106.8470723, -6.1765091 ] } },
{ "type": "Feature", "properties": { "Nama Apartemen": "Rumah Susun Cipinang Muara", "Latitude": -6.223601, "Longitude": 106.8904385, "Kelurahan": "Pondok Bambu", "Kecamatan": "Duren Sawit", "Kota Administrasi": "Jakarta Timur", "Tahun Berdiri": 2003, "Jenis Apartemen/Rusun": "Rusunawa" }, "geometry": { "type": "Point", "coordinates": [ 106.8904385, -6.223601 ] } },
{ "type": "Feature", "properties": { "Nama Apartemen": "Permata Senayan", "Latitude": -6.2220156, "Longitude": 106.7912707, "Kelurahan": "Gelora", "Kecamatan": "Tanah Abang", "Kota Administrasi": "Jakarta Pusat", "Tahun Berdiri": 2004, "Jenis Apartemen/Rusun": "Apartemen Kelas Menengah" }, "geometry": { "type": "Point", "coordinates": [ 106.7912707, -6.2220156 ] } },
{ "type": "Feature", "properties": { "Nama Apartemen": "Rumah Susun Griya Tipar Cakung", "Latitude": -6.1701648, "Longitude": 106.93785, "Kelurahan": "Ujung Menteng", "Kecamatan": "Cakung", "Kota Administrasi": "Jakarta Timur", "Tahun Berdiri": 2004, "Jenis Apartemen/Rusun": "Rusunawa" }, "geometry": { "type": "Point", "coordinates": [ 106.93785, -6.1701648 ] } },
{ "type": "Feature", "properties": { "Nama Apartemen": "Apartemen Gading Mediterania", "Latitude": -6.1617581, "Longitude": 106.8932948, "Kelurahan": "Kelapa Gading Barat", "Kecamatan": "Kelapa Gading", "Kota Administrasi": "Jakarta Utara", "Tahun Berdiri": 2004, "Jenis Apartemen/Rusun": "Apartemen Kelas Menengah" }, "geometry": { "type": "Point", "coordinates": [ 106.8932948, -6.1617581 ] } },
{ "type": "Feature", "properties": { "Nama Apartemen": "Apartemen Laguna Pluit", "Latitude": -6.1232546, "Longitude": 106.7990109, "Kelurahan": "Pluit", "Kecamatan": "Penjaringan", "Kota Administrasi": "Jakarta Utara", "Tahun Berdiri": 2004, "Jenis Apartemen/Rusun": "Apartemen Kelas Menengah" }, "geometry": { "type": "Point", "coordinates": [ 106.7990109, -6.1232546 ] } },
{ "type": "Feature", "properties": { "Nama Apartemen": "Puri Garden Apartemen", "Latitude": -6.1852448, "Longitude": 106.7323843, "Kelurahan": "Kembangan Selatan", "Kecamatan": "Kembangan", "Kota Administrasi": "Jakarta Barat", "Tahun Berdiri": 2005, "Jenis Apartemen/Rusun": "Apartemen Kelas Menengah" }, "geometry": { "type": "Point", "coordinates": [ 106.7323843, -6.1852448 ] } },
{ "type": "Feature", "properties": { "Nama Apartemen": "Apartemen Pavilion", "Latitude": -6.2073831, "Longitude": 106.818178, "Kelurahan": "Karet Tengsin", "Kecamatan": "Tanah Abang", "Kota Administrasi": "Jakarta Pusat", "Tahun Berdiri": 2005, "Jenis Apartemen/Rusun": "Apartemen Mewah" }, "geometry": { "type": "Point", "coordinates": [ 106.818178, -6.2073831 ] } },
{ "type": "Feature", "properties": { "Nama Apartemen": "Cosmo Mansion", "Latitude": -6.1948957, "Longitude": 106.8149897, "Kelurahan": "Kebon Melati", "Kecamatan": "Tanah Abang", "Kota Administrasi": "Jakarta Pusat", "Tahun Berdiri": 2005, "Jenis Apartemen/Rusun": "Apartemen Kelas Menengah" }, "geometry": { "type": "Point", "coordinates": [ 106.8149897, -6.1948957 ] } },
{ "type": "Feature", "properties": { "Nama Apartemen": "Airlangga Apartment", "Latitude": -6.228803, "Longitude": 106.8228301, "Kelurahan": "Kuningan Timur", "Kecamatan": "Setia Budi", "Kota Administrasi": "Jakarta Selatan", "Tahun Berdiri": 2005, "Jenis Apartemen/Rusun": "Apartemen Luxury" }, "geometry": { "type": "Point", "coordinates": [ 106.8228301, -6.228803 ] } },
{ "type": "Feature", "properties": { "Nama Apartemen": "Apartemen Point Square", "Latitude": -6.2898586, "Longitude": 106.7754874, "Kelurahan": "Lebak Bulus", "Kecamatan": "Cilandak", "Kota Administrasi": "Jakarta Selatan", "Tahun Berdiri": 2005, "Jenis Apartemen/Rusun": "Apartemen Kelas Menengah" }, "geometry": { "type": "Point", "coordinates": [ 106.7754874, -6.2898586 ] } },
{ "type": "Feature", "properties": { "Nama Apartemen": "Apartemen SCBD Suites", "Latitude": -6.2254092, "Longitude": 106.8094097, "Kelurahan": "Senayan", "Kecamatan": "Kebayoran Baru", "Kota Administrasi": "Jakarta Selatan", "Tahun Berdiri": 2005, "Jenis Apartemen/Rusun": "Apartemen Luxury" }, "geometry": { "type": "Point", "coordinates": [ 106.8094097, -6.2254092 ] } },
{ "type": "Feature", "properties": { "Nama Apartemen": "Mediterania Garden Residences", "Latitude": -6.173818, "Longitude": 106.7882, "Kelurahan": "Tanjung Duren Selatan", "Kecamatan": "Grogol Petamburan", "Kota Administrasi": "Jakarta Barat", "Tahun Berdiri": 2006, "Jenis Apartemen/Rusun": "Apartemen Kelas Menengah" }, "geometry": { "type": "Point", "coordinates": [ 106.7882, -6.173818 ] } },
{ "type": "Feature", "properties": { "Nama Apartemen": "Mediterania Boulevard Residences", "Latitude": -6.1551115, "Longitude": 106.851693, "Kelurahan": "Kebon Kosong", "Kecamatan": "Kemayoran", "Kota Administrasi": "Jakarta Pusat", "Tahun Berdiri": 2006, "Jenis Apartemen/Rusun": "Apartemen Kelas Menengah" }, "geometry": { "type": "Point", "coordinates": [ 106.851693, -6.1551115 ] } },
{ "type": "Feature", "properties": { "Nama Apartemen": "The Peak at Sudirman", "Latitude": -6.2105399, "Longitude": 106.8188739, "Kelurahan": "Setia Budi", "Kecamatan": "Setia Budi", "Kota Administrasi": "Jakarta Selatan", "Tahun Berdiri": 2006, "Jenis Apartemen/Rusun": "Apartemen Mewah" }, "geometry": { "type": "Point", "coordinates": [ 106.8188739, -6.2105399 ] } },
{ "type": "Feature", "properties": { "Nama Apartemen": "Rumah Susun Marunda", "Latitude": -6.0947109, "Longitude": 106.9644344, "Kelurahan": "Marunda", "Kecamatan": "Cilincing", "Kota Administrasi": "Jakarta Utara", "Tahun Berdiri": 2006, "Jenis Apartemen/Rusun": "Rusunawa" }, "geometry": { "type": "Point", "coordinates": [ 106.9644344, -6.0947109 ] } },
{ "type": "Feature", "properties": { "Nama Apartemen": "The apartment Jakarta Residence", "Latitude": -6.1955189, "Longitude": 106.8148679, "Kelurahan": "Kebon Melati", "Kecamatan": "Tanah Abang", "Kota Administrasi": "Jakarta Pusat", "Tahun Berdiri": 2007, "Jenis Apartemen/Rusun": "Apartemen Kelas Menengah" }, "geometry": { "type": "Point", "coordinates": [ 106.8148679, -6.1955189 ] } },
{ "type": "Feature", "properties": { "Nama Apartemen": "Apartemen Senayan", "Latitude": -6.2227939, "Longitude": 106.7941913, "Kelurahan": "Grogol Utara", "Kecamatan": "Kebayoran Lama", "Kota Administrasi": "Jakarta Selatan", "Tahun Berdiri": 2007, "Jenis Apartemen/Rusun": "Apartemen Mewah" }, "geometry": { "type": "Point", "coordinates": [ 106.7941913, -6.2227939 ] } },
{ "type": "Feature", "properties": { "Nama Apartemen": "Pacific Place Residences", "Latitude": -6.2255078, "Longitude": 106.8078745, "Kelurahan": "Senayan", "Kecamatan": "Kebayoran Baru", "Kota Administrasi": "Jakarta Selatan", "Tahun Berdiri": 2007, "Jenis Apartemen/Rusun": "Apartemen Luxury" }, "geometry": { "type": "Point", "coordinates": [ 106.8078745, -6.2255078 ] } },
{ "type": "Feature", "properties": { "Nama Apartemen": "Patria Park Apartment", "Latitude": -6.2434594, "Longitude": 106.8732153, "Kelurahan": "Cipinang Cempedak", "Kecamatan": "Jatinegara", "Kota Administrasi": "Jakarta Timur", "Tahun Berdiri": 2007, "Jenis Apartemen/Rusun": "Apartemen Kelas Menengah" }, "geometry": { "type": "Point", "coordinates": [ 106.8732153, -6.2434594 ] } },
{ "type": "Feature", "properties": { "Nama Apartemen": "Rumah Susun Pondok Bambu", "Latitude": -6.2415509, "Longitude": 106.9104378, "Kelurahan": "Pulo Gebang", "Kecamatan": "Cakung", "Kota Administrasi": "Jakarta Timur", "Tahun Berdiri": 2007, "Jenis Apartemen/Rusun": "Rusunawa" }, "geometry": { "type": "Point", "coordinates": [ 106.9104378, -6.2415509 ] } },
{ "type": "Feature", "properties": { "Nama Apartemen": "Rumah Susun Kapuk Muara", "Latitude": -6.1353202, "Longitude": 106.7625776, "Kelurahan": "Kapuk Muara", "Kecamatan": "Penjaringan", "Kota Administrasi": "Jakarta Utara", "Tahun Berdiri": 2007, "Jenis Apartemen/Rusun": "Rusunawa" }, "geometry": { "type": "Point", "coordinates": [ 106.7625776, -6.1353202 ] } },
{ "type": "Feature", "properties": { "Nama Apartemen": "Apartemen sudirman park", "Latitude": -6.2056402, "Longitude": 106.8134329, "Kelurahan": "Karet Tengsin", "Kecamatan": "Tanah Abang", "Kota Administrasi": "Jakarta Pusat", "Tahun Berdiri": 2008, "Jenis Apartemen/Rusun": "Apartemen Kelas Menengah" }, "geometry": { "type": "Point", "coordinates": [ 106.8134329, -6.2056402 ] } },
{ "type": "Feature", "properties": { "Nama Apartemen": "Citylofts Sudirman", "Latitude": -6.2091015, "Longitude": 106.8183845, "Kelurahan": "Karet Tengsin", "Kecamatan": "Tanah Abang", "Kota Administrasi": "Jakarta Pusat", "Tahun Berdiri": 2008, "Jenis Apartemen/Rusun": "Apartemen Kelas Menengah" }, "geometry": { "type": "Point", "coordinates": [ 106.8183845, -6.2091015 ] } },
{ "type": "Feature", "properties": { "Nama Apartemen": "Apartment Belleza", "Latitude": -6.2221935, "Longitude": 106.7802004, "Kelurahan": "Grogol Utara", "Kecamatan": "Kebayoran Lama", "Kota Administrasi": "Jakarta Selatan", "Tahun Berdiri": 2008, "Jenis Apartemen/Rusun": "Apartemen Kelas Menengah" }, "geometry": { "type": "Point", "coordinates": [ 106.7802004, -6.2221935 ] } },
{ "type": "Feature", "properties": { "Nama Apartemen": "Essence Darmawangsa Apartment", "Latitude": -6.2573473, "Longitude": 106.802637, "Kelurahan": "Cipete Utara", "Kecamatan": "Kebayoran Baru", "Kota Administrasi": "Jakarta Selatan", "Tahun Berdiri": 2008, "Jenis Apartemen/Rusun": "Apartemen Kelas Menengah" }, "geometry": { "type": "Point", "coordinates": [ 106.802637, -6.2573473 ] } },
{ "type": "Feature", "properties": { "Nama Apartemen": "Permata Hijau Residences", "Latitude": -6.2245878, "Longitude": 106.7846356, "Kelurahan": "Grogol Utara", "Kecamatan": "Kebayoran Lama", "Kota Administrasi": "Jakarta Selatan", "Tahun Berdiri": 2008, "Jenis Apartemen/Rusun": "Apartemen Kelas Menengah" }, "geometry": { "type": "Point", "coordinates": [ 106.7846356, -6.2245878 ] } },
{ "type": "Feature", "properties": { "Nama Apartemen": "Apartemen Sentra Timur", "Latitude": -6.205009, "Longitude": 106.9407232, "Kelurahan": "Pulo Gebang", "Kecamatan": "Cakung", "Kota Administrasi": "Jakarta Timur", "Tahun Berdiri": 2008, "Jenis Apartemen/Rusun": "Apartemen Kelas Menengah" }, "geometry": { "type": "Point", "coordinates": [ 106.9407232, -6.205009 ] } },
{ "type": "Feature", "properties": { "Nama Apartemen": "Apartemen City Home", "Latitude": -6.1498506, "Longitude": 106.890442, "Kelurahan": "Kelapa Gading Barat", "Kecamatan": "Kelapa Gading", "Kota Administrasi": "Jakarta Utara", "Tahun Berdiri": 2008, "Jenis Apartemen/Rusun": "Apartemen Kelas Menengah" }, "geometry": { "type": "Point", "coordinates": [ 106.890442, -6.1498506 ] } },
{ "type": "Feature", "properties": { "Nama Apartemen": "Seasons City Apartment", "Latitude": -6.1536444, "Longitude": 106.7936329, "Kelurahan": "Jembatan Besi", "Kecamatan": "Tambora", "Kota Administrasi": "Jakarta Barat", "Tahun Berdiri": 2009, "Jenis Apartemen/Rusun": "Apartemen Kelas Menengah" }, "geometry": { "type": "Point", "coordinates": [ 106.7936329, -6.1536444 ] } },
{ "type": "Feature", "properties": { "Nama Apartemen": "Sahid Sudirman Residence", "Latitude": -6.209985, "Longitude": 106.8197333, "Kelurahan": "Karet Tengsin", "Kecamatan": "Tanah Abang", "Kota Administrasi": "Jakarta Pusat", "Tahun Berdiri": 2009, "Jenis Apartemen/Rusun": "Apartemen Kelas Menengah" }, "geometry": { "type": "Point", "coordinates": [ 106.8197333, -6.209985 ] } },
{ "type": "Feature", "properties": { "Nama Apartemen": "Apartment Nirvana Kemang", "Latitude": -6.266108, "Longitude": 106.8131451, "Kelurahan": "Bangka", "Kecamatan": "Mampang Prapatan", "Kota Administrasi": "Jakarta Selatan", "Tahun Berdiri": 2009, "Jenis Apartemen/Rusun": "Apartemen Mewah" }, "geometry": { "type": "Point", "coordinates": [ 106.8131451, -6.266108 ] } },
{ "type": "Feature", "properties": { "Nama Apartemen": "Hampton's Park Apartment", "Latitude": -6.2826781, "Longitude": 106.7881497, "Kelurahan": "Cilandak Barat", "Kecamatan": "Cilandak", "Kota Administrasi": "Jakarta Selatan", "Tahun Berdiri": 2009, "Jenis Apartemen/Rusun": "Apartemen Kelas Menengah" }, "geometry": { "type": "Point", "coordinates": [ 106.7881497, -6.2826781 ] } },
{ "type": "Feature", "properties": { "Nama Apartemen": "Kuningan Place", "Latitude": -6.2132758, "Longitude": 106.835383, "Kelurahan": "Menteng Atas", "Kecamatan": "Setia Budi", "Kota Administrasi": "Jakarta Selatan", "Tahun Berdiri": 2009, "Jenis Apartemen/Rusun": "Apartemen Mewah" }, "geometry": { "type": "Point", "coordinates": [ 106.835383, -6.2132758 ] } },
{ "type": "Feature", "properties": { "Nama Apartemen": "Apartemen Kelapa Gading Square - Mall Of Indonesia", "Latitude": -6.1498684, "Longitude": 106.8871726, "Kelurahan": "Kelapa Gading Barat", "Kecamatan": "Kelapa Gading", "Kota Administrasi": "Jakarta Utara", "Tahun Berdiri": 2009, "Jenis Apartemen/Rusun": "Apartemen Kelas Menengah" }, "geometry": { "type": "Point", "coordinates": [ 106.8871726, -6.1498684 ] } },
{ "type": "Feature", "properties": { "Nama Apartemen": "Pantai Mutiara", "Latitude": -6.1011661, "Longitude": 106.7952148, "Kelurahan": "Pluit", "Kecamatan": "Penjaringan", "Kota Administrasi": "Jakarta Utara", "Tahun Berdiri": 2009, "Jenis Apartemen/Rusun": "Apartemen Mewah" }, "geometry": { "type": "Point", "coordinates": [ 106.7952148, -6.1011661 ] } },
{ "type": "Feature", "properties": { "Nama Apartemen": "Apartemen Palm Mansion", "Latitude": -6.1322479, "Longitude": 106.7053462, "Kelurahan": "Pegadungan", "Kecamatan": "Kali Deres", "Kota Administrasi": "Jakarta Barat", "Tahun Berdiri": 2010, "Jenis Apartemen/Rusun": "Apartemen Kelas Menengah" }, "geometry": { "type": "Point", "coordinates": [ 106.7053462, -6.1322479 ] } },
{ "type": "Feature", "properties": { "Nama Apartemen": "Green Park View Apartment", "Latitude": -6.1556772, "Longitude": 106.7167999, "Kelurahan": "Duri Kosambi", "Kecamatan": "Cengkareng", "Kota Administrasi": "Jakarta Barat", "Tahun Berdiri": 2010, "Jenis Apartemen/Rusun": "Apartemen Kelas Menengah" }, "geometry": { "type": "Point", "coordinates": [ 106.7167999, -6.1556772 ] } },
{ "type": "Feature", "properties": { "Nama Apartemen": "Paradise Mansion Apartement", "Latitude": -6.132235, "Longitude": 106.7003643, "Kelurahan": "Pegadungan", "Kecamatan": "Kali Deres", "Kota Administrasi": "Jakarta Barat", "Tahun Berdiri": 2010, "Jenis Apartemen/Rusun": "Apartemen Kelas Menengah" }, "geometry": { "type": "Point", "coordinates": [ 106.7003643, -6.132235 ] } },
{ "type": "Feature", "properties": { "Nama Apartemen": "St. Moritz Apartment The Royal Suite Tower", "Latitude": -6.1871251, "Longitude": 106.7352522, "Kelurahan": "Kembangan Selatan", "Kecamatan": "Kembangan", "Kota Administrasi": "Jakarta Barat", "Tahun Berdiri": 2010, "Jenis Apartemen/Rusun": "Apartemen Kelas Menengah" }, "geometry": { "type": "Point", "coordinates": [ 106.7352522, -6.1871251 ] } },
{ "type": "Feature", "properties": { "Nama Apartemen": "Apartemen Menteng", "Latitude": -6.1985099, "Longitude": 106.8405133, "Kelurahan": "Gondangdia", "Kecamatan": "Menteng", "Kota Administrasi": "Jakarta Pusat", "Tahun Berdiri": 2010, "Jenis Apartemen/Rusun": "Apartemen Kelas Menengah" }, "geometry": { "type": "Point", "coordinates": [ 106.8405133, -6.1985099 ] } },
{ "type": "Feature", "properties": { "Nama Apartemen": "Apartemen Ratana", "Latitude": -6.1834578, "Longitude": 106.8228036, "Kelurahan": "Kebon Sirih", "Kecamatan": "Menteng", "Kota Administrasi": "Jakarta Pusat", "Tahun Berdiri": 2010, "Jenis Apartemen/Rusun": "Apartemen Mewah" }, "geometry": { "type": "Point", "coordinates": [ 106.8228036, -6.1834578 ] } },
{ "type": "Feature", "properties": { "Nama Apartemen": "Salemba Residence Apartment", "Latitude": -6.1953416, "Longitude": 106.8557612, "Kelurahan": "Paseban", "Kecamatan": "Senen", "Kota Administrasi": "Jakarta Pusat", "Tahun Berdiri": 2010, "Jenis Apartemen/Rusun": "Apartemen Kelas Menengah" }, "geometry": { "type": "Point", "coordinates": [ 106.8557612, -6.1953416 ] } },
{ "type": "Feature", "properties": { "Nama Apartemen": "The Boutique Apartment & Office Park", "Latitude": -6.1571495, "Longitude": 106.8498111, "Kelurahan": "Kebon Kosong", "Kecamatan": "Kemayoran", "Kota Administrasi": "Jakarta Pusat", "Tahun Berdiri": 2010, "Jenis Apartemen/Rusun": "Apartemen Kelas Menengah" }, "geometry": { "type": "Point", "coordinates": [ 106.8498111, -6.1571495 ] } },
{ "type": "Feature", "properties": { "Nama Apartemen": "Gandaria Heights", "Latitude": -6.2438223, "Longitude": 106.7845429, "Kelurahan": "Kebayoran Lama Utara", "Kecamatan": "Kebayoran Lama", "Kota Administrasi": "Jakarta Selatan", "Tahun Berdiri": 2010, "Jenis Apartemen/Rusun": "Apartemen Kelas Menengah" }, "geometry": { "type": "Point", "coordinates": [ 106.7845429, -6.2438223 ] } },
{ "type": "Feature", "properties": { "Nama Apartemen": "Gardenia Boulevard", "Latitude": -6.284061, "Longitude": 106.8271266, "Kelurahan": "Jati Padang", "Kecamatan": "Pasar Minggu", "Kota Administrasi": "Jakarta Selatan", "Tahun Berdiri": 2010, "Jenis Apartemen/Rusun": "Apartemen Kelas Menengah" }, "geometry": { "type": "Point", "coordinates": [ 106.8271266, -6.284061 ] } },
{ "type": "Feature", "properties": { "Nama Apartemen": "The Pakubuwono View Apartment", "Latitude": -6.2365825, "Longitude": 106.7819204, "Kelurahan": "Kebayoran Lama Utara", "Kecamatan": "Kebayoran Lama", "Kota Administrasi": "Jakarta Selatan", "Tahun Berdiri": 2010, "Jenis Apartemen/Rusun": "Apartemen Mewah" }, "geometry": { "type": "Point", "coordinates": [ 106.7819204, -6.2365825 ] } },
{ "type": "Feature", "properties": { "Nama Apartemen": "Apartmen Gading Nias Residences", "Latitude": -6.1541344, "Longitude": 106.9149948, "Kelurahan": "Pegangsaan Dua", "Kecamatan": "Kelapa Gading", "Kota Administrasi": "Jakarta Utara", "Tahun Berdiri": 2010, "Jenis Apartemen/Rusun": "Apartemen Kelas Menengah" }, "geometry": { "type": "Point", "coordinates": [ 106.9149948, -6.1541344 ] } },
{ "type": "Feature", "properties": { "Nama Apartemen": "Maple Park Apartment", "Latitude": -6.1496259, "Longitude": 106.857637, "Kelurahan": "Sunter Agung", "Kecamatan": "Tanjung Priok", "Kota Administrasi": "Jakarta Utara", "Tahun Berdiri": 2010, "Jenis Apartemen/Rusun": "Apartemen Kelas Menengah" }, "geometry": { "type": "Point", "coordinates": [ 106.857637, -6.1496259 ] } },
{ "type": "Feature", "properties": { "Nama Apartemen": "Apartemen Menara Kebon Jeruk", "Latitude": -6.1863537, "Longitude": 106.7781509, "Kelurahan": "Duri Kepa", "Kecamatan": "Kebon Jeruk", "Kota Administrasi": "Jakarta Barat", "Tahun Berdiri": 2011, "Jenis Apartemen/Rusun": "Apartemen Kelas Menengah" }, "geometry": { "type": "Point", "coordinates": [ 106.7781509, -6.1863537 ] } },
{ "type": "Feature", "properties": { "Nama Apartemen": "Royal Mediterania Garden Residences", "Latitude": -6.1755289, "Longitude": 106.7864405, "Kelurahan": "Tanjung Duren Selatan", "Kecamatan": "Grogol Petamburan", "Kota Administrasi": "Jakarta Barat", "Tahun Berdiri": 2011, "Jenis Apartemen/Rusun": "Apartemen Kelas Menengah" }, "geometry": { "type": "Point", "coordinates": [ 106.7864405, -6.1755289 ] } },
{ "type": "Feature", "properties": { "Nama Apartemen": "Apartemen Grand Kartini", "Latitude": -6.1498158, "Longitude": 106.8340896, "Kelurahan": "Kartini", "Kecamatan": "Sawah Besar", "Kota Administrasi": "Jakarta Pusat", "Tahun Berdiri": 2011, "Jenis Apartemen/Rusun": "Apartemen Kelas Menengah" }, "geometry": { "type": "Point", "coordinates": [ 106.8340896, -6.1498158 ] } },
{ "type": "Feature", "properties": { "Nama Apartemen": "Menteng Square Apartment Tower A", "Latitude": -6.2002258, "Longitude": 106.8521401, "Kelurahan": "Kenari", "Kecamatan": "Senen", "Kota Administrasi": "Jakarta Pusat", "Tahun Berdiri": 2011, "Jenis Apartemen/Rusun": "Apartemen Kelas Menengah" }, "geometry": { "type": "Point", "coordinates": [ 106.8521401, -6.2002258 ] } },
{ "type": "Feature", "properties": { "Nama Apartemen": "Thamrin Executive Residence", "Latitude": -6.1961813, "Longitude": 106.8164502, "Kelurahan": "Kebon Melati", "Kecamatan": "Tanah Abang", "Kota Administrasi": "Jakarta Pusat", "Tahun Berdiri": 2011, "Jenis Apartemen/Rusun": "Apartemen Kelas Menengah" }, "geometry": { "type": "Point", "coordinates": [ 106.8164502, -6.1961813 ] } },
{ "type": "Feature", "properties": { "Nama Apartemen": "Thamrin Residence", "Latitude": -6.1961813, "Longitude": 106.8164502, "Kelurahan": "Kebon Melati", "Kecamatan": "Tanah Abang", "Kota Administrasi": "Jakarta Pusat", "Tahun Berdiri": 2011, "Jenis Apartemen/Rusun": "Apartemen Kelas Menengah" }, "geometry": { "type": "Point", "coordinates": [ 106.8164502, -6.1961813 ] } },
{ "type": "Feature", "properties": { "Nama Apartemen": "Apartemen Kalibata City", "Latitude": -6.2569696, "Longitude": 106.8446671, "Kelurahan": "Rawajati", "Kecamatan": "Pancoran", "Kota Administrasi": "Jakarta Selatan", "Tahun Berdiri": 2011, "Jenis Apartemen/Rusun": "Apartemen Kelas Menengah" }, "geometry": { "type": "Point", "coordinates": [ 106.8446671, -6.2569696 ] } },
{ "type": "Feature", "properties": { "Nama Apartemen": "Apartemen Tamansari Semanggi", "Latitude": -6.2266116, "Longitude": 106.8192137, "Kelurahan": "Karet Semanggi", "Kecamatan": "Setia Budi", "Kota Administrasi": "Jakarta Selatan", "Tahun Berdiri": 2011, "Jenis Apartemen/Rusun": "Apartemen Kelas Menengah" }, "geometry": { "type": "Point", "coordinates": [ 106.8192137, -6.2266116 ] } },
{ "type": "Feature", "properties": { "Nama Apartemen": "Apartemen MTH Square", "Latitude": -6.24375, "Longitude": 106.8663521, "Kelurahan": "Bidara Cina", "Kecamatan": "Jatinegara", "Kota Administrasi": "Jakarta Timur", "Tahun Berdiri": 2011, "Jenis Apartemen/Rusun": "Apartemen Kelas Menengah" }, "geometry": { "type": "Point", "coordinates": [ 106.8663521, -6.24375 ] } },
{ "type": "Feature", "properties": { "Nama Apartemen": "CBD Pluit", "Latitude": -6.1274334, "Longitude": 106.7893377, "Kelurahan": "Penjaringan", "Kecamatan": "Penjaringan", "Kota Administrasi": "Jakarta Utara", "Tahun Berdiri": 2011, "Jenis Apartemen/Rusun": "Apartemen Kelas Menengah" }, "geometry": { "type": "Point", "coordinates": [ 106.7893377, -6.1274334 ] } },
{ "type": "Feature", "properties": { "Nama Apartemen": "Grand Emerald Apartment", "Latitude": -6.1542658, "Longitude": 106.9166426, "Kelurahan": "Pegangsaan Dua", "Kecamatan": "Kelapa Gading", "Kota Administrasi": "Jakarta Utara", "Tahun Berdiri": 2011, "Jenis Apartemen/Rusun": "Apartemen Kelas Menengah" }, "geometry": { "type": "Point", "coordinates": [ 106.9166426, -6.1542658 ] } },
{ "type": "Feature", "properties": { "Nama Apartemen": "Central Park Residence", "Latitude": -6.1786215, "Longitude": 106.7874528, "Kelurahan": "Tanjung Duren Selatan", "Kecamatan": "Grogol Petamburan", "Kota Administrasi": "Jakarta Barat", "Tahun Berdiri": 2012, "Jenis Apartemen/Rusun": "Apartemen Kelas Menengah" }, "geometry": { "type": "Point", "coordinates": [ 106.7874528, -6.1786215 ] } },
{ "type": "Feature", "properties": { "Nama Apartemen": "Puri Parkview Apartment", "Latitude": -6.1930726, "Longitude": 106.7545474, "Kelurahan": "Meruya Utara", "Kecamatan": "Kembangan", "Kota Administrasi": "Jakarta Barat", "Tahun Berdiri": 2012, "Jenis Apartemen/Rusun": "Apartemen Kelas Menengah" }, "geometry": { "type": "Point", "coordinates": [ 106.7545474, -6.1930726 ] } },
{ "type": "Feature", "properties": { "Nama Apartemen": "Westmark", "Latitude": -6.1805009, "Longitude": 106.7936869, "Kelurahan": "Tanjung Duren Selatan", "Kecamatan": "Grogol Petamburan", "Kota Administrasi": "Jakarta Barat", "Tahun Berdiri": 2012, "Jenis Apartemen/Rusun": "Apartemen Kelas Menengah" }, "geometry": { "type": "Point", "coordinates": [ 106.7936869, -6.1805009 ] } },
{ "type": "Feature", "properties": { "Nama Apartemen": "Apartement Keraton", "Latitude": -6.1920079, "Longitude": 106.8186961, "Kelurahan": "Gondangdia", "Kecamatan": "Menteng", "Kota Administrasi": "Jakarta Pusat", "Tahun Berdiri": 2012, "Jenis Apartemen/Rusun": "Apartemen Luxury" }, "geometry": { "type": "Point", "coordinates": [ 106.8186961, -6.1920079 ] } },
{ "type": "Feature", "properties": { "Nama Apartemen": "Green Pramuka City", "Latitude": -6.1891434, "Longitude": 106.8735619, "Kelurahan": "Rawasari", "Kecamatan": "Cempaka Putih", "Kota Administrasi": "Jakarta Pusat", "Tahun Berdiri": 2012, "Jenis Apartemen/Rusun": "Apartemen Kelas Menengah" }, "geometry": { "type": "Point", "coordinates": [ 106.8735619, -6.1891434 ] } },
{ "type": "Feature", "properties": { "Nama Apartemen": "Cervino Village Apartment", "Latitude": -6.2244766, "Longitude": 106.8463554, "Kelurahan": "Tebet Barat", "Kecamatan": "Tebet", "Kota Administrasi": "Jakarta Selatan", "Tahun Berdiri": 2012, "Jenis Apartemen/Rusun": "Apartemen Kelas Menengah" }, "geometry": { "type": "Point", "coordinates": [ 106.8463554, -6.2244766 ] } },
{ "type": "Feature", "properties": { "Nama Apartemen": "Kemang Village Residences", "Latitude": -6.2607158, "Longitude": 106.8119855, "Kelurahan": "Bangka", "Kecamatan": "Mampang Prapatan", "Kota Administrasi": "Jakarta Selatan", "Tahun Berdiri": 2012, "Jenis Apartemen/Rusun": "Apartemen Kelas Menengah" }, "geometry": { "type": "Point", "coordinates": [ 106.8119855, -6.2607158 ] } },
{ "type": "Feature", "properties": { "Nama Apartemen": "L'Avenue Apartment North Tower", "Latitude": -6.2483467, "Longitude": 106.841812, "Kelurahan": "Pancoran", "Kecamatan": "Pancoran", "Kota Administrasi": "Jakarta Selatan", "Tahun Berdiri": 2012, "Jenis Apartemen/Rusun": "Apartemen Mewah" }, "geometry": { "type": "Point", "coordinates": [ 106.841812, -6.2483467 ] } },
{ "type": "Feature", "properties": { "Nama Apartemen": "Tamansari Sudirman Executive Residence", "Latitude": -6.2164333, "Longitude": 106.8213306, "Kelurahan": "Karet Kuningan", "Kecamatan": "Setia Budi", "Kota Administrasi": "Jakarta Selatan", "Tahun Berdiri": 2012, "Jenis Apartemen/Rusun": "Apartemen Kelas Menengah" }, "geometry": { "type": "Point", "coordinates": [ 106.8213306, -6.2164333 ] } },
{ "type": "Feature", "properties": { "Nama Apartemen": "The Lavande Residences", "Latitude": -6.2365714, "Longitude": 106.8429913, "Kelurahan": "Menteng Dalam", "Kecamatan": "Tebet", "Kota Administrasi": "Jakarta Selatan", "Tahun Berdiri": 2012, "Jenis Apartemen/Rusun": "Apartemen Kelas Menengah" }, "geometry": { "type": "Point", "coordinates": [ 106.8429913, -6.2365714 ] } },
{ "type": "Feature", "properties": { "Nama Apartemen": "Apartement Greenlake Sunter Southern", "Latitude": -6.1448598, "Longitude": 106.8754579, "Kelurahan": "Sunter Agung", "Kecamatan": "Tanjung Priok", "Kota Administrasi": "Jakarta Utara", "Tahun Berdiri": 2012, "Jenis Apartemen/Rusun": "Apartemen Kelas Menengah" }, "geometry": { "type": "Point", "coordinates": [ 106.8754579, -6.1448598 ] } },
{ "type": "Feature", "properties": { "Nama Apartemen": "The Windsor Apartment", "Latitude": -6.185997, "Longitude": 106.7335694, "Kelurahan": "Kembangan Selatan", "Kecamatan": "Kembangan", "Kota Administrasi": "Jakarta Barat", "Tahun Berdiri": 2013, "Jenis Apartemen/Rusun": "Apartemen Mewah" }, "geometry": { "type": "Point", "coordinates": [ 106.7335694, -6.185997 ] } },
{ "type": "Feature", "properties": { "Nama Apartemen": "Apartemen Grand Palace Kemayoran", "Latitude": -6.1602289, "Longitude": 106.8528327, "Kelurahan": "Kebon Kosong", "Kecamatan": "Kemayoran", "Kota Administrasi": "Jakarta Pusat", "Tahun Berdiri": 2013, "Jenis Apartemen/Rusun": "Apartemen Kelas Menengah" }, "geometry": { "type": "Point", "coordinates": [ 106.8528327, -6.1602289 ] } },
{ "type": "Feature", "properties": { "Nama Apartemen": "Fraser Residence Menteng Jakarta", "Latitude": -6.184884, "Longitude": 106.8343942, "Kelurahan": "Kebon Sirih", "Kecamatan": "Menteng", "Kota Administrasi": "Jakarta Pusat", "Tahun Berdiri": 2013, "Jenis Apartemen/Rusun": "Apartemen Mewah" }, "geometry": { "type": "Point", "coordinates": [ 106.8343942, -6.184884 ] } },
{ "type": "Feature", "properties": { "Nama Apartemen": "GP Plaza", "Latitude": -6.2027499, "Longitude": 106.7994779, "Kelurahan": "Gelora", "Kecamatan": "Tanah Abang", "Kota Administrasi": "Jakarta Pusat", "Tahun Berdiri": 2013, "Jenis Apartemen/Rusun": "Apartemen Kelas Menengah" }, "geometry": { "type": "Point", "coordinates": [ 106.7994779, -6.2027499 ] } },
{ "type": "Feature", "properties": { "Nama Apartemen": "The Archies Sudirman Apartment (ex T plaza)", "Latitude": -6.2018996, "Longitude": 106.8048589, "Kelurahan": "Bendungan Hilir", "Kecamatan": "Tanah Abang", "Kota Administrasi": "Jakarta Pusat", "Tahun Berdiri": 2013, "Jenis Apartemen/Rusun": "Apartemen Kelas Menengah" }, "geometry": { "type": "Point", "coordinates": [ 106.8048589, -6.2018996 ] } },
{ "type": "Feature", "properties": { "Nama Apartemen": "Ascott Kuningan Jakarta", "Latitude": -6.22501, "Longitude": 106.8238374, "Kelurahan": "Karet Kuningan", "Kecamatan": "Setia Budi", "Kota Administrasi": "Jakarta Selatan", "Tahun Berdiri": 2013, "Jenis Apartemen/Rusun": "Apartemen Mewah" }, "geometry": { "type": "Point", "coordinates": [ 106.8238374, -6.22501 ] } },
{ "type": "Feature", "properties": { "Nama Apartemen": "Casa Grande Residence", "Latitude": -6.2234921, "Longitude": 106.839223, "Kelurahan": "Menteng Dalam", "Kecamatan": "Tebet", "Kota Administrasi": "Jakarta Selatan", "Tahun Berdiri": 2013, "Jenis Apartemen/Rusun": "Apartemen Kelas Menengah" }, "geometry": { "type": "Point", "coordinates": [ 106.839223, -6.2234921 ] } },
{ "type": "Feature", "properties": { "Nama Apartemen": "Kebagusan City Apartment", "Latitude": -6.3066161, "Longitude": 106.835586, "Kelurahan": "Kebagusan", "Kecamatan": "Pasar Minggu", "Kota Administrasi": "Jakarta Selatan", "Tahun Berdiri": 2013, "Jenis Apartemen/Rusun": "Apartemen Kelas Menengah" }, "geometry": { "type": "Point", "coordinates": [ 106.835586, -6.3066161 ] } },
{ "type": "Feature", "properties": { "Nama Apartemen": "The Aspen Residences", "Latitude": -6.3029457, "Longitude": 106.7929099, "Kelurahan": "Pondok Labu", "Kecamatan": "Cilandak", "Kota Administrasi": "Jakarta Selatan", "Tahun Berdiri": 2013, "Jenis Apartemen/Rusun": "Apartemen Kelas Menengah" }, "geometry": { "type": "Point", "coordinates": [ 106.7929099, -6.3029457 ] } },
{ "type": "Feature", "properties": { "Nama Apartemen": "The H Tower", "Latitude": -6.2195837, "Longitude": 106.8322571, "Kelurahan": "Karet Kuningan", "Kecamatan": "Setia Budi", "Kota Administrasi": "Jakarta Selatan", "Tahun Berdiri": 2013, "Jenis Apartemen/Rusun": "Apartemen Mewah" }, "geometry": { "type": "Point", "coordinates": [ 106.8322571, -6.2195837 ] } },
{ "type": "Feature", "properties": { "Nama Apartemen": "Verde Apartment", "Latitude": -6.214192, "Longitude": 106.8299013, "Kelurahan": "Karet", "Kecamatan": "Setia Budi", "Kota Administrasi": "Jakarta Selatan", "Tahun Berdiri": 2013, "Jenis Apartemen/Rusun": "Apartemen Mewah" }, "geometry": { "type": "Point", "coordinates": [ 106.8299013, -6.214192 ] } },
{ "type": "Feature", "properties": { "Nama Apartemen": "Delta Cakung Apartment", "Latitude": -6.1935514, "Longitude": 106.9339988, "Kelurahan": "Penggilingan", "Kecamatan": "Cakung", "Kota Administrasi": "Jakarta Timur", "Tahun Berdiri": 2013, "Jenis Apartemen/Rusun": "Apartemen Kelas Menengah" }, "geometry": { "type": "Point", "coordinates": [ 106.9339988, -6.1935514 ] } },
{ "type": "Feature", "properties": { "Nama Apartemen": "East Park Apartment", "Latitude": -6.203661, "Longitude": 106.9255627, "Kelurahan": "Jatinegara", "Kecamatan": "Cakung", "Kota Administrasi": "Jakarta Timur", "Tahun Berdiri": 2013, "Jenis Apartemen/Rusun": "Apartemen Kelas Menengah" }, "geometry": { "type": "Point", "coordinates": [ 106.9255627, -6.203661 ] } },
{ "type": "Feature", "properties": { "Nama Apartemen": "Gading Icon Apartment, Tower A", "Latitude": 6.180899, "Longitude": 106.9044063, "Kelurahan": "Pulo Gadung", "Kecamatan": "Pulo Gadung", "Kota Administrasi": "Jakarta Timur", "Tahun Berdiri": 2013, "Jenis Apartemen/Rusun": "Apartemen Kelas Menengah" }, "geometry": { "type": "Point", "coordinates": [ 106.9044063, 6.180899 ] } },
{ "type": "Feature", "properties": { "Nama Apartemen": "MT Haryono Residences", "Latitude": -6.2434882, "Longitude": 106.8676848, "Kelurahan": "Bidara Cina", "Kecamatan": "Jatinegara", "Kota Administrasi": "Jakarta Timur", "Tahun Berdiri": 2013, "Jenis Apartemen/Rusun": "Apartemen Kelas Menengah" }, "geometry": { "type": "Point", "coordinates": [ 106.8676848, -6.2434882 ] } },
{ "type": "Feature", "properties": { "Nama Apartemen": "Rumah Susun Pinus Elok", "Latitude": -6.2009986, "Longitude": 106.9348886, "Kelurahan": "Pondok Bambu", "Kecamatan": "Duren Sawit", "Kota Administrasi": "Jakarta Timur", "Tahun Berdiri": 2013, "Jenis Apartemen/Rusun": "Rusunawa" }, "geometry": { "type": "Point", "coordinates": [ 106.9348886, -6.2009986 ] } },
{ "type": "Feature", "properties": { "Nama Apartemen": "Rumah Susun Muara Angke", "Latitude": -6.1280774, "Longitude": 106.7644358, "Kelurahan": "Pluit", "Kecamatan": "Penjaringan", "Kota Administrasi": "Jakarta Utara", "Tahun Berdiri": 2013, "Jenis Apartemen/Rusun": "Rusunawa" }, "geometry": { "type": "Point", "coordinates": [ 106.7644358, -6.1280774 ] } },
{ "type": "Feature", "properties": { "Nama Apartemen": "Rumah Susun muara baru", "Latitude": -6.1100842, "Longitude": 106.7973208, "Kelurahan": "Penjaringan", "Kecamatan": "Penjaringan", "Kota Administrasi": "Jakarta Utara", "Tahun Berdiri": 2013, "Jenis Apartemen/Rusun": "Rusunawa" }, "geometry": { "type": "Point", "coordinates": [ 106.7973208, -6.1100842 ] } },
{ "type": "Feature", "properties": { "Nama Apartemen": "Apartemen Semanan Indah", "Latitude": -6.1639, "Longitude": 106.71973, "Kelurahan": "Duri Kosambi", "Kecamatan": "Cengkareng", "Kota Administrasi": "Jakarta Barat", "Tahun Berdiri": 2014, "Jenis Apartemen/Rusun": "Apartemen Kelas Menengah" }, "geometry": { "type": "Point", "coordinates": [ 106.71973, -6.1639 ] } },
{ "type": "Feature", "properties": { "Nama Apartemen": "Green Central City", "Latitude": -6.1473785, "Longitude": 106.815017, "Kelurahan": "Glodok", "Kecamatan": "Taman Sari", "Kota Administrasi": "Jakarta Barat", "Tahun Berdiri": 2014, "Jenis Apartemen/Rusun": "Apartemen Kelas Menengah" }, "geometry": { "type": "Point", "coordinates": [ 106.815017, -6.1473785 ] } },
{ "type": "Feature", "properties": { "Nama Apartemen": "Rumah Susun Daan Mogot", "Latitude": -6.1605778, "Longitude": 106.7180183, "Kelurahan": "Semanan", "Kecamatan": "Kali Deres", "Kota Administrasi": "Jakarta Barat", "Tahun Berdiri": 2014, "Jenis Apartemen/Rusun": "Rusunawa" }, "geometry": { "type": "Point", "coordinates": [ 106.7180183, -6.1605778 ] } },
{ "type": "Feature", "properties": { "Nama Apartemen": "Sky Terrace Lagoon Condo", "Latitude": -6.1512423, "Longitude": 106.7078162, "Kelurahan": "Kalideres", "Kecamatan": "Kali Deres", "Kota Administrasi": "Jakarta Barat", "Tahun Berdiri": 2014, "Jenis Apartemen/Rusun": "Apartemen Kelas Menengah" }, "geometry": { "type": "Point", "coordinates": [ 106.7078162, -6.1512423 ] } },
{ "type": "Feature", "properties": { "Nama Apartemen": "Apartment Capitol suites", "Latitude": -6.1804272, "Longitude": 106.8364622, "Kelurahan": "Senen", "Kecamatan": "Senen", "Kota Administrasi": "Jakarta Pusat", "Tahun Berdiri": 2014, "Jenis Apartemen/Rusun": "Apartemen Kelas Menengah" }, "geometry": { "type": "Point", "coordinates": [ 106.8364622, -6.1804272 ] } },
{ "type": "Feature", "properties": { "Nama Apartemen": "Ambassade Residences", "Latitude": -6.2225528, "Longitude": 106.8308995, "Kelurahan": "Karet Kuningan", "Kecamatan": "Setia Budi", "Kota Administrasi": "Jakarta Selatan", "Tahun Berdiri": 2014, "Jenis Apartemen/Rusun": "Apartemen Kelas Menengah" }, "geometry": { "type": "Point", "coordinates": [ 106.8308995, -6.2225528 ] } },
{ "type": "Feature", "properties": { "Nama Apartemen": "Apartemen Pancoran Riverside", "Latitude": -6.2514611, "Longitude": 106.8617, "Kelurahan": "Pengadegan", "Kecamatan": "Pancoran", "Kota Administrasi": "Jakarta Selatan", "Tahun Berdiri": 2014, "Jenis Apartemen/Rusun": "Apartemen Kelas Menengah" }, "geometry": { "type": "Point", "coordinates": [ 106.8617, -6.2514611 ] } },
{ "type": "Feature", "properties": { "Nama Apartemen": "Apartemen Casablanca East Residence", "Latitude": -6.2240199, "Longitude": 106.89718, "Kelurahan": "Pondok Bambu", "Kecamatan": "Duren Sawit", "Kota Administrasi": "Jakarta Timur", "Tahun Berdiri": 2014, "Jenis Apartemen/Rusun": "Apartemen Kelas Menengah" }, "geometry": { "type": "Point", "coordinates": [ 106.89718, -6.2240199 ] } },
{ "type": "Feature", "properties": { "Nama Apartemen": "Apartemen The H Residence", "Latitude": -6.2453241, "Longitude": 106.8693704, "Kelurahan": "Cipinang Cempedak", "Kecamatan": "Jatinegara", "Kota Administrasi": "Jakarta Timur", "Tahun Berdiri": 2014, "Jenis Apartemen/Rusun": "Apartemen Kelas Menengah" }, "geometry": { "type": "Point", "coordinates": [ 106.8693704, -6.2453241 ] } },
{ "type": "Feature", "properties": { "Nama Apartemen": "Rumah Susun Jatinegara Barat", "Latitude": -6.223038, "Longitude": 106.8632801, "Kelurahan": "Kampung Melayu", "Kecamatan": "Jatinegara", "Kota Administrasi": "Jakarta Timur", "Tahun Berdiri": 2014, "Jenis Apartemen/Rusun": "Rusunawa" }, "geometry": { "type": "Point", "coordinates": [ 106.8632801, -6.223038 ] } },
{ "type": "Feature", "properties": { "Nama Apartemen": "Rumah Susun Pulo Gebang", "Latitude": -6.2010868, "Longitude": 106.9495741, "Kelurahan": "Pulo Gebang", "Kecamatan": "Cakung", "Kota Administrasi": "Jakarta Timur", "Tahun Berdiri": 2014, "Jenis Apartemen/Rusun": "Rusunawa" }, "geometry": { "type": "Point", "coordinates": [ 106.9495741, -6.2010868 ] } },
{ "type": "Feature", "properties": { "Nama Apartemen": "Rumah Susun Tegal Alur", "Latitude": -6.1149656, "Longitude": 106.7126072, "Kelurahan": "Cakung Barat", "Kecamatan": "Cakung", "Kota Administrasi": "Jakarta Timur", "Tahun Berdiri": 2014, "Jenis Apartemen/Rusun": "Rusunawa" }, "geometry": { "type": "Point", "coordinates": [ 106.7126072, -6.1149656 ] } },
{ "type": "Feature", "properties": { "Nama Apartemen": "Apartemen Gading Greenhill", "Latitude": -6.1476318, "Longitude": 106.9165607, "Kelurahan": "Pegangsaan Dua", "Kecamatan": "Kelapa Gading", "Kota Administrasi": "Jakarta Utara", "Tahun Berdiri": 2014, "Jenis Apartemen/Rusun": "Apartemen Kelas Menengah" }, "geometry": { "type": "Point", "coordinates": [ 106.9165607, -6.1476318 ] } },
{ "type": "Feature", "properties": { "Nama Apartemen": "Apartemen Sunter Icon", "Latitude": -6.1347856, "Longitude": 106.8533945, "Kelurahan": "Sunter Agung", "Kecamatan": "Tanjung Priok", "Kota Administrasi": "Jakarta Utara", "Tahun Berdiri": 2014, "Jenis Apartemen/Rusun": "Apartemen Kelas Menengah" }, "geometry": { "type": "Point", "coordinates": [ 106.8533945, -6.1347856 ] } },
{ "type": "Feature", "properties": { "Nama Apartemen": "Apartemen Belmont Residence", "Latitude": -6.2008517, "Longitude": 106.7605286, "Kelurahan": "Srengseng", "Kecamatan": "Kembangan", "Kota Administrasi": "Jakarta Barat", "Tahun Berdiri": 2015, "Jenis Apartemen/Rusun": "Apartemen Kelas Menengah" }, "geometry": { "type": "Point", "coordinates": [ 106.7605286, -6.2008517 ] } },
{ "type": "Feature", "properties": { "Nama Apartemen": "Metro Park Residence", "Latitude": -6.1866044, "Longitude": 106.7576058, "Kelurahan": "Kedoya Selatan", "Kecamatan": "Kebon Jeruk", "Kota Administrasi": "Jakarta Barat", "Tahun Berdiri": 2015, "Jenis Apartemen/Rusun": "Apartemen Kelas Menengah" }, "geometry": { "type": "Point", "coordinates": [ 106.7576058, -6.1866044 ] } },
{ "type": "Feature", "properties": { "Nama Apartemen": "Rumah Susun Tambora", "Latitude": -6.1476851, "Longitude": 106.795966, "Kelurahan": "Angke", "Kecamatan": "Tambora", "Kota Administrasi": "Jakarta Barat", "Tahun Berdiri": 2015, "Jenis Apartemen/Rusun": "Rusunawa" }, "geometry": { "type": "Point", "coordinates": [ 106.795966, -6.1476851 ] } },
{ "type": "Feature", "properties": { "Nama Apartemen": "Capitol Park Residence", "Latitude": -6.197115, "Longitude": 106.8473761, "Kelurahan": "Kenari", "Kecamatan": "Senen", "Kota Administrasi": "Jakarta Pusat", "Tahun Berdiri": 2015, "Jenis Apartemen/Rusun": "Apartemen Kelas Menengah" }, "geometry": { "type": "Point", "coordinates": [ 106.8473761, -6.197115 ] } },
{ "type": "Feature", "properties": { "Nama Apartemen": "Pasar Baru Mansion", "Latitude": -6.1626802, "Longitude": 106.8322446, "Kelurahan": "Pasar Baru", "Kecamatan": "Sawah Besar", "Kota Administrasi": "Jakarta Pusat", "Tahun Berdiri": 2015, "Jenis Apartemen/Rusun": "Apartemen Kelas Menengah" }, "geometry": { "type": "Point", "coordinates": [ 106.8322446, -6.1626802 ] } },
{ "type": "Feature", "properties": { "Nama Apartemen": "Apartemen Providence Park", "Latitude": -6.2239023, "Longitude": 106.7845006, "Kelurahan": "Grogol Utara", "Kecamatan": "Kebayoran Lama", "Kota Administrasi": "Jakarta Selatan", "Tahun Berdiri": 2015, "Jenis Apartemen/Rusun": "Apartemen Luxury" }, "geometry": { "type": "Point", "coordinates": [ 106.7845006, -6.2239023 ] } },
{ "type": "Feature", "properties": { "Nama Apartemen": "Apartemen Setiabudi Sky Garden", "Latitude": -6.2158713, "Longitude": 106.8241806, "Kelurahan": "Karet", "Kecamatan": "Setia Budi", "Kota Administrasi": "Jakarta Selatan", "Tahun Berdiri": 2015, "Jenis Apartemen/Rusun": "Apartemen Mewah" }, "geometry": { "type": "Point", "coordinates": [ 106.8241806, -6.2158713 ] } },
{ "type": "Feature", "properties": { "Nama Apartemen": "Bintaro Parkview", "Latitude": -6.2583003, "Longitude": 106.7596401, "Kelurahan": "Pesanggrahan", "Kecamatan": "Pesanggrahan", "Kota Administrasi": "Jakarta Selatan", "Tahun Berdiri": 2015, "Jenis Apartemen/Rusun": "Apartemen Kelas Menengah" }, "geometry": { "type": "Point", "coordinates": [ 106.7596401, -6.2583003 ] } },
{ "type": "Feature", "properties": { "Nama Apartemen": "Infinity Tower", "Latitude": -6.2365821, "Longitude": 106.7638956, "Kelurahan": "Senayan", "Kecamatan": "Kebayoran Baru", "Kota Administrasi": "Jakarta Selatan", "Tahun Berdiri": 2015, "Jenis Apartemen/Rusun": "Apartemen Mewah" }, "geometry": { "type": "Point", "coordinates": [ 106.7638956, -6.2365821 ] } },
{ "type": "Feature", "properties": { "Nama Apartemen": "Kebayoran Icon Apartment & Office", "Latitude": -6.2376742, "Longitude": 106.7783581, "Kelurahan": "Cipulir", "Kecamatan": "Kebayoran Lama", "Kota Administrasi": "Jakarta Selatan", "Tahun Berdiri": 2015, "Jenis Apartemen/Rusun": "Apartemen Kelas Menengah" }, "geometry": { "type": "Point", "coordinates": [ 106.7783581, -6.2376742 ] } },
{ "type": "Feature", "properties": { "Nama Apartemen": "Oakwood Suites La Maison Jakarta", "Latitude": -6.2463264, "Longitude": 106.7916075, "Kelurahan": "Kramat Pela", "Kecamatan": "Kebayoran Baru", "Kota Administrasi": "Jakarta Selatan", "Tahun Berdiri": 2015, "Jenis Apartemen/Rusun": "Apartemen Mewah" }, "geometry": { "type": "Point", "coordinates": [ 106.7916075, -6.2463264 ] } },
{ "type": "Feature", "properties": { "Nama Apartemen": "The Elements", "Latitude": -6.2168723, "Longitude": 106.834211, "Kelurahan": "Karet Kuningan", "Kecamatan": "Setia Budi", "Kota Administrasi": "Jakarta Selatan", "Tahun Berdiri": 2015, "Jenis Apartemen/Rusun": "Apartemen Mewah" }, "geometry": { "type": "Point", "coordinates": [ 106.834211, -6.2168723 ] } },
{ "type": "Feature", "properties": { "Nama Apartemen": "Bassura City", "Latitude": -6.2233053, "Longitude": 106.8805886, "Kelurahan": "Cipinang Besar Selatan", "Kecamatan": "Jatinegara", "Kota Administrasi": "Jakarta Timur", "Tahun Berdiri": 2015, "Jenis Apartemen/Rusun": "Apartemen Kelas Menengah" }, "geometry": { "type": "Point", "coordinates": [ 106.8805886, -6.2233053 ] } },
{ "type": "Feature", "properties": { "Nama Apartemen": "Rumah Susun Jatinegara Kaum", "Latitude": -6.2112274, "Longitude": 106.8946516, "Kelurahan": "Jatinegara Kaum", "Kecamatan": "Pulo Gadung", "Kota Administrasi": "Jakarta Timur", "Tahun Berdiri": 2015, "Jenis Apartemen/Rusun": "Rusunawa" }, "geometry": { "type": "Point", "coordinates": [ 106.8946516, -6.2112274 ] } },
{ "type": "Feature", "properties": { "Nama Apartemen": "Tifolia Apartment", "Latitude": -6.1753466, "Longitude": 106.8927069, "Kelurahan": "Kayu Putih", "Kecamatan": "Pulo Gadung", "Kota Administrasi": "Jakarta Timur", "Tahun Berdiri": 2015, "Jenis Apartemen/Rusun": "Apartemen Kelas Menengah" }, "geometry": { "type": "Point", "coordinates": [ 106.8927069, -6.1753466 ] } },
{ "type": "Feature", "properties": { "Nama Apartemen": "Titanium Square", "Latitude": -6.3411219, "Longitude": 106.8702321, "Kelurahan": "Pekayon", "Kecamatan": "Pasar Rebo", "Kota Administrasi": "Jakarta Timur", "Tahun Berdiri": 2015, "Jenis Apartemen/Rusun": "Apartemen Kelas Menengah" }, "geometry": { "type": "Point", "coordinates": [ 106.8702321, -6.3411219 ] } },
{ "type": "Feature", "properties": { "Nama Apartemen": "Greenbay Pluit", "Latitude": -6.1085428, "Longitude": 106.7764231, "Kelurahan": "Pluit", "Kecamatan": "Penjaringan", "Kota Administrasi": "Jakarta Utara", "Tahun Berdiri": 2015, "Jenis Apartemen/Rusun": "Apartemen Kelas Menengah" }, "geometry": { "type": "Point", "coordinates": [ 106.7764231, -6.1085428 ] } },
{ "type": "Feature", "properties": { "Nama Apartemen": "Rumah Susun Rawa Bebek", "Latitude": -6.1989362, "Longitude": 106.9646643, "Kelurahan": "Rorotan", "Kecamatan": "Cilincing", "Kota Administrasi": "Jakarta Utara", "Tahun Berdiri": 2015, "Jenis Apartemen/Rusun": "Rusunawa" }, "geometry": { "type": "Point", "coordinates": [ 106.9646643, -6.1989362 ] } },
{ "type": "Feature", "properties": { "Nama Apartemen": "Apartemen Daan Mogot City", "Latitude": -6.1571022, "Longitude": 106.7090483, "Kelurahan": "Semanan", "Kecamatan": "Kali Deres", "Kota Administrasi": "Jakarta Barat", "Tahun Berdiri": 2016, "Jenis Apartemen/Rusun": "Apartemen Kelas Menengah" }, "geometry": { "type": "Point", "coordinates": [ 106.7090483, -6.1571022 ] } },
{ "type": "Feature", "properties": { "Nama Apartemen": "Apartemen Maqna Residence", "Latitude": -6.1980321, "Longitude": 106.7571579, "Kelurahan": "Meruya Utara", "Kecamatan": "Kembangan", "Kota Administrasi": "Jakarta Barat", "Tahun Berdiri": 2016, "Jenis Apartemen/Rusun": "Apartemen Kelas Menengah" }, "geometry": { "type": "Point", "coordinates": [ 106.7571579, -6.1980321 ] } },
{ "type": "Feature", "properties": { "Nama Apartemen": "Apartemen Neo Soho", "Latitude": -6.1757233, "Longitude": 106.7198854, "Kelurahan": "Tanjung Duren Selatan", "Kecamatan": "Grogol Petamburan", "Kota Administrasi": "Jakarta Barat", "Tahun Berdiri": 2016, "Jenis Apartemen/Rusun": "Apartemen Kelas Menengah" }, "geometry": { "type": "Point", "coordinates": [ 106.7198854, -6.1757233 ] } },
{ "type": "Feature", "properties": { "Nama Apartemen": "Citra Living Apartment", "Latitude": -6.1458144, "Longitude": 106.7019291, "Kelurahan": "Kalideres", "Kecamatan": "Kali Deres", "Kota Administrasi": "Jakarta Barat", "Tahun Berdiri": 2016, "Jenis Apartemen/Rusun": "Apartemen Kelas Menengah" }, "geometry": { "type": "Point", "coordinates": [ 106.7019291, -6.1458144 ] } },
{ "type": "Feature", "properties": { "Nama Apartemen": "Rumah Susun Ks Tubun", "Latitude": -6.1861571, "Longitude": 106.8049192, "Kelurahan": "Kota Bambu Selatan", "Kecamatan": "Palmerah", "Kota Administrasi": "Jakarta Barat", "Tahun Berdiri": 2016, "Jenis Apartemen/Rusun": "Rusunawa" }, "geometry": { "type": "Point", "coordinates": [ 106.8049192, -6.1861571 ] } },
{ "type": "Feature", "properties": { "Nama Apartemen": "Rumah Susun Jatirawasari", "Latitude": -6.1834977, "Longitude": 106.8614509, "Kelurahan": "Cempaka Putih Barat", "Kecamatan": "Cempaka Putih", "Kota Administrasi": "Jakarta Pusat", "Tahun Berdiri": 2016, "Jenis Apartemen/Rusun": "Rusunawa" }, "geometry": { "type": "Point", "coordinates": [ 106.8614509, -6.1834977 ] } },
{ "type": "Feature", "properties": { "Nama Apartemen": "1 Park Avenue", "Latitude": -6.2462025, "Longitude": 106.7871583, "Kelurahan": "Kebayoran Lama Utara", "Kecamatan": "Kebayoran Lama", "Kota Administrasi": "Jakarta Selatan", "Tahun Berdiri": 2016, "Jenis Apartemen/Rusun": "Apartemen Mewah" }, "geometry": { "type": "Point", "coordinates": [ 106.7871583, -6.2462025 ] } },
{ "type": "Feature", "properties": { "Nama Apartemen": "Lexington Residence", "Latitude": -6.2732474, "Longitude": 106.763917, "Kelurahan": "Bintaro", "Kecamatan": "Pesanggrahan", "Kota Administrasi": "Jakarta Selatan", "Tahun Berdiri": 2016, "Jenis Apartemen/Rusun": "Apartemen Kelas Menengah" }, "geometry": { "type": "Point", "coordinates": [ 106.763917, -6.2732474 ] } },
{ "type": "Feature", "properties": { "Nama Apartemen": "Rumah Susun Cakung Barat", "Latitude": -6.169917, "Longitude": 106.9295159, "Kelurahan": "Cakung Barat", "Kecamatan": "Cakung", "Kota Administrasi": "Jakarta Timur", "Tahun Berdiri": 2016, "Jenis Apartemen/Rusun": "Rusunawa" }, "geometry": { "type": "Point", "coordinates": [ 106.9295159, -6.169917 ] } },
{ "type": "Feature", "properties": { "Nama Apartemen": "Rumah Susun Km 2 Cakung Barat", "Latitude": -6.1831269, "Longitude": 106.9302361, "Kelurahan": "Cakung Barat", "Kecamatan": "Cakung", "Kota Administrasi": "Jakarta Timur", "Tahun Berdiri": 2016, "Jenis Apartemen/Rusun": "Rusunawa" }, "geometry": { "type": "Point", "coordinates": [ 106.9302361, -6.1831269 ] } },
{ "type": "Feature", "properties": { "Nama Apartemen": "Rumah Susun PIK Pulo Gadung", "Latitude": -6.205944, "Longitude": 106.9253003, "Kelurahan": "Penggilingan", "Kecamatan": "Cakung", "Kota Administrasi": "Jakarta Timur", "Tahun Berdiri": 2016, "Jenis Apartemen/Rusun": "Rusunawa" }, "geometry": { "type": "Point", "coordinates": [ 106.9253003, -6.205944 ] } },
{ "type": "Feature", "properties": { "Nama Apartemen": "Apartemen Sherwood", "Latitude": -6.1528588, "Longitude": 106.904323, "Kelurahan": "Kelapa Gading Barat", "Kecamatan": "Kelapa Gading", "Kota Administrasi": "Jakarta Utara", "Tahun Berdiri": 2016, "Jenis Apartemen/Rusun": "Apartemen Mewah" }, "geometry": { "type": "Point", "coordinates": [ 106.904323, -6.1528588 ] } },
{ "type": "Feature", "properties": { "Nama Apartemen": "The Kensington Royal Suites", "Latitude": -6.1723741, "Longitude": 106.8955891, "Kelurahan": "Kelapa Gading Timur", "Kecamatan": "Kelapa Gading", "Kota Administrasi": "Jakarta Utara", "Tahun Berdiri": 2016, "Jenis Apartemen/Rusun": "Apartemen Mewah" }, "geometry": { "type": "Point", "coordinates": [ 106.8955891, -6.1723741 ] } },
{ "type": "Feature", "properties": { "Nama Apartemen": "AKR Gallery West Apartment", "Latitude": -6.1916045, "Longitude": 106.7656039, "Kelurahan": "Kebon Jeruk", "Kecamatan": "Kebon Jeruk", "Kota Administrasi": "Jakarta Barat", "Tahun Berdiri": 2017, "Jenis Apartemen/Rusun": "Apartemen Kelas Menengah" }, "geometry": { "type": "Point", "coordinates": [ 106.7656039, -6.1916045 ] } },
{ "type": "Feature", "properties": { "Nama Apartemen": "Puri Orchard Apartment", "Latitude": -6.1660196, "Longitude": 106.7292438, "Kelurahan": "Rawa Buaya", "Kecamatan": "Cengkareng", "Kota Administrasi": "Jakarta Barat", "Tahun Berdiri": 2017, "Jenis Apartemen/Rusun": "Apartemen Kelas Menengah" }, "geometry": { "type": "Point", "coordinates": [ 106.7292438, -6.1660196 ] } },
{ "type": "Feature", "properties": { "Nama Apartemen": "Rusun Susun Rawa Buaya", "Latitude": -6.1555231, "Longitude": 106.7259005, "Kelurahan": "Rawa Buaya", "Kecamatan": "Cengkareng", "Kota Administrasi": "Jakarta Barat", "Tahun Berdiri": 2017, "Jenis Apartemen/Rusun": "Rusunawa" }, "geometry": { "type": "Point", "coordinates": [ 106.7259005, -6.1555231 ] } },
{ "type": "Feature", "properties": { "Nama Apartemen": "Veranda Residence Puri", "Latitude": -6.189432, "Longitude": 106.7537584, "Kelurahan": "Kembangan Selatan", "Kecamatan": "Kembangan", "Kota Administrasi": "Jakarta Barat", "Tahun Berdiri": 2017, "Jenis Apartemen/Rusun": "Apartemen Mewah" }, "geometry": { "type": "Point", "coordinates": [ 106.7537584, -6.189432 ] } },
{ "type": "Feature", "properties": { "Nama Apartemen": "WESTPOINT APARTMENT Marketing Gallery", "Latitude": -6.1640788, "Longitude": 106.7697767, "Kelurahan": "Kedoya Utara", "Kecamatan": "Kebon Jeruk", "Kota Administrasi": "Jakarta Barat", "Tahun Berdiri": 2017, "Jenis Apartemen/Rusun": "Apartemen Kelas Menengah" }, "geometry": { "type": "Point", "coordinates": [ 106.7697767, -6.1640788 ] } },
{ "type": "Feature", "properties": { "Nama Apartemen": "Apartemen Casa Domaine", "Latitude": -6.201896, "Longitude": 106.8136477, "Kelurahan": "Karet Tengsin", "Kecamatan": "Tanah Abang", "Kota Administrasi": "Jakarta Pusat", "Tahun Berdiri": 2017, "Jenis Apartemen/Rusun": "Apartemen Mewah" }, "geometry": { "type": "Point", "coordinates": [ 106.8136477, -6.201896 ] } },
{ "type": "Feature", "properties": { "Nama Apartemen": "Apartemen Elpis Residence", "Latitude": -6.1487064, "Longitude": 106.8365187, "Kelurahan": "Gunung Sahari Utara", "Kecamatan": "Sawah Besar", "Kota Administrasi": "Jakarta Pusat", "Tahun Berdiri": 2017, "Jenis Apartemen/Rusun": "Apartemen Kelas Menengah" }, "geometry": { "type": "Point", "coordinates": [ 106.8365187, -6.1487064 ] } },
{ "type": "Feature", "properties": { "Nama Apartemen": "Apartemen Four Winds", "Latitude": -6.2231446, "Longitude": 106.7871625, "Kelurahan": "Grogol Utara", "Kecamatan": "Kebayoran Lama", "Kota Administrasi": "Jakarta Selatan", "Tahun Berdiri": 2017, "Jenis Apartemen/Rusun": "Apartemen Mewah" }, "geometry": { "type": "Point", "coordinates": [ 106.7871625, -6.2231446 ] } },
{ "type": "Feature", "properties": { "Nama Apartemen": "Grand Pakubuwono Terrace", "Latitude": -6.2364551, "Longitude": 106.769165, "Kelurahan": "Cipulir", "Kecamatan": "Kebayoran Lama", "Kota Administrasi": "Jakarta Selatan", "Tahun Berdiri": 2017, "Jenis Apartemen/Rusun": "Apartemen Kelas Menengah" }, "geometry": { "type": "Point", "coordinates": [ 106.769165, -6.2364551 ] } },
{ "type": "Feature", "properties": { "Nama Apartemen": "Rumah Susun Ujung Menteng", "Latitude": -6.1862227, "Longitude": 106.9669456, "Kelurahan": "Ujung Menteng", "Kecamatan": "Cakung", "Kota Administrasi": "Jakarta Timur", "Tahun Berdiri": 2017, "Jenis Apartemen/Rusun": "Rusunawa" }, "geometry": { "type": "Point", "coordinates": [ 106.9669456, -6.1862227 ] } },
{ "type": "Feature", "properties": { "Nama Apartemen": "Rumah Susun Semper Barat", "Latitude": -6.1352011, "Longitude": 106.9286551, "Kelurahan": "Sukapura", "Kecamatan": "Cilincing", "Kota Administrasi": "Jakarta Utara", "Tahun Berdiri": 2017, "Jenis Apartemen/Rusun": "Rusunawa" }, "geometry": { "type": "Point", "coordinates": [ 106.9286551, -6.1352011 ] } },
{ "type": "Feature", "properties": { "Nama Apartemen": "Springhill Terrace Residences Tower Oakwood", "Latitude": -6.149715, "Longitude": 106.8463584, "Kelurahan": "Pademangan Timur", "Kecamatan": "Pademangan", "Kota Administrasi": "Jakarta Utara", "Tahun Berdiri": 2017, "Jenis Apartemen/Rusun": "Apartemen Kelas Menengah" }, "geometry": { "type": "Point", "coordinates": [ 106.8463584, -6.149715 ] } },
{ "type": "Feature", "properties": { "Nama Apartemen": "The Mansion Apartment - Tower Dorada", "Latitude": -6.1477604, "Longitude": 106.8502119, "Kelurahan": "Pademangan Timur", "Kecamatan": "Pademangan", "Kota Administrasi": "Jakarta Utara", "Tahun Berdiri": 2017, "Jenis Apartemen/Rusun": "Apartemen Kelas Menengah" }, "geometry": { "type": "Point", "coordinates": [ 106.8502119, -6.1477604 ] } },
{ "type": "Feature", "properties": { "Nama Apartemen": "Apartemen LUCKY TOWER RESIDENCES", "Latitude": -6.1408608, "Longitude": 106.8107591, "Kelurahan": "Pinangsia", "Kecamatan": "Taman Sari", "Kota Administrasi": "Jakarta Barat", "Tahun Berdiri": 2018, "Jenis Apartemen/Rusun": "Apartemen Mewah" }, "geometry": { "type": "Point", "coordinates": [ 106.8107591, -6.1408608 ] } },
{ "type": "Feature", "properties": { "Nama Apartemen": "West Vista Apartment", "Latitude": -6.1581743, "Longitude": 106.7241116, "Kelurahan": "Duri Kosambi", "Kecamatan": "Cengkareng", "Kota Administrasi": "Jakarta Barat", "Tahun Berdiri": 2018, "Jenis Apartemen/Rusun": "Apartemen Kelas Menengah" }, "geometry": { "type": "Point", "coordinates": [ 106.7241116, -6.1581743 ] } },
{ "type": "Feature", "properties": { "Nama Apartemen": "Anandamaya Residences", "Latitude": -6.2082724, "Longitude": 106.8174173, "Kelurahan": "Karet Tengsin", "Kecamatan": "Tanah Abang", "Kota Administrasi": "Jakarta Pusat", "Tahun Berdiri": 2018, "Jenis Apartemen/Rusun": "Apartemen Luxury" }, "geometry": { "type": "Point", "coordinates": [ 106.8174173, -6.2082724 ] } },
{ "type": "Feature", "properties": { "Nama Apartemen": "Menteng Park Apartment", "Latitude": -6.19068, "Longitude": 106.8376365, "Kelurahan": "Cikini", "Kecamatan": "Menteng", "Kota Administrasi": "Jakarta Pusat", "Tahun Berdiri": 2018, "Jenis Apartemen/Rusun": "Apartemen Kelas Menengah" }, "geometry": { "type": "Point", "coordinates": [ 106.8376365, -6.19068 ] } },
{ "type": "Feature", "properties": { "Nama Apartemen": "Sudirman Suites Apartment", "Latitude": -6.2156871, "Longitude": 106.8135778, "Kelurahan": "Bendungan Hilir", "Kecamatan": "Tanah Abang", "Kota Administrasi": "Jakarta Pusat", "Tahun Berdiri": 2018, "Jenis Apartemen/Rusun": "Apartemen Mewah" }, "geometry": { "type": "Point", "coordinates": [ 106.8135778, -6.2156871 ] } },
{ "type": "Feature", "properties": { "Nama Apartemen": "Apartemen Arumaya Residence", "Latitude": -6.2925853, "Longitude": 106.780192, "Kelurahan": "Lebak Bulus", "Kecamatan": "Cilandak", "Kota Administrasi": "Jakarta Selatan", "Tahun Berdiri": 2018, "Jenis Apartemen/Rusun": "Apartemen Mewah" }, "geometry": { "type": "Point", "coordinates": [ 106.780192, -6.2925853 ] } },
{ "type": "Feature", "properties": { "Nama Apartemen": "Branz Simatupang Apartment", "Latitude": -6.2933555, "Longitude": 106.7816182, "Kelurahan": "Cilandak Barat", "Kecamatan": "Cilandak", "Kota Administrasi": "Jakarta Selatan", "Tahun Berdiri": 2018, "Jenis Apartemen/Rusun": "Apartemen Mewah" }, "geometry": { "type": "Point", "coordinates": [ 106.7816182, -6.2933555 ] } },
{ "type": "Feature", "properties": { "Nama Apartemen": "Callia Apartment", "Latitude": -6.1759199, "Longitude": 106.8933312, "Kelurahan": "Kayu Putih", "Kecamatan": "Pulo Gadung", "Kota Administrasi": "Jakarta Timur", "Tahun Berdiri": 2018, "Jenis Apartemen/Rusun": "Apartemen Kelas Menengah" }, "geometry": { "type": "Point", "coordinates": [ 106.8933312, -6.1759199 ] } },
{ "type": "Feature", "properties": { "Nama Apartemen": "Signature Park Grande Apartement MT Haryono", "Latitude": -6.2448441, "Longitude": 106.8616367, "Kelurahan": "Cawang", "Kecamatan": "Kramat Jati", "Kota Administrasi": "Jakarta Timur", "Tahun Berdiri": 2018, "Jenis Apartemen/Rusun": "Apartemen Kelas Menengah" }, "geometry": { "type": "Point", "coordinates": [ 106.8616367, -6.2448441 ] } },
{ "type": "Feature", "properties": { "Nama Apartemen": "Rumah Susun Rorotan", "Latitude": -6.1509286, "Longitude": 106.954511, "Kelurahan": "Semper Barat", "Kecamatan": "Cilincing", "Kota Administrasi": "Jakarta Utara", "Tahun Berdiri": 2018, "Jenis Apartemen/Rusun": "Rusunawa" }, "geometry": { "type": "Point", "coordinates": [ 106.954511, -6.1509286 ] } },
{ "type": "Feature", "properties": { "Nama Apartemen": "Apartemen Sentraland Cengkareng", "Latitude": -6.1399034, "Longitude": 106.7387132, "Kelurahan": "Cengkareng Timur", "Kecamatan": "Cengkareng", "Kota Administrasi": "Jakarta Barat", "Tahun Berdiri": 2019, "Jenis Apartemen/Rusun": "Apartemen Kelas Menengah" }, "geometry": { "type": "Point", "coordinates": [ 106.7387132, -6.1399034 ] } },
{ "type": "Feature", "properties": { "Nama Apartemen": "Apartemen Taman Anggrek", "Latitude": -6.1797178, "Longitude": 106.7913189, "Kelurahan": "Tanjung Duren Selatan", "Kecamatan": "Grogol Petamburan", "Kota Administrasi": "Jakarta Barat", "Tahun Berdiri": 2019, "Jenis Apartemen/Rusun": "Apartemen Kelas Menengah" }, "geometry": { "type": "Point", "coordinates": [ 106.7913189, -6.1797178 ] } },
{ "type": "Feature", "properties": { "Nama Apartemen": "Apartemen Samesta Mahata Tanjung Barat", "Latitude": -6.3093805, "Longitude": 106.8356017, "Kelurahan": "Tanjung Barat", "Kecamatan": "Jagakarsa", "Kota Administrasi": "Jakarta Selatan", "Tahun Berdiri": 2019, "Jenis Apartemen/Rusun": "Apartemen Kelas Menengah" }, "geometry": { "type": "Point", "coordinates": [ 106.8356017, -6.3093805 ] } },
{ "type": "Feature", "properties": { "Nama Apartemen": "Bellevue Place Apartemen", "Latitude": -6.2424699, "Longitude": 106.8513266, "Kelurahan": "Tebet Timur", "Kecamatan": "Tebet", "Kota Administrasi": "Jakarta Selatan", "Tahun Berdiri": 2019, "Jenis Apartemen/Rusun": "Apartemen Kelas Menengah" }, "geometry": { "type": "Point", "coordinates": [ 106.8513266, -6.2424699 ] } },
{ "type": "Feature", "properties": { "Nama Apartemen": "South Hills", "Latitude": -6.2230495, "Longitude": 106.8307133, "Kelurahan": "Karet Kuningan", "Kecamatan": "Setia Budi", "Kota Administrasi": "Jakarta Selatan", "Tahun Berdiri": 2019, "Jenis Apartemen/Rusun": "Apartemen Mewah" }, "geometry": { "type": "Point", "coordinates": [ 106.8307133, -6.2230495 ] } },
{ "type": "Feature", "properties": { "Nama Apartemen": "Rumah Susun BLK Pasar Rebo", "Latitude": -6.3118776, "Longitude": 106.8585101, "Kelurahan": "Susukan", "Kecamatan": "Ciracas", "Kota Administrasi": "Jakarta Timur", "Tahun Berdiri": 2019, "Jenis Apartemen/Rusun": "Rusunawa" }, "geometry": { "type": "Point", "coordinates": [ 106.8585101, -6.3118776 ] } },
{ "type": "Feature", "properties": { "Nama Apartemen": "Rumah Susun Penggilingan", "Latitude": -6.2062172, "Longitude": 106.9294422, "Kelurahan": "Penggilingan", "Kecamatan": "Cakung", "Kota Administrasi": "Jakarta Timur", "Tahun Berdiri": 2019, "Jenis Apartemen/Rusun": "Rusunawa" }, "geometry": { "type": "Point", "coordinates": [ 106.9294422, -6.2062172 ] } },
{ "type": "Feature", "properties": { "Nama Apartemen": "Gold Coast Apartment PIK", "Latitude": -6.1018096, "Longitude": 106.736981, "Kelurahan": "Kamal Muara", "Kecamatan": "Penjaringan", "Kota Administrasi": "Jakarta Utara", "Tahun Berdiri": 2019, "Jenis Apartemen/Rusun": "Apartemen Kelas Menengah" }, "geometry": { "type": "Point", "coordinates": [ 106.736981, -6.1018096 ] } },
{ "type": "Feature", "properties": { "Nama Apartemen": "Rumah Susun Nagrak", "Latitude": -6.1247323, "Longitude": 106.9509605, "Kelurahan": "Cilincing", "Kecamatan": "Cilincing", "Kota Administrasi": "Jakarta Utara", "Tahun Berdiri": 2019, "Jenis Apartemen/Rusun": "Rusunawa" }, "geometry": { "type": "Point", "coordinates": [ 106.9509605, -6.1247323 ] } },
{ "type": "Feature", "properties": { "Nama Apartemen": "Aerium Residence", "Latitude": -6.1673631, "Longitude": 106.7400919, "Kelurahan": "Kembangan Utara", "Kecamatan": "Kembangan", "Kota Administrasi": "Jakarta Barat", "Tahun Berdiri": 2020, "Jenis Apartemen/Rusun": "Apartemen Kelas Menengah" }, "geometry": { "type": "Point", "coordinates": [ 106.7400919, -6.1673631 ] } },
{ "type": "Feature", "properties": { "Nama Apartemen": "Green Sedayu Apartment", "Latitude": -6.1387152, "Longitude": 106.7283593, "Kelurahan": "Cengkareng Barat", "Kecamatan": "Cengkareng", "Kota Administrasi": "Jakarta Barat", "Tahun Berdiri": 2020, "Jenis Apartemen/Rusun": "Apartemen Kelas Menengah" }, "geometry": { "type": "Point", "coordinates": [ 106.7283593, -6.1387152 ] } },
{ "type": "Feature", "properties": { "Nama Apartemen": "Puri Mansion Apartment", "Latitude": -6.1797603, "Longitude": 106.724198, "Kelurahan": "Duri Kosambi", "Kecamatan": "Cengkareng", "Kota Administrasi": "Jakarta Barat", "Tahun Berdiri": 2020, "Jenis Apartemen/Rusun": "Apartemen Kelas Menengah" }, "geometry": { "type": "Point", "coordinates": [ 106.724198, -6.1797603 ] } },
{ "type": "Feature", "properties": { "Nama Apartemen": "Holland Village Jakarta", "Latitude": -6.1677747, "Longitude": 106.8762815, "Kelurahan": "Cempaka Putih Timur", "Kecamatan": "Cempaka Putih", "Kota Administrasi": "Jakarta Pusat", "Tahun Berdiri": 2020, "Jenis Apartemen/Rusun": "Apartemen Kelas Menengah" }, "geometry": { "type": "Point", "coordinates": [ 106.8762815, -6.1677747 ] } },
{ "type": "Feature", "properties": { "Nama Apartemen": "SQ Res Apartment", "Latitude": 6.2960859, "Longitude": 106.785169, "Kelurahan": "Cilandak Barat", "Kecamatan": "Cilandak", "Kota Administrasi": "Jakarta Selatan", "Tahun Berdiri": 2020, "Jenis Apartemen/Rusun": "Apartemen Mewah" }, "geometry": { "type": "Point", "coordinates": [ 106.785169, 6.2960859 ] } },
{ "type": "Feature", "properties": { "Nama Apartemen": "Somerset Sudirman Jakarta", "Latitude": -6.2109646, "Longitude": 106.8108459, "Kelurahan": "Karet Tengsin", "Kecamatan": "Tanah Abang", "Kota Administrasi": "Jakarta Pusat", "Tahun Berdiri": 2021, "Jenis Apartemen/Rusun": "Apartemen Kelas Menengah" }, "geometry": { "type": "Point", "coordinates": [ 106.8108459, -6.2109646 ] } },
{ "type": "Feature", "properties": { "Nama Apartemen": "Southgate Residence", "Latitude": -6.30733, "Longitude": 106.8377386, "Kelurahan": "Tanjung Barat", "Kecamatan": "Jagakarsa", "Kota Administrasi": "Jakarta Selatan", "Tahun Berdiri": 2021, "Jenis Apartemen/Rusun": "Apartemen Kelas Menengah" }, "geometry": { "type": "Point", "coordinates": [ 106.8377386, -6.30733 ] } },
{ "type": "Feature", "properties": { "Nama Apartemen": "Rumah Susun Pulo Gebang Penggilingan", "Latitude": -6.204217, "Longitude": 106.9477753, "Kelurahan": "Jatinegara", "Kecamatan": "Cakung", "Kota Administrasi": "Jakarta Timur", "Tahun Berdiri": 2021, "Jenis Apartemen/Rusun": "Rusunawa" }, "geometry": { "type": "Point", "coordinates": [ 106.9477753, -6.204217 ] } },
{ "type": "Feature", "properties": { "Nama Apartemen": "Apartemen Vasaka Solterra", "Latitude": -6.2757067, "Longitude": 106.8290261, "Kelurahan": "Pejaten Barat", "Kecamatan": "Pasar Minggu", "Kota Administrasi": "Jakarta Selatan", "Tahun Berdiri": 2022, "Jenis Apartemen/Rusun": "Apartemen Kelas Menengah" }, "geometry": { "type": "Point", "coordinates": [ 106.8290261, -6.2757067 ] } },
{ "type": "Feature", "properties": { "Nama Apartemen": "The Veranda Resort Residence", "Latitude": -6.299947078, "Longitude": 106.773888, "Kelurahan": "Lebak Bulus", "Kecamatan": "Cilandak", "Kota Administrasi": "Jakarta Selatan", "Tahun Berdiri": 2022, "Jenis Apartemen/Rusun": "Apartemen Mewah" }, "geometry": { "type": "Point", "coordinates": [ 106.773888, -6.299947078 ] } },
{ "type": "Feature", "properties": { "Nama Apartemen": "Rumah Susun Pulo Jahe", "Latitude": -6.1962624, "Longitude": 106.9269148, "Kelurahan": "Pulo Gebang", "Kecamatan": "Cakung", "Kota Administrasi": "Jakarta Timur", "Tahun Berdiri": 2022, "Jenis Apartemen/Rusun": "Rusunawa" }, "geometry": { "type": "Point", "coordinates": [ 106.9269148, -6.1962624 ] } },
{ "type": "Feature", "properties": { "Nama Apartemen": "Rumah Susun Kelapa Gading", "Latitude": -6.174662, "Longitude": 106.9043296, "Kelurahan": "Kelapa Gading Timur", "Kecamatan": "Kelapa Gading", "Kota Administrasi": "Jakarta Utara", "Tahun Berdiri": 2022, "Jenis Apartemen/Rusun": "Rusunawa" }, "geometry": { "type": "Point", "coordinates": [ 106.9043296, -6.174662 ] } },
{ "type": "Feature", "properties": { "Nama Apartemen": "Rumah Susun Padat Karya Rorotan", "Latitude": -6.1442888, "Longitude": 106.9428178, "Kelurahan": "Rorotan", "Kecamatan": "Cilincing", "Kota Administrasi": "Jakarta Utara", "Tahun Berdiri": 2022, "Jenis Apartemen/Rusun": "Rusunawa" }, "geometry": { "type": "Point", "coordinates": [ 106.9428178, -6.1442888 ] } },
{ "type": "Feature", "properties": { "Nama Apartemen": "Citadines Gatot Subroto Jakarta", "Latitude": -6.2401, "Longitude": 106.8345356, "Kelurahan": "Menteng Dalam", "Kecamatan": "Tebet", "Kota Administrasi": "Jakarta Selatan", "Tahun Berdiri": 2023, "Jenis Apartemen/Rusun": "Apartemen Mewah" }, "geometry": { "type": "Point", "coordinates": [ 106.8345356, -6.2401 ] } },
{ "type": "Feature", "properties": { "Nama Apartemen": "Cleon Park Apartment Jakarta Garden City", "Latitude": -6.1744795, "Longitude": 106.9533673, "Kelurahan": "Cakung Timur", "Kecamatan": "Cakung", "Kota Administrasi": "Jakarta Timur", "Tahun Berdiri": 2023, "Jenis Apartemen/Rusun": "Apartemen Kelas Menengah" }, "geometry": { "type": "Point", "coordinates": [ 106.9533673, -6.1744795 ] } },
{ "type": "Feature", "properties": { "Nama Apartemen": "Menara Jakarta at Kemayoran", "Latitude": -6.1499789, "Longitude": 106.8459845, "Kelurahan": "Gunung Sahari Utara", "Kecamatan": "Sawah Besar", "Kota Administrasi": "Jakarta Pusat", "Tahun Berdiri": 2024, "Jenis Apartemen/Rusun": "Apartemen Mewah" }, "geometry": { "type": "Point", "coordinates": [ 106.8459845, -6.1499789 ] } },
{ "type": "Feature", "properties": { "Nama Apartemen": "Savyavasa", "Latitude": -6.2525638, "Longitude": 106.8029041, "Kelurahan": "Pulo", "Kecamatan": "Kebayoran Baru", "Kota Administrasi": "Jakarta Selatan", "Tahun Berdiri": 2024, "Jenis Apartemen/Rusun": "Apartemen Luxury" }, "geometry": { "type": "Point", "coordinates": [ 106.8029041, -6.2525638 ] } },
{ "type": "Feature", "properties": { "Nama Apartemen": "The Newton 2", "Latitude": -6.2207756, "Longitude": 106.8173129, "Kelurahan": "Karet Semanggi", "Kecamatan": "Setia Budi", "Kota Administrasi": "Jakarta Selatan", "Tahun Berdiri": 2024, "Jenis Apartemen/Rusun": "Apartemen Kelas Menengah" }, "geometry": { "type": "Point", "coordinates": [ 106.8173129, -6.2207756 ] } }
]
}
