{
"type": "FeatureCollection",
"name": "Transportasi 2014",
"crs": { "type": "name", "properties": { "name": "urn:ogc:def:crs:OGC:1.3:CRS84" } },
"features": [
{ "type": "Feature", "properties": { "moda": "BRT", "nama_stasiun_halte": "Terminal Pulogebang", "latitude": -6.2133582, "longitude": 106.9532164 }, "geometry": { "type": "Point", "coordinates": [ 106.9532164, -6.2133582 ] } },
{ "type": "Feature", "properties": { "moda": "BRT", "nama_stasiun_halte": "Walikota Jakarta Timur", "latitude": -6.2125126, "longitude": 106.9453986 }, "geometry": { "type": "Point", "coordinates": [ 106.9453986, -6.2125126 ] } },
{ "type": "Feature", "properties": { "moda": "BRT", "nama_stasiun_halte": "Penggilingan", "latitude": -6.2138508, "longitude": 106.9396384 }, "geometry": { "type": "Point", "coordinates": [ 106.9396384, -6.2138508 ] } },
{ "type": "Feature", "properties": { "moda": "BRT", "nama_stasiun_halte": "Perumnas Klender (Fly over pondok kopi)", "latitude": -6.2166987, "longitude": 106.930515 }, "geometry": { "type": "Point", "coordinates": [ 106.930515, -6.2166987 ] } },
{ "type": "Feature", "properties": { "moda": "BRT", "nama_stasiun_halte": "Kampung Sumur", "latitude": -6.2143965, "longitude": 106.9118444 }, "geometry": { "type": "Point", "coordinates": [ 106.9118444, -6.2143965 ] } },
{ "type": "Feature", "properties": { "moda": "BRT", "nama_stasiun_halte": "Buaran", "latitude": -6.2151454, "longitude": 106.9177161 }, "geometry": { "type": "Point", "coordinates": [ 106.9177161, -6.2151454 ] } },
{ "type": "Feature", "properties": { "moda": "BRT", "nama_stasiun_halte": "Fly Over Klender (Klender)", "latitude": -6.2136032, "longitude": 106.9030255 }, "geometry": { "type": "Point", "coordinates": [ 106.9030255, -6.2136032 ] } },
{ "type": "Feature", "properties": { "moda": "BRT", "nama_stasiun_halte": "Cempaka Timur (Cempaka Mas)", "latitude": -6.1636381, "longitude": 106.8770313 }, "geometry": { "type": "Point", "coordinates": [ 106.8770313, -6.1636381 ] } },
{ "type": "Feature", "properties": { "moda": "BRT", "nama_stasiun_halte": "Pasar Cempaka Putih", "latitude": -6.1723225, "longitude": 106.8624605 }, "geometry": { "type": "Point", "coordinates": [ 106.8624605, -6.1723225 ] } },
{ "type": "Feature", "properties": { "moda": "BRT", "nama_stasiun_halte": "Rawa Selatan", "latitude": -6.2155446, "longitude": 106.8743575 }, "geometry": { "type": "Point", "coordinates": [ 106.8743575, -6.2155446 ] } },
{ "type": "Feature", "properties": { "moda": "BRT", "nama_stasiun_halte": "Cempaka Putih", "latitude": -6.1723224, "longitude": 106.8624605 }, "geometry": { "type": "Point", "coordinates": [ 106.8624605, -6.1723224 ] } },
{ "type": "Feature", "properties": { "moda": "BRT", "nama_stasiun_halte": "Utan Kayu", "latitude": -6.1927457, "longitude": 106.864553 }, "geometry": { "type": "Point", "coordinates": [ 106.864553, -6.1927457 ] } },
{ "type": "Feature", "properties": { "moda": "BRT", "nama_stasiun_halte": "BPKP (simpang pramuka)", "latitude": -6.1921766, "longitude": 106.8740181 }, "geometry": { "type": "Point", "coordinates": [ 106.8740181, -6.1921766 ] } },
{ "type": "Feature", "properties": { "moda": "BRT", "nama_stasiun_halte": "Sumur Bor", "latitude": -6.1530379, "longitude": 106.7193383 }, "geometry": { "type": "Point", "coordinates": [ 106.7193383, -6.1530379 ] } },
{ "type": "Feature", "properties": { "moda": "BRT", "nama_stasiun_halte": "Rawa Buaya", "latitude": -6.1602098, "longitude": 106.7271658 }, "geometry": { "type": "Point", "coordinates": [ 106.7271658, -6.1602098 ] } },
{ "type": "Feature", "properties": { "moda": "BRT", "nama_stasiun_halte": "Jembatan Baru", "latitude": -6.1547905, "longitude": 106.7303858 }, "geometry": { "type": "Point", "coordinates": [ 106.7303858, -6.1547905 ] } },
{ "type": "Feature", "properties": { "moda": "BRT", "nama_stasiun_halte": "Dispenda", "latitude": -6.1546093, "longitude": 106.7381079 }, "geometry": { "type": "Point", "coordinates": [ 106.7381079, -6.1546093 ] } },
{ "type": "Feature", "properties": { "moda": "BRT", "nama_stasiun_halte": "Jembatan Gantung", "latitude": -6.155468, "longitude": 106.7493554 }, "geometry": { "type": "Point", "coordinates": [ 106.7493554, -6.155468 ] } },
{ "type": "Feature", "properties": { "moda": "BRT", "nama_stasiun_halte": "Taman Kota", "latitude": -6.1571488, "longitude": 106.7578769 }, "geometry": { "type": "Point", "coordinates": [ 106.7578769, -6.1571488 ] } },
{ "type": "Feature", "properties": { "moda": "BRT", "nama_stasiun_halte": "Terminal Lebak Bulus", "latitude": -6.2888041, "longitude": 106.7716373 }, "geometry": { "type": "Point", "coordinates": [ 106.7716373, -6.2888041 ] } },
{ "type": "Feature", "properties": { "moda": "BRT", "nama_stasiun_halte": "Kampung Rambutan", "latitude": -6.3092078, "longitude": 106.8816804 }, "geometry": { "type": "Point", "coordinates": [ 106.8816804, -6.3092078 ] } },
{ "type": "Feature", "properties": { "moda": "BRT", "nama_stasiun_halte": "Fly Over Raya Bogor", "latitude": -6.3065257, "longitude": 106.8657507 }, "geometry": { "type": "Point", "coordinates": [ 106.8657507, -6.3065257 ] } },
{ "type": "Feature", "properties": { "moda": "BRT", "nama_stasiun_halte": "Rs. Harapan Bunda", "latitude": -6.3019387, "longitude": 106.868043 }, "geometry": { "type": "Point", "coordinates": [ 106.868043, -6.3019387 ] } },
{ "type": "Feature", "properties": { "moda": "BRT", "nama_stasiun_halte": "Tanah Merdeka", "latitude": -6.308162, "longitude": 106.8738706 }, "geometry": { "type": "Point", "coordinates": [ 106.8738706, -6.308162 ] } },
{ "type": "Feature", "properties": { "moda": "BRT", "nama_stasiun_halte": "Fly Over Raden Inten (simpang buaran)", "latitude": -6.2159855, "longitude": 106.9243543 }, "geometry": { "type": "Point", "coordinates": [ 106.9243543, -6.2159855 ] } },
{ "type": "Feature", "properties": { "moda": "BRT", "nama_stasiun_halte": "Stasiun Klender", "latitude": -6.213538, "longitude": 106.8986502 }, "geometry": { "type": "Point", "coordinates": [ 106.8986502, -6.213538 ] } },
{ "type": "Feature", "properties": { "moda": "BRT", "nama_stasiun_halte": "Monas", "latitude": -6.1762176, "longitude": 106.8228666 }, "geometry": { "type": "Point", "coordinates": [ 106.8228666, -6.1762176 ] } },
{ "type": "Feature", "properties": { "moda": "BRT", "nama_stasiun_halte": "Harmoni Central Busway (HCB)", "latitude": -6.1665385, "longitude": 106.8196345 }, "geometry": { "type": "Point", "coordinates": [ 106.8196345, -6.1665385 ] } },
{ "type": "Feature", "properties": { "moda": "BRT", "nama_stasiun_halte": "Gambir 1", "latitude": -6.1745883, "longitude": 106.8304074 }, "geometry": { "type": "Point", "coordinates": [ 106.8304074, -6.1745883 ] } },
{ "type": "Feature", "properties": { "moda": "BRT", "nama_stasiun_halte": "Istiqlal (Perwira)", "latitude": -6.172233, "longitude": 106.830914 }, "geometry": { "type": "Point", "coordinates": [ 106.830914, -6.172233 ] } },
{ "type": "Feature", "properties": { "moda": "BRT", "nama_stasiun_halte": "Pecenongan", "latitude": -6.1677221, "longitude": 106.8282105 }, "geometry": { "type": "Point", "coordinates": [ 106.8282105, -6.1677221 ] } },
{ "type": "Feature", "properties": { "moda": "BRT", "nama_stasiun_halte": "Balai kota", "latitude": -6.1804942, "longitude": 106.8262475 }, "geometry": { "type": "Point", "coordinates": [ 106.8262475, -6.1804942 ] } },
{ "type": "Feature", "properties": { "moda": "BRT", "nama_stasiun_halte": "Gambir 2", "latitude": -6.1789241, "longitude": 106.831085 }, "geometry": { "type": "Point", "coordinates": [ 106.831085, -6.1789241 ] } },
{ "type": "Feature", "properties": { "moda": "BRT", "nama_stasiun_halte": "Rs Tarakan", "latitude": -6.1711552, "longitude": 106.8101239 }, "geometry": { "type": "Point", "coordinates": [ 106.8101239, -6.1711552 ] } },
{ "type": "Feature", "properties": { "moda": "BRT", "nama_stasiun_halte": "Petojo", "latitude": -6.1699858, "longitude": 106.817003 }, "geometry": { "type": "Point", "coordinates": [ 106.817003, -6.1699858 ] } },
{ "type": "Feature", "properties": { "moda": "BRT", "nama_stasiun_halte": "Jelambar", "latitude": -6.1665366, "longitude": 106.7865376 }, "geometry": { "type": "Point", "coordinates": [ 106.7865376, -6.1665366 ] } },
{ "type": "Feature", "properties": { "moda": "BRT", "nama_stasiun_halte": "Grogol 1 (Grogol)", "latitude": -6.1668312, "longitude": 106.7895067 }, "geometry": { "type": "Point", "coordinates": [ 106.7895067, -6.1668312 ] } },
{ "type": "Feature", "properties": { "moda": "BRT", "nama_stasiun_halte": "Rs. Sumber Waras (Roxy)", "latitude": -6.1662874, "longitude": 106.7967716 }, "geometry": { "type": "Point", "coordinates": [ 106.7967716, -6.1662874 ] } },
{ "type": "Feature", "properties": { "moda": "BRT", "nama_stasiun_halte": "Tomang Mandala (Tomang Raya)", "latitude": -6.1768638, "longitude": 106.8004248 }, "geometry": { "type": "Point", "coordinates": [ 106.8004248, -6.1768638 ] } },
{ "type": "Feature", "properties": { "moda": "BRT", "nama_stasiun_halte": "Taman Anggrek / Central Park (Tanjung Duren)", "latitude": -6.1725815, "longitude": 106.7884577 }, "geometry": { "type": "Point", "coordinates": [ 106.7884577, -6.1725815 ] } },
{ "type": "Feature", "properties": { "moda": "BRT", "nama_stasiun_halte": "Stasiun KA Latumenten (Kali Grogol)", "latitude": -6.1514664, "longitude": 106.7928714 }, "geometry": { "type": "Point", "coordinates": [ 106.7928714, -6.1514664 ] } },
{ "type": "Feature", "properties": { "moda": "BRT", "nama_stasiun_halte": "Grogol 2 (Grogol Reformasi)", "latitude": -6.1673317, "longitude": 106.7882638 }, "geometry": { "type": "Point", "coordinates": [ 106.7882638, -6.1673317 ] } },
{ "type": "Feature", "properties": { "moda": "BRT", "nama_stasiun_halte": "Kampung Melayu", "latitude": -6.2091242, "longitude": 106.8623419 }, "geometry": { "type": "Point", "coordinates": [ 106.8623419, -6.2091242 ] } },
{ "type": "Feature", "properties": { "moda": "BRT", "nama_stasiun_halte": "Pasar Jatinegara (Bali mester)", "latitude": -6.2157276, "longitude": 106.8663211 }, "geometry": { "type": "Point", "coordinates": [ 106.8663211, -6.2157276 ] } },
{ "type": "Feature", "properties": { "moda": "BRT", "nama_stasiun_halte": "Cawang Otista (cawang baru)", "latitude": -6.2436398, "longitude": 106.8687729 }, "geometry": { "type": "Point", "coordinates": [ 106.8687729, -6.2436398 ] } },
{ "type": "Feature", "properties": { "moda": "BRT", "nama_stasiun_halte": "Gelanggang Remaja", "latitude": -6.2354339, "longitude": 106.8679509 }, "geometry": { "type": "Point", "coordinates": [ 106.8679509, -6.2354339 ] } },
{ "type": "Feature", "properties": { "moda": "BRT", "nama_stasiun_halte": "Bidara Cina", "latitude": -6.2297611, "longitude": 106.8672297 }, "geometry": { "type": "Point", "coordinates": [ 106.8672297, -6.2297611 ] } },
{ "type": "Feature", "properties": { "moda": "BRT", "nama_stasiun_halte": "Cipinang Kebun Nanas", "latitude": -6.2329322, "longitude": 106.8767311 }, "geometry": { "type": "Point", "coordinates": [ 106.8767311, -6.2329322 ] } },
{ "type": "Feature", "properties": { "moda": "BRT", "nama_stasiun_halte": "Pedati Prumpung", "latitude": -6.2201251, "longitude": 106.8744253 }, "geometry": { "type": "Point", "coordinates": [ 106.8744253, -6.2201251 ] } },
{ "type": "Feature", "properties": { "moda": "BRT", "nama_stasiun_halte": "Fly Over Jatinegara", "latitude": -6.2151677, "longitude": 106.8735451 }, "geometry": { "type": "Point", "coordinates": [ 106.8735451, -6.2151677 ] } },
{ "type": "Feature", "properties": { "moda": "BRT", "nama_stasiun_halte": "Stasiun Jatinegara", "latitude": -6.2154622, "longitude": 106.8691435 }, "geometry": { "type": "Point", "coordinates": [ 106.8691435, -6.2154622 ] } },
{ "type": "Feature", "properties": { "moda": "BRT", "nama_stasiun_halte": "Rumah Sakit Premier (Jatinegara)", "latitude": -6.2214393, "longitude": 106.8680893 }, "geometry": { "type": "Point", "coordinates": [ 106.8680893, -6.2214393 ] } },
{ "type": "Feature", "properties": { "moda": "BRT", "nama_stasiun_halte": "Kebon Pala (Matraman Baru)", "latitude": -6.212984, "longitude": 106.8612303 }, "geometry": { "type": "Point", "coordinates": [ 106.8612303, -6.212984 ] } },
{ "type": "Feature", "properties": { "moda": "BRT", "nama_stasiun_halte": "Cawang Ciliwung", "latitude": -6.2429898, "longitude": 106.863528 }, "geometry": { "type": "Point", "coordinates": [ 106.863528, -6.2429898 ] } },
{ "type": "Feature", "properties": { "moda": "BRT", "nama_stasiun_halte": "Cawang Sutoyo (simpang cawang)", "latitude": -6.2447363, "longitude": 106.8759872 }, "geometry": { "type": "Point", "coordinates": [ 106.8759872, -6.2447363 ] } },
{ "type": "Feature", "properties": { "moda": "BRT", "nama_stasiun_halte": "Penas Kalimalang (halim)", "latitude": -6.2390602, "longitude": 106.8781092 }, "geometry": { "type": "Point", "coordinates": [ 106.8781092, -6.2390602 ] } },
{ "type": "Feature", "properties": { "moda": "BRT", "nama_stasiun_halte": "Pasar Enjo", "latitude": -6.2148604, "longitude": 106.8783454 }, "geometry": { "type": "Point", "coordinates": [ 106.8783454, -6.2148604 ] } },
{ "type": "Feature", "properties": { "moda": "BRT", "nama_stasiun_halte": "Galur", "latitude": -6.1744145, "longitude": 106.8547027 }, "geometry": { "type": "Point", "coordinates": [ 106.8547027, -6.1744145 ] } },
{ "type": "Feature", "properties": { "moda": "BRT", "nama_stasiun_halte": "Pesakih", "latitude": -6.1548127, "longitude": 106.7152323 }, "geometry": { "type": "Point", "coordinates": [ 106.7152323, -6.1548127 ] } },
{ "type": "Feature", "properties": { "moda": "BRT", "nama_stasiun_halte": "Terminal Kalideres", "latitude": -6.154368, "longitude": 106.7057582 }, "geometry": { "type": "Point", "coordinates": [ 106.7057582, -6.154368 ] } },
{ "type": "Feature", "properties": { "moda": "BRT", "nama_stasiun_halte": "Terminal Blok M", "latitude": -6.2432581, "longitude": 106.8028384 }, "geometry": { "type": "Point", "coordinates": [ 106.8028384, -6.2432581 ] } },
{ "type": "Feature", "properties": { "moda": "BRT", "nama_stasiun_halte": "Mesjid Al-Azhar (Masjid agung)", "latitude": -6.2364337, "longitude": 106.7984502 }, "geometry": { "type": "Point", "coordinates": [ 106.7984502, -6.2364337 ] } },
{ "type": "Feature", "properties": { "moda": "BRT", "nama_stasiun_halte": "Polda", "latitude": -6.222677, "longitude": 106.8116809 }, "geometry": { "type": "Point", "coordinates": [ 106.8116809, -6.222677 ] } },
{ "type": "Feature", "properties": { "moda": "BRT", "nama_stasiun_halte": "Bundaran Senayan", "latitude": -6.2278789, "longitude": 106.8009787 }, "geometry": { "type": "Point", "coordinates": [ 106.8009787, -6.2278789 ] } },
{ "type": "Feature", "properties": { "moda": "BRT", "nama_stasiun_halte": "Pondok Pinang", "latitude": -6.2821395, "longitude": 106.7720599 }, "geometry": { "type": "Point", "coordinates": [ 106.7720599, -6.2821395 ] } },
{ "type": "Feature", "properties": { "moda": "BRT", "nama_stasiun_halte": "Pondok Indah 1", "latitude": -6.28674, "longitude": 106.7800013 }, "geometry": { "type": "Point", "coordinates": [ 106.7800013, -6.28674 ] } },
{ "type": "Feature", "properties": { "moda": "BRT", "nama_stasiun_halte": "Pondok Indah 2", "latitude": -6.2756433, "longitude": 106.7828144 }, "geometry": { "type": "Point", "coordinates": [ 106.7828144, -6.2756433 ] } },
{ "type": "Feature", "properties": { "moda": "BRT", "nama_stasiun_halte": "Tanah Kusir Kodim", "latitude": -6.2569706, "longitude": 106.7816926 }, "geometry": { "type": "Point", "coordinates": [ 106.7816926, -6.2569706 ] } },
{ "type": "Feature", "properties": { "moda": "BRT", "nama_stasiun_halte": "Kebayoran Lama Bungur", "latitude": -6.2526691, "longitude": 106.7816459 }, "geometry": { "type": "Point", "coordinates": [ 106.7816459, -6.2526691 ] } },
{ "type": "Feature", "properties": { "moda": "BRT", "nama_stasiun_halte": "Pasar Kebayoran Lama", "latitude": -6.2384621, "longitude": 106.7832104 }, "geometry": { "type": "Point", "coordinates": [ 106.7832104, -6.2384621 ] } },
{ "type": "Feature", "properties": { "moda": "BRT", "nama_stasiun_halte": "Simprug Kebayoran Lama", "latitude": -6.2338991, "longitude": 106.7865346 }, "geometry": { "type": "Point", "coordinates": [ 106.7865346, -6.2338991 ] } },
{ "type": "Feature", "properties": { "moda": "BRT", "nama_stasiun_halte": "Permata Hijau", "latitude": -6.2214026, "longitude": 106.7832002 }, "geometry": { "type": "Point", "coordinates": [ 106.7832002, -6.2214026 ] } },
{ "type": "Feature", "properties": { "moda": "BRT", "nama_stasiun_halte": "Permata Hijau Rs. Medika", "latitude": -6.218438, "longitude": 106.77855 }, "geometry": { "type": "Point", "coordinates": [ 106.77855, -6.218438 ] } },
{ "type": "Feature", "properties": { "moda": "BRT", "nama_stasiun_halte": "Pos Pengumben", "latitude": -6.2183927, "longitude": 106.7775798 }, "geometry": { "type": "Point", "coordinates": [ 106.7775798, -6.2183927 ] } },
{ "type": "Feature", "properties": { "moda": "BRT", "nama_stasiun_halte": "Kelapa Dua Sasak", "latitude": -6.2055515, "longitude": 106.7695334 }, "geometry": { "type": "Point", "coordinates": [ 106.7695334, -6.2055515 ] } },
{ "type": "Feature", "properties": { "moda": "BRT", "nama_stasiun_halte": "Kebun Jeruk Relasi (kebon jeruk)", "latitude": -6.194299, "longitude": 106.7688843 }, "geometry": { "type": "Point", "coordinates": [ 106.7688843, -6.194299 ] } },
{ "type": "Feature", "properties": { "moda": "BRT", "nama_stasiun_halte": "Duri Kepa", "latitude": -6.18527, "longitude": 106.76843 }, "geometry": { "type": "Point", "coordinates": [ 106.76843, -6.18527 ] } },
{ "type": "Feature", "properties": { "moda": "BRT", "nama_stasiun_halte": "Kedoya Assyiddiqiyah (kedoya panjang)", "latitude": -6.1745047, "longitude": 106.7658827 }, "geometry": { "type": "Point", "coordinates": [ 106.7658827, -6.1745047 ] } },
{ "type": "Feature", "properties": { "moda": "BRT", "nama_stasiun_halte": "Kedoya Green Garden", "latitude": -6.1644482, "longitude": 106.7630403 }, "geometry": { "type": "Point", "coordinates": [ 106.7630403, -6.1644482 ] } },
{ "type": "Feature", "properties": { "moda": "BRT", "nama_stasiun_halte": "Indosiar", "latitude": -6.1633408, "longitude": 106.7751187 }, "geometry": { "type": "Point", "coordinates": [ 106.7751187, -6.1633408 ] } },
{ "type": "Feature", "properties": { "moda": "BRT", "nama_stasiun_halte": "Cempaka Mas 2", "latitude": -6.1657592, "longitude": 106.8792846 }, "geometry": { "type": "Point", "coordinates": [ 106.8792846, -6.1657592 ] } },
{ "type": "Feature", "properties": { "moda": "BRT", "nama_stasiun_halte": "Rumah Sakit Islam (Yarsi)/ Sumur Batu", "latitude": -6.1686305, "longitude": 106.8703831 }, "geometry": { "type": "Point", "coordinates": [ 106.8703831, -6.1686305 ] } },
{ "type": "Feature", "properties": { "moda": "BRT", "nama_stasiun_halte": "Cempaka Tengah (Cempaka Baru)", "latitude": -6.1723224, "longitude": 106.8624605 }, "geometry": { "type": "Point", "coordinates": [ 106.8624605, -6.1723224 ] } },
{ "type": "Feature", "properties": { "moda": "BRT", "nama_stasiun_halte": "Kemayoran Landasan Pacu Timur", "latitude": -6.152171, "longitude": 106.8542319 }, "geometry": { "type": "Point", "coordinates": [ 106.8542319, -6.152171 ] } },
{ "type": "Feature", "properties": { "moda": "BRT", "nama_stasiun_halte": "Pasar Baru Timur", "latitude": -6.1623288, "longitude": 106.8381416 }, "geometry": { "type": "Point", "coordinates": [ 106.8381416, -6.1623288 ] } },
{ "type": "Feature", "properties": { "moda": "BRT", "nama_stasiun_halte": "Budi Utomo (Lapangan Banteng)", "latitude": -6.166018, "longitude": 106.8390671 }, "geometry": { "type": "Point", "coordinates": [ 106.8390671, -6.166018 ] } },
{ "type": "Feature", "properties": { "moda": "BRT", "nama_stasiun_halte": "Pasar Induk", "latitude": -6.2942226, "longitude": 106.8720505 }, "geometry": { "type": "Point", "coordinates": [ 106.8720505, -6.2942226 ] } },
{ "type": "Feature", "properties": { "moda": "BRT", "nama_stasiun_halte": "Pasar Kramat Jati", "latitude": -6.2942226, "longitude": 106.8720505 }, "geometry": { "type": "Point", "coordinates": [ 106.8720505, -6.2942226 ] } },
{ "type": "Feature", "properties": { "moda": "BRT", "nama_stasiun_halte": "PGC 2", "latitude": -6.2624252, "longitude": 106.8664105 }, "geometry": { "type": "Point", "coordinates": [ 106.8664105, -6.2624252 ] } },
{ "type": "Feature", "properties": { "moda": "BRT", "nama_stasiun_halte": "Cililitan (PGC 1)", "latitude": -6.2624687, "longitude": 106.86381 }, "geometry": { "type": "Point", "coordinates": [ 106.86381, -6.2624687 ] } },
{ "type": "Feature", "properties": { "moda": "BRT", "nama_stasiun_halte": "BKN", "latitude": -6.2577387, "longitude": 106.8699963 }, "geometry": { "type": "Point", "coordinates": [ 106.8699963, -6.2577387 ] } },
{ "type": "Feature", "properties": { "moda": "BRT", "nama_stasiun_halte": "Cawang UKI", "latitude": -6.2502918, "longitude": 106.8704557 }, "geometry": { "type": "Point", "coordinates": [ 106.8704557, -6.2502918 ] } },
{ "type": "Feature", "properties": { "moda": "BRT", "nama_stasiun_halte": "BNN", "latitude": -6.2456665, "longitude": 106.8710184 }, "geometry": { "type": "Point", "coordinates": [ 106.8710184, -6.2456665 ] } },
{ "type": "Feature", "properties": { "moda": "BRT", "nama_stasiun_halte": "Terminal Pinang Ranti", "latitude": -6.2912931, "longitude": 106.8858797 }, "geometry": { "type": "Point", "coordinates": [ 106.8858797, -6.2912931 ] } },
{ "type": "Feature", "properties": { "moda": "BRT", "nama_stasiun_halte": "Garuda Taman Mini", "latitude": -6.2901426, "longitude": 106.8811548 }, "geometry": { "type": "Point", "coordinates": [ 106.8811548, -6.2901426 ] } },
{ "type": "Feature", "properties": { "moda": "BRT", "nama_stasiun_halte": "Mampang Prapatan", "latitude": -6.2426316, "longitude": 106.8257257 }, "geometry": { "type": "Point", "coordinates": [ 106.8257257, -6.2426316 ] } },
{ "type": "Feature", "properties": { "moda": "BRT", "nama_stasiun_halte": "Pramuka Lia", "latitude": -6.1922351, "longitude": 106.8685673 }, "geometry": { "type": "Point", "coordinates": [ 106.8685673, -6.1922351 ] } },
{ "type": "Feature", "properties": { "moda": "BRT", "nama_stasiun_halte": "Slamet Riyadi", "latitude": -6.208554, "longitude": 106.8593038 }, "geometry": { "type": "Point", "coordinates": [ 106.8593038, -6.208554 ] } },
{ "type": "Feature", "properties": { "moda": "BRT", "nama_stasiun_halte": "Tegalan", "latitude": -6.203086, "longitude": 106.8571609 }, "geometry": { "type": "Point", "coordinates": [ 106.8571609, -6.203086 ] } },
{ "type": "Feature", "properties": { "moda": "BRT", "nama_stasiun_halte": "Matraman I", "latitude": -6.2103329, "longitude": 106.8610072 }, "geometry": { "type": "Point", "coordinates": [ 106.8610072, -6.2103329 ] } },
{ "type": "Feature", "properties": { "moda": "BRT", "nama_stasiun_halte": "Utan Kayu Rawamangun", "latitude": -6.1975205, "longitude": 106.8740594 }, "geometry": { "type": "Point", "coordinates": [ 106.8740594, -6.1975205 ] } },
{ "type": "Feature", "properties": { "moda": "BRT", "nama_stasiun_halte": "Harapan Indah", "latitude": -6.2523437, "longitude": 106.9037681 }, "geometry": { "type": "Point", "coordinates": [ 106.9037681, -6.2523437 ] } },
{ "type": "Feature", "properties": { "moda": "BRT", "nama_stasiun_halte": "Sarinah", "latitude": -6.188023, "longitude": 106.8230249 }, "geometry": { "type": "Point", "coordinates": [ 106.8230249, -6.188023 ] } },
{ "type": "Feature", "properties": { "moda": "BRT", "nama_stasiun_halte": "BI", "latitude": -6.1754049, "longitude": 106.827168 }, "geometry": { "type": "Point", "coordinates": [ 106.827168, -6.1754049 ] } },
{ "type": "Feature", "properties": { "moda": "BRT", "nama_stasiun_halte": "Latuharhari", "latitude": -6.2036589, "longitude": 106.8294786 }, "geometry": { "type": "Point", "coordinates": [ 106.8294786, -6.2036589 ] } },
{ "type": "Feature", "properties": { "moda": "BRT", "nama_stasiun_halte": "Tosari", "latitude": -6.1967032, "longitude": 106.8231046 }, "geometry": { "type": "Point", "coordinates": [ 106.8231046, -6.1967032 ] } },
{ "type": "Feature", "properties": { "moda": "BRT", "nama_stasiun_halte": "Pademangan", "latitude": -6.152171, "longitude": 106.8542319 }, "geometry": { "type": "Point", "coordinates": [ 106.8542319, -6.152171 ] } },
{ "type": "Feature", "properties": { "moda": "BRT", "nama_stasiun_halte": "Ancol", "latitude": -6.127556, "longitude": 106.8306734 }, "geometry": { "type": "Point", "coordinates": [ 106.8306734, -6.127556 ] } },
{ "type": "Feature", "properties": { "moda": "BRT", "nama_stasiun_halte": "Mangga Dua", "latitude": -6.1376209, "longitude": 106.8177691 }, "geometry": { "type": "Point", "coordinates": [ 106.8177691, -6.1376209 ] } },
{ "type": "Feature", "properties": { "moda": "BRT", "nama_stasiun_halte": "Gunung Sahari Mangga Dua", "latitude": -6.1367857, "longitude": 106.8323729 }, "geometry": { "type": "Point", "coordinates": [ 106.8323729, -6.1367857 ] } },
{ "type": "Feature", "properties": { "moda": "BRT", "nama_stasiun_halte": "Rs Harapan Kita (Kota Bambu)", "latitude": -6.1852671, "longitude": 106.7970876 }, "geometry": { "type": "Point", "coordinates": [ 106.7970876, -6.1852671 ] } },
{ "type": "Feature", "properties": { "moda": "BRT", "nama_stasiun_halte": "Slipi Kemanggisan", "latitude": -6.1898347, "longitude": 106.7972595 }, "geometry": { "type": "Point", "coordinates": [ 106.7972595, -6.1898347 ] } },
{ "type": "Feature", "properties": { "moda": "BRT", "nama_stasiun_halte": "Warung Jati", "latitude": -6.2623364, "longitude": 106.8297832 }, "geometry": { "type": "Point", "coordinates": [ 106.8297832, -6.2623364 ] } },
{ "type": "Feature", "properties": { "moda": "BRT", "nama_stasiun_halte": "Imigrasi", "latitude": -6.2569778, "longitude": 106.8281107 }, "geometry": { "type": "Point", "coordinates": [ 106.8281107, -6.2569778 ] } },
{ "type": "Feature", "properties": { "moda": "BRT", "nama_stasiun_halte": "Duren Tiga", "latitude": -6.2523749, "longitude": 106.8270029 }, "geometry": { "type": "Point", "coordinates": [ 106.8270029, -6.2523749 ] } },
{ "type": "Feature", "properties": { "moda": "BRT", "nama_stasiun_halte": "Buncit Indah", "latitude": -6.2743255, "longitude": 106.8303124 }, "geometry": { "type": "Point", "coordinates": [ 106.8303124, -6.2743255 ] } },
{ "type": "Feature", "properties": { "moda": "BRT", "nama_stasiun_halte": "Ragunan", "latitude": -6.305746, "longitude": 106.8189139 }, "geometry": { "type": "Point", "coordinates": [ 106.8189139, -6.305746 ] } },
{ "type": "Feature", "properties": { "moda": "BRT", "nama_stasiun_halte": "Departemen Pertanian", "latitude": -6.2946199, "longitude": 106.8221238 }, "geometry": { "type": "Point", "coordinates": [ 106.8221238, -6.2946199 ] } },
{ "type": "Feature", "properties": { "moda": "BRT", "nama_stasiun_halte": "SMK 57", "latitude": -6.2910174, "longitude": 106.8236292 }, "geometry": { "type": "Point", "coordinates": [ 106.8236292, -6.2910174 ] } },
{ "type": "Feature", "properties": { "moda": "BRT", "nama_stasiun_halte": "Jati Padang", "latitude": -6.2831998, "longitude": 106.819291 }, "geometry": { "type": "Point", "coordinates": [ 106.819291, -6.2831998 ] } },
{ "type": "Feature", "properties": { "moda": "BRT", "nama_stasiun_halte": "Pejaten", "latitude": -6.2784083, "longitude": 106.8297547 }, "geometry": { "type": "Point", "coordinates": [ 106.8297547, -6.2784083 ] } },
{ "type": "Feature", "properties": { "moda": "BRT", "nama_stasiun_halte": "Jembatan Tiga", "latitude": -6.1333558, "longitude": 106.7926786 }, "geometry": { "type": "Point", "coordinates": [ 106.7926786, -6.1333558 ] } },
{ "type": "Feature", "properties": { "moda": "BRT", "nama_stasiun_halte": "Penjaringan", "latitude": -6.1262663, "longitude": 106.7920589 }, "geometry": { "type": "Point", "coordinates": [ 106.7920589, -6.1262663 ] } },
{ "type": "Feature", "properties": { "moda": "BRT", "nama_stasiun_halte": "Pluit", "latitude": -6.1252848, "longitude": 106.7997085 }, "geometry": { "type": "Point", "coordinates": [ 106.7997085, -6.1252848 ] } },
{ "type": "Feature", "properties": { "moda": "BRT", "nama_stasiun_halte": "Pluit Landmark", "latitude": -6.1252848, "longitude": 106.7997085 }, "geometry": { "type": "Point", "coordinates": [ 106.7997085, -6.1252848 ] } },
{ "type": "Feature", "properties": { "moda": "BRT", "nama_stasiun_halte": "Pakin", "latitude": -6.12745, "longitude": 106.8046215 }, "geometry": { "type": "Point", "coordinates": [ 106.8046215, -6.12745 ] } },
{ "type": "Feature", "properties": { "moda": "BRT", "nama_stasiun_halte": "KIP (Petukangan utara)", "latitude": -6.2362034, "longitude": 106.7548043 }, "geometry": { "type": "Point", "coordinates": [ 106.7548043, -6.2362034 ] } },
{ "type": "Feature", "properties": { "moda": "BRT", "nama_stasiun_halte": "Bea Cukai Ahmad Yani", "latitude": -6.2054068, "longitude": 106.8739794 }, "geometry": { "type": "Point", "coordinates": [ 106.8739794, -6.2054068 ] } },
{ "type": "Feature", "properties": { "moda": "BRT", "nama_stasiun_halte": "Pramuka BPKP 2", "latitude": -6.1923212, "longitude": 106.8736926 }, "geometry": { "type": "Point", "coordinates": [ 106.8736926, -6.1923212 ] } },
{ "type": "Feature", "properties": { "moda": "BRT", "nama_stasiun_halte": "Bermis", "latitude": -6.178194, "longitude": 106.8985534 }, "geometry": { "type": "Point", "coordinates": [ 106.8985534, -6.178194 ] } },
{ "type": "Feature", "properties": { "moda": "BRT", "nama_stasiun_halte": "Polumas (pulo mas)", "latitude": -6.1746049, "longitude": 106.8926092 }, "geometry": { "type": "Point", "coordinates": [ 106.8926092, -6.1746049 ] } },
{ "type": "Feature", "properties": { "moda": "BRT", "nama_stasiun_halte": "Asmi", "latitude": -6.1717015, "longitude": 106.8886304 }, "geometry": { "type": "Point", "coordinates": [ 106.8886304, -6.1717015 ] } },
{ "type": "Feature", "properties": { "moda": "BRT", "nama_stasiun_halte": "Pedongkelan", "latitude": -6.1679878, "longitude": 106.8825254 }, "geometry": { "type": "Point", "coordinates": [ 106.8825254, -6.1679878 ] } },
{ "type": "Feature", "properties": { "moda": "BRT", "nama_stasiun_halte": "Pasar Genjing", "latitude": -6.1944226, "longitude": 106.8601191 }, "geometry": { "type": "Point", "coordinates": [ 106.8601191, -6.1944226 ] } },
{ "type": "Feature", "properties": { "moda": "BRT", "nama_stasiun_halte": "UNJ", "latitude": -6.192915, "longitude": 106.8803212 }, "geometry": { "type": "Point", "coordinates": [ 106.8803212, -6.192915 ] } },
{ "type": "Feature", "properties": { "moda": "BRT", "nama_stasiun_halte": "Sunan Giri", "latitude": -6.1932535, "longitude": 106.8836909 }, "geometry": { "type": "Point", "coordinates": [ 106.8836909, -6.1932535 ] } },
{ "type": "Feature", "properties": { "moda": "BRT", "nama_stasiun_halte": "Velodrome", "latitude": -6.1934481, "longitude": 106.8882686 }, "geometry": { "type": "Point", "coordinates": [ 106.8882686, -6.1934481 ] } },
{ "type": "Feature", "properties": { "moda": "BRT", "nama_stasiun_halte": "Pemuda Paus", "latitude": -6.192915, "longitude": 106.8803212 }, "geometry": { "type": "Point", "coordinates": [ 106.8803212, -6.192915 ] } },
{ "type": "Feature", "properties": { "moda": "BRT", "nama_stasiun_halte": "Layur", "latitude": -6.1935317, "longitude": 106.8990974 }, "geometry": { "type": "Point", "coordinates": [ 106.8990974, -6.1935317 ] } },
{ "type": "Feature", "properties": { "moda": "BRT", "nama_stasiun_halte": "Tugas", "latitude": -6.2846605, "longitude": 106.8399042 }, "geometry": { "type": "Point", "coordinates": [ 106.8399042, -6.2846605 ] } },
{ "type": "Feature", "properties": { "moda": "BRT", "nama_stasiun_halte": "Pasar Pulogadung", "latitude": -6.187416, "longitude": 106.9059327 }, "geometry": { "type": "Point", "coordinates": [ 106.9059327, -6.187416 ] } },
{ "type": "Feature", "properties": { "moda": "BRT", "nama_stasiun_halte": "Terminal Pulogadung", "latitude": -6.1832368, "longitude": 106.9082851 }, "geometry": { "type": "Point", "coordinates": [ 106.9082851, -6.1832368 ] } },
{ "type": "Feature", "properties": { "moda": "BRT", "nama_stasiun_halte": "Kayu Putih Rawasari", "latitude": -6.1874741, "longitude": 106.8754153 }, "geometry": { "type": "Point", "coordinates": [ 106.8754153, -6.1874741 ] } },
{ "type": "Feature", "properties": { "moda": "BRT", "nama_stasiun_halte": "Pulomas By Pass (Pacuan Kuda)", "latitude": -6.1769076, "longitude": 106.8760214 }, "geometry": { "type": "Point", "coordinates": [ 106.8760214, -6.1769076 ] } },
{ "type": "Feature", "properties": { "moda": "BRT", "nama_stasiun_halte": "Cipinang", "latitude": -6.2137654, "longitude": 106.8895099 }, "geometry": { "type": "Point", "coordinates": [ 106.8895099, -6.2137654 ] } },
{ "type": "Feature", "properties": { "moda": "BRT", "nama_stasiun_halte": "Imigrasi", "latitude": -6.214552, "longitude": 106.8818 }, "geometry": { "type": "Point", "coordinates": [ 106.8818, -6.214552 ] } },
{ "type": "Feature", "properties": { "moda": "BRT", "nama_stasiun_halte": "Juanda", "latitude": -6.1681233, "longitude": 106.8303938 }, "geometry": { "type": "Point", "coordinates": [ 106.8303938, -6.1681233 ] } },
{ "type": "Feature", "properties": { "moda": "BRT", "nama_stasiun_halte": "Deplu (Pejambon)", "latitude": -6.1735268, "longitude": 106.834738 }, "geometry": { "type": "Point", "coordinates": [ 106.834738, -6.1735268 ] } },
{ "type": "Feature", "properties": { "moda": "BRT", "nama_stasiun_halte": "Sawah Besar (closed)", "latitude": -6.16041, "longitude": 106.8166451 }, "geometry": { "type": "Point", "coordinates": [ 106.8166451, -6.16041 ] } },
{ "type": "Feature", "properties": { "moda": "BRT", "nama_stasiun_halte": "Pasar Baru", "latitude": -6.1623287, "longitude": 106.8381416 }, "geometry": { "type": "Point", "coordinates": [ 106.8381416, -6.1623287 ] } },
{ "type": "Feature", "properties": { "moda": "BRT", "nama_stasiun_halte": "Jembatan Merah", "latitude": -6.146739, "longitude": 106.8342818 }, "geometry": { "type": "Point", "coordinates": [ 106.8342818, -6.146739 ] } },
{ "type": "Feature", "properties": { "moda": "BRT", "nama_stasiun_halte": "RSPAD", "latitude": -6.1754905, "longitude": 106.8367857 }, "geometry": { "type": "Point", "coordinates": [ 106.8367857, -6.1754905 ] } },
{ "type": "Feature", "properties": { "moda": "BRT", "nama_stasiun_halte": "Matraman 2", "latitude": -6.1989121, "longitude": 106.8544815 }, "geometry": { "type": "Point", "coordinates": [ 106.8544815, -6.1989121 ] } },
{ "type": "Feature", "properties": { "moda": "BRT", "nama_stasiun_halte": "Senen", "latitude": -6.1782428, "longitude": 106.8426695 }, "geometry": { "type": "Point", "coordinates": [ 106.8426695, -6.1782428 ] } },
{ "type": "Feature", "properties": { "moda": "BRT", "nama_stasiun_halte": "Atrium", "latitude": -6.1762193, "longitude": 106.8402199 }, "geometry": { "type": "Point", "coordinates": [ 106.8402199, -6.1762193 ] } },
{ "type": "Feature", "properties": { "moda": "BRT", "nama_stasiun_halte": "Kwitang", "latitude": -6.1812218, "longitude": 106.8384103 }, "geometry": { "type": "Point", "coordinates": [ 106.8384103, -6.1812218 ] } },
{ "type": "Feature", "properties": { "moda": "BRT", "nama_stasiun_halte": "Rs. Carolus", "latitude": -6.1959977, "longitude": 106.8505476 }, "geometry": { "type": "Point", "coordinates": [ 106.8505476, -6.1959977 ] } },
{ "type": "Feature", "properties": { "moda": "BRT", "nama_stasiun_halte": "Salemba UI", "latitude": -6.1896358, "longitude": 106.8470613 }, "geometry": { "type": "Point", "coordinates": [ 106.8470613, -6.1896358 ] } },
{ "type": "Feature", "properties": { "moda": "BRT", "nama_stasiun_halte": "Kramat Sentiong", "latitude": -6.1879586, "longitude": 106.8459591 }, "geometry": { "type": "Point", "coordinates": [ 106.8459591, -6.1879586 ] } },
{ "type": "Feature", "properties": { "moda": "BRT", "nama_stasiun_halte": "Pal Putih", "latitude": -6.1845905, "longitude": 106.8440123 }, "geometry": { "type": "Point", "coordinates": [ 106.8440123, -6.1845905 ] } },
{ "type": "Feature", "properties": { "moda": "BRT", "nama_stasiun_halte": "Central Senen", "latitude": -6.1812218, "longitude": 106.8384103 }, "geometry": { "type": "Point", "coordinates": [ 106.8384103, -6.1812218 ] } },
{ "type": "Feature", "properties": { "moda": "BRT", "nama_stasiun_halte": "Tegal Parang (Kementrian Perindustrian)", "latitude": -6.2388255, "longitude": 106.8301976 }, "geometry": { "type": "Point", "coordinates": [ 106.8301976, -6.2388255 ] } },
{ "type": "Feature", "properties": { "moda": "BRT", "nama_stasiun_halte": "Kuningan Barat (Simpang Kuningan)", "latitude": -6.2372022, "longitude": 106.8281008 }, "geometry": { "type": "Point", "coordinates": [ 106.8281008, -6.2372022 ] } },
{ "type": "Feature", "properties": { "moda": "BRT", "nama_stasiun_halte": "Halimun", "latitude": -6.2051184, "longitude": 106.833362 }, "geometry": { "type": "Point", "coordinates": [ 106.833362, -6.2051184 ] } },
{ "type": "Feature", "properties": { "moda": "BRT", "nama_stasiun_halte": "Pasar Rumput", "latitude": -6.2071167, "longitude": 106.8411223 }, "geometry": { "type": "Point", "coordinates": [ 106.8411223, -6.2071167 ] } },
{ "type": "Feature", "properties": { "moda": "BRT", "nama_stasiun_halte": "Kuningan Timur", "latitude": -6.2349279, "longitude": 106.8287853 }, "geometry": { "type": "Point", "coordinates": [ 106.8287853, -6.2349279 ] } },
{ "type": "Feature", "properties": { "moda": "BRT", "nama_stasiun_halte": "Patra Kuningan", "latitude": -6.2327105, "longitude": 106.8320375 }, "geometry": { "type": "Point", "coordinates": [ 106.8320375, -6.2327105 ] } },
{ "type": "Feature", "properties": { "moda": "BRT", "nama_stasiun_halte": "Depkes", "latitude": -6.1970047, "longitude": 106.8436521 }, "geometry": { "type": "Point", "coordinates": [ 106.8436521, -6.1970047 ] } },
{ "type": "Feature", "properties": { "moda": "BRT", "nama_stasiun_halte": "Gor Sumantri", "latitude": -6.2217174, "longitude": 106.8322776 }, "geometry": { "type": "Point", "coordinates": [ 106.8322776, -6.2217174 ] } },
{ "type": "Feature", "properties": { "moda": "BRT", "nama_stasiun_halte": "Karet Kuningan", "latitude": -6.2168047, "longitude": 106.8308051 }, "geometry": { "type": "Point", "coordinates": [ 106.8308051, -6.2168047 ] } },
{ "type": "Feature", "properties": { "moda": "BRT", "nama_stasiun_halte": "Kuningan Madya Aini (kuningan madya)", "latitude": -6.2131726, "longitude": 106.8304739 }, "geometry": { "type": "Point", "coordinates": [ 106.8304739, -6.2131726 ] } },
{ "type": "Feature", "properties": { "moda": "BRT", "nama_stasiun_halte": "Setiabudi Utara", "latitude": -6.209241, "longitude": 106.8302016 }, "geometry": { "type": "Point", "coordinates": [ 106.8302016, -6.209241 ] } },
{ "type": "Feature", "properties": { "moda": "BRT", "nama_stasiun_halte": "Jamsostek Gatot Subroto", "latitude": -6.2329039, "longitude": 106.8220345 }, "geometry": { "type": "Point", "coordinates": [ 106.8220345, -6.2329039 ] } },
{ "type": "Feature", "properties": { "moda": "BRT", "nama_stasiun_halte": "LIPI Gatot Subroto", "latitude": -6.2266504, "longitude": 106.8174988 }, "geometry": { "type": "Point", "coordinates": [ 106.8174988, -6.2266504 ] } },
{ "type": "Feature", "properties": { "moda": "BRT", "nama_stasiun_halte": "Karet 2", "latitude": -6.2213293, "longitude": 106.8138702 }, "geometry": { "type": "Point", "coordinates": [ 106.8138702, -6.2213293 ] } },
{ "type": "Feature", "properties": { "moda": "BRT", "nama_stasiun_halte": "Dukuh Atas", "latitude": -6.2043957, "longitude": 106.8234209 }, "geometry": { "type": "Point", "coordinates": [ 106.8234209, -6.2043957 ] } },
{ "type": "Feature", "properties": { "moda": "BRT", "nama_stasiun_halte": "Dukuh Atas 2", "latitude": -6.2043967, "longitude": 106.8234017 }, "geometry": { "type": "Point", "coordinates": [ 106.8234017, -6.2043967 ] } },
{ "type": "Feature", "properties": { "moda": "BRT", "nama_stasiun_halte": "Manggarai", "latitude": -6.2088818, "longitude": 106.8473951 }, "geometry": { "type": "Point", "coordinates": [ 106.8473951, -6.2088818 ] } },
{ "type": "Feature", "properties": { "moda": "BRT", "nama_stasiun_halte": "Pangeran Jayakarta", "latitude": -6.1376209, "longitude": 106.8177691 }, "geometry": { "type": "Point", "coordinates": [ 106.8177691, -6.1376209 ] } },
{ "type": "Feature", "properties": { "moda": "BRT", "nama_stasiun_halte": "Mangga Besar", "latitude": -6.1434197, "longitude": 106.8151686 }, "geometry": { "type": "Point", "coordinates": [ 106.8151686, -6.1434197 ] } },
{ "type": "Feature", "properties": { "moda": "BRT", "nama_stasiun_halte": "Olimo", "latitude": -6.1493027, "longitude": 106.8167033 }, "geometry": { "type": "Point", "coordinates": [ 106.8167033, -6.1493027 ] } },
{ "type": "Feature", "properties": { "moda": "BRT", "nama_stasiun_halte": "Glodok", "latitude": -6.1434197, "longitude": 106.8151686 }, "geometry": { "type": "Point", "coordinates": [ 106.8151686, -6.1434197 ] } },
{ "type": "Feature", "properties": { "moda": "BRT", "nama_stasiun_halte": "Stasiun Kota", "latitude": -6.1375828, "longitude": 106.8146203 }, "geometry": { "type": "Point", "coordinates": [ 106.8146203, -6.1375828 ] } },
{ "type": "Feature", "properties": { "moda": "BRT", "nama_stasiun_halte": "Museum Fatahillah", "latitude": -6.1339155, "longitude": 106.812137 }, "geometry": { "type": "Point", "coordinates": [ 106.812137, -6.1339155 ] } },
{ "type": "Feature", "properties": { "moda": "BRT", "nama_stasiun_halte": "Jembatan Dua", "latitude": -6.1432678, "longitude": 106.7935178 }, "geometry": { "type": "Point", "coordinates": [ 106.7935178, -6.1432678 ] } },
{ "type": "Feature", "properties": { "moda": "BRT", "nama_stasiun_halte": "Jembatan Besi", "latitude": -6.1519976, "longitude": 106.7949378 }, "geometry": { "type": "Point", "coordinates": [ 106.7949378, -6.1519976 ] } },
{ "type": "Feature", "properties": { "moda": "BRT", "nama_stasiun_halte": "Gedong Panjang", "latitude": -6.1326095, "longitude": 106.8059749 }, "geometry": { "type": "Point", "coordinates": [ 106.8059749, -6.1326095 ] } },
{ "type": "Feature", "properties": { "moda": "BRT", "nama_stasiun_halte": "Kalibesar Barat", "latitude": -6.1345212, "longitude": 106.8110853 }, "geometry": { "type": "Point", "coordinates": [ 106.8110853, -6.1345212 ] } },
{ "type": "Feature", "properties": { "moda": "BRT", "nama_stasiun_halte": "Pekojan", "latitude": -6.1326095, "longitude": 106.8059749 }, "geometry": { "type": "Point", "coordinates": [ 106.8059749, -6.1326095 ] } },
{ "type": "Feature", "properties": { "moda": "BRT", "nama_stasiun_halte": "Semanggi", "latitude": -6.2152091, "longitude": 106.8096312 }, "geometry": { "type": "Point", "coordinates": [ 106.8096312, -6.2152091 ] } },
{ "type": "Feature", "properties": { "moda": "BRT", "nama_stasiun_halte": "Slipi Petamburan (Petamburan)", "latitude": -6.1754679, "longitude": 106.7921525 }, "geometry": { "type": "Point", "coordinates": [ 106.7921525, -6.1754679 ] } },
{ "type": "Feature", "properties": { "moda": "BRT", "nama_stasiun_halte": "Gelora Bung Karno", "latitude": -6.2242973, "longitude": 106.8056821 }, "geometry": { "type": "Point", "coordinates": [ 106.8056821, -6.2242973 ] } },
{ "type": "Feature", "properties": { "moda": "BRT", "nama_stasiun_halte": "Benhil", "latitude": -6.2146871, "longitude": 106.8154446 }, "geometry": { "type": "Point", "coordinates": [ 106.8154446, -6.2146871 ] } },
{ "type": "Feature", "properties": { "moda": "BRT", "nama_stasiun_halte": "JCC Senayan", "latitude": -6.2141908, "longitude": 106.8090211 }, "geometry": { "type": "Point", "coordinates": [ 106.8090211, -6.2141908 ] } },
{ "type": "Feature", "properties": { "moda": "BRT", "nama_stasiun_halte": "Permai Koja", "latitude": -6.1280811, "longitude": 106.9126017 }, "geometry": { "type": "Point", "coordinates": [ 106.9126017, -6.1280811 ] } },
{ "type": "Feature", "properties": { "moda": "BRT", "nama_stasiun_halte": "Yos Sudarso Kodamar", "latitude": -6.162033, "longitude": 106.8817209 }, "geometry": { "type": "Point", "coordinates": [ 106.8817209, -6.162033 ] } },
{ "type": "Feature", "properties": { "moda": "BRT", "nama_stasiun_halte": "Sunter Kelapa Gading", "latitude": -6.1776765, "longitude": 106.8971756 }, "geometry": { "type": "Point", "coordinates": [ 106.8971756, -6.1776765 ] } },
{ "type": "Feature", "properties": { "moda": "BRT", "nama_stasiun_halte": "Plumpang Pertamina (plumpang)", "latitude": -6.128381, "longitude": 106.8936822 }, "geometry": { "type": "Point", "coordinates": [ 106.8936822, -6.128381 ] } },
{ "type": "Feature", "properties": { "moda": "BRT", "nama_stasiun_halte": "Walikota Jakarta Utara", "latitude": -6.1205868, "longitude": 106.8931124 }, "geometry": { "type": "Point", "coordinates": [ 106.8931124, -6.1205868 ] } },
{ "type": "Feature", "properties": { "moda": "BRT", "nama_stasiun_halte": "Enggano", "latitude": -6.1564578, "longitude": 106.8933983 }, "geometry": { "type": "Point", "coordinates": [ 106.8933983, -6.1564578 ] } },
{ "type": "Feature", "properties": { "moda": "BRT", "nama_stasiun_halte": "Terminal Tanjung Priok (tanjung priok)", "latitude": -6.1443986, "longitude": 106.8904332 }, "geometry": { "type": "Point", "coordinates": [ 106.8904332, -6.1443986 ] } },
{ "type": "Feature", "properties": { "moda": "BRT", "nama_stasiun_halte": "Danau Sunter Barat (Agung)", "latitude": -6.1409759, "longitude": 106.8569971 }, "geometry": { "type": "Point", "coordinates": [ 106.8569971, -6.1409759 ] } },
{ "type": "Feature", "properties": { "moda": "BRT", "nama_stasiun_halte": "Sunter SMP 140", "latitude": -6.1397502, "longitude": 106.8591439 }, "geometry": { "type": "Point", "coordinates": [ 106.8591439, -6.1397502 ] } },
{ "type": "Feature", "properties": { "moda": "BRT", "nama_stasiun_halte": "Sunter Karya", "latitude": -6.1376043, "longitude": 106.8708549 }, "geometry": { "type": "Point", "coordinates": [ 106.8708549, -6.1376043 ] } },
{ "type": "Feature", "properties": { "moda": "BRT", "nama_stasiun_halte": "Sunter Boulevard Barat", "latitude": -6.1496277, "longitude": 106.8889933 }, "geometry": { "type": "Point", "coordinates": [ 106.8889933, -6.1496277 ] } },
{ "type": "Feature", "properties": { "moda": "BRT", "nama_stasiun_halte": "Cikoko Stasiun Cawang", "latitude": -6.2430332, "longitude": 106.8580894 }, "geometry": { "type": "Point", "coordinates": [ 106.8580894, -6.2430332 ] } },
{ "type": "Feature", "properties": { "moda": "BRT", "nama_stasiun_halte": "Pancoran Tugu", "latitude": -6.2431035, "longitude": 106.8439732 }, "geometry": { "type": "Point", "coordinates": [ 106.8439732, -6.2431035 ] } },
{ "type": "Feature", "properties": { "moda": "BRT", "nama_stasiun_halte": "Pancoran Barat", "latitude": -6.2416652, "longitude": 106.8372746 }, "geometry": { "type": "Point", "coordinates": [ 106.8372746, -6.2416652 ] } },
{ "type": "Feature", "properties": { "moda": "BRT", "nama_stasiun_halte": "Tebet BUMD (BKPM) /ecopark", "latitude": -6.2403737, "longitude": 106.8524328 }, "geometry": { "type": "Point", "coordinates": [ 106.8524328, -6.2403737 ] } },
{ "type": "Feature", "properties": { "moda": "KRL", "nama_stasiun_halte": "Cakung", "latitude": -6.219081, "longitude": 106.9524791 }, "geometry": { "type": "Point", "coordinates": [ 106.9524791, -6.219081 ] } },
{ "type": "Feature", "properties": { "moda": "KRL", "nama_stasiun_halte": "Bojong Indah", "latitude": -6.1601252, "longitude": 106.7363799 }, "geometry": { "type": "Point", "coordinates": [ 106.7363799, -6.1601252 ] } },
{ "type": "Feature", "properties": { "moda": "KRL", "nama_stasiun_halte": "Rawa Buaya", "latitude": -6.1601253, "longitude": 106.7363799 }, "geometry": { "type": "Point", "coordinates": [ 106.7363799, -6.1601253 ] } },
{ "type": "Feature", "properties": { "moda": "KRL", "nama_stasiun_halte": "Klender Baru", "latitude": -6.2176591, "longitude": 106.9401833 }, "geometry": { "type": "Point", "coordinates": [ 106.9401833, -6.2176591 ] } },
{ "type": "Feature", "properties": { "moda": "KRL", "nama_stasiun_halte": "Buaran", "latitude": -6.2156064, "longitude": 106.92316 }, "geometry": { "type": "Point", "coordinates": [ 106.92316, -6.2156064 ] } },
{ "type": "Feature", "properties": { "moda": "KRL", "nama_stasiun_halte": "Klender", "latitude": -6.2133188, "longitude": 106.8994133 }, "geometry": { "type": "Point", "coordinates": [ 106.8994133, -6.2133188 ] } },
{ "type": "Feature", "properties": { "moda": "KRL", "nama_stasiun_halte": "Juanda", "latitude": -6.1666746, "longitude": 106.8304609 }, "geometry": { "type": "Point", "coordinates": [ 106.8304609, -6.1666746 ] } },
{ "type": "Feature", "properties": { "moda": "KRL", "nama_stasiun_halte": "Grogol", "latitude": -6.162035, "longitude": 106.7896101 }, "geometry": { "type": "Point", "coordinates": [ 106.7896101, -6.162035 ] } },
{ "type": "Feature", "properties": { "moda": "KRL", "nama_stasiun_halte": "Universitas Pancasila", "latitude": -6.3392369, "longitude": 106.8339314 }, "geometry": { "type": "Point", "coordinates": [ 106.8339314, -6.3392369 ] } },
{ "type": "Feature", "properties": { "moda": "KRL", "nama_stasiun_halte": "Lenteng Agung", "latitude": -6.3303079, "longitude": 106.8346791 }, "geometry": { "type": "Point", "coordinates": [ 106.8346791, -6.3303079 ] } },
{ "type": "Feature", "properties": { "moda": "KRL", "nama_stasiun_halte": "Tanjung Barat", "latitude": -6.3080407, "longitude": 106.8389492 }, "geometry": { "type": "Point", "coordinates": [ 106.8389492, -6.3080407 ] } },
{ "type": "Feature", "properties": { "moda": "KRL", "nama_stasiun_halte": "Jatinegara", "latitude": -6.2154315, "longitude": 106.8693599 }, "geometry": { "type": "Point", "coordinates": [ 106.8693599, -6.2154315 ] } },
{ "type": "Feature", "properties": { "moda": "KRL", "nama_stasiun_halte": "Kalideres", "latitude": -6.1659662, "longitude": 106.7037283 }, "geometry": { "type": "Point", "coordinates": [ 106.7037283, -6.1659662 ] } },
{ "type": "Feature", "properties": { "moda": "KRL", "nama_stasiun_halte": "Kebayoran", "latitude": -6.23723, "longitude": 106.7825345 }, "geometry": { "type": "Point", "coordinates": [ 106.7825345, -6.23723 ] } },
{ "type": "Feature", "properties": { "moda": "KRL", "nama_stasiun_halte": "Pesing", "latitude": -6.1612525, "longitude": 106.7719077 }, "geometry": { "type": "Point", "coordinates": [ 106.7719077, -6.1612525 ] } },
{ "type": "Feature", "properties": { "moda": "KRL", "nama_stasiun_halte": "Taman Kota", "latitude": -6.158627, "longitude": 106.7565728 }, "geometry": { "type": "Point", "coordinates": [ 106.7565728, -6.158627 ] } },
{ "type": "Feature", "properties": { "moda": "KRL", "nama_stasiun_halte": "Cawang", "latitude": -6.2425517, "longitude": 106.8586903 }, "geometry": { "type": "Point", "coordinates": [ 106.8586903, -6.2425517 ] } },
{ "type": "Feature", "properties": { "moda": "KRL", "nama_stasiun_halte": "Cikini", "latitude": -6.1985052, "longitude": 106.8412799 }, "geometry": { "type": "Point", "coordinates": [ 106.8412799, -6.1985052 ] } },
{ "type": "Feature", "properties": { "moda": "KRL", "nama_stasiun_halte": "Gondangdia", "latitude": -6.1918644, "longitude": 106.8230084 }, "geometry": { "type": "Point", "coordinates": [ 106.8230084, -6.1918644 ] } },
{ "type": "Feature", "properties": { "moda": "KRL", "nama_stasiun_halte": "Sudirman", "latitude": -6.2025162, "longitude": 106.8236386 }, "geometry": { "type": "Point", "coordinates": [ 106.8236386, -6.2025162 ] } },
{ "type": "Feature", "properties": { "moda": "KRL", "nama_stasiun_halte": "Kampung Bandan", "latitude": -6.1348865, "longitude": 106.8272774 }, "geometry": { "type": "Point", "coordinates": [ 106.8272774, -6.1348865 ] } },
{ "type": "Feature", "properties": { "moda": "KRL", "nama_stasiun_halte": "Ancol", "latitude": -6.128115, "longitude": 106.8451374 }, "geometry": { "type": "Point", "coordinates": [ 106.8451374, -6.128115 ] } },
{ "type": "Feature", "properties": { "moda": "KRL", "nama_stasiun_halte": "Palmerah", "latitude": -6.1948463, "longitude": 106.7924436 }, "geometry": { "type": "Point", "coordinates": [ 106.7924436, -6.1948463 ] } },
{ "type": "Feature", "properties": { "moda": "KRL", "nama_stasiun_halte": "Duren Kalibata", "latitude": -6.2552012, "longitude": 106.8551672 }, "geometry": { "type": "Point", "coordinates": [ 106.8551672, -6.2552012 ] } },
{ "type": "Feature", "properties": { "moda": "KRL", "nama_stasiun_halte": "Pasar Minggu", "latitude": -6.2833322, "longitude": 106.8448558 }, "geometry": { "type": "Point", "coordinates": [ 106.8448558, -6.2833322 ] } },
{ "type": "Feature", "properties": { "moda": "KRL", "nama_stasiun_halte": "Pasar Minggu Baru", "latitude": -6.2626599, "longitude": 106.8517685 }, "geometry": { "type": "Point", "coordinates": [ 106.8517685, -6.2626599 ] } },
{ "type": "Feature", "properties": { "moda": "KRL", "nama_stasiun_halte": "Sawah Besar", "latitude": -6.1606672, "longitude": 106.8276549 }, "geometry": { "type": "Point", "coordinates": [ 106.8276549, -6.1606672 ] } },
{ "type": "Feature", "properties": { "moda": "KRL", "nama_stasiun_halte": "Mangga Besar", "latitude": -6.1412999, "longitude": 106.8231322 }, "geometry": { "type": "Point", "coordinates": [ 106.8231322, -6.1412999 ] } },
{ "type": "Feature", "properties": { "moda": "KRL", "nama_stasiun_halte": "Jayakarta", "latitude": -6.1412999, "longitude": 106.8231322 }, "geometry": { "type": "Point", "coordinates": [ 106.8231322, -6.1412999 ] } },
{ "type": "Feature", "properties": { "moda": "KRL", "nama_stasiun_halte": "Jakarta Kota", "latitude": -6.1375828, "longitude": 106.8146203 }, "geometry": { "type": "Point", "coordinates": [ 106.8146203, -6.1375828 ] } },
{ "type": "Feature", "properties": { "moda": "KRL", "nama_stasiun_halte": "Duri", "latitude": -6.1552809, "longitude": 106.8013247 }, "geometry": { "type": "Point", "coordinates": [ 106.8013247, -6.1552809 ] } },
{ "type": "Feature", "properties": { "moda": "KRL", "nama_stasiun_halte": "Angke", "latitude": -6.1447372, "longitude": 106.8007792 }, "geometry": { "type": "Point", "coordinates": [ 106.8007792, -6.1447372 ] } },
{ "type": "Feature", "properties": { "moda": "KRL", "nama_stasiun_halte": "Karet", "latitude": -6.2008717, "longitude": 106.8160024 }, "geometry": { "type": "Point", "coordinates": [ 106.8160024, -6.2008717 ] } },
{ "type": "Feature", "properties": { "moda": "KRL", "nama_stasiun_halte": "Tanah Abang", "latitude": -6.2007957, "longitude": 106.822788 }, "geometry": { "type": "Point", "coordinates": [ 106.822788, -6.2007957 ] } },
{ "type": "Feature", "properties": { "moda": "KRL", "nama_stasiun_halte": "Tanjung Priok", "latitude": -6.1106914, "longitude": 106.8814984 }, "geometry": { "type": "Point", "coordinates": [ 106.8814984, -6.1106914 ] } },
{ "type": "Feature", "properties": { "moda": "KRL", "nama_stasiun_halte": "Tebet", "latitude": -6.2263977, "longitude": 106.8584389 }, "geometry": { "type": "Point", "coordinates": [ 106.8584389, -6.2263977 ] } },
{ "type": "Feature", "properties": { "moda": "KRL", "nama_stasiun_halte": "Manggarai", "latitude": -6.2101704, "longitude": 106.849935 }, "geometry": { "type": "Point", "coordinates": [ 106.849935, -6.2101704 ] } }
]
}
